№,Point_type,Category,Name_mon,Name_eng,Aimag_name_mon,Aimag_name_eng,Soum_name_mon,Soum_name_eng,Lat,Long,Description_mon,Description_eng,Photo_URL,Name_kr,Name_jp,Name_cn,Name_ru
1,2,Түүхийн дурсгалт газар,Алтан сандал уулын дурсгал,Altan Sandal Grave,Архангай,Arkhangai,Ихтамир,Ikhtamir,47.5403,101.03996,"Ихтамир сумын төвөөс баруун урд зүгт 15 км-т орших Алтан сандал уулаас баруун хойш нэг км зайд жижиг товгор дээр дугуй далантай дугуй хүрээтэй хиргисүүр нэг, дугуй далантай дөрвөлжин хиргисүүр хоёр, жижиш дөрвөлжин булш найм бий. ","Located 15 km southwest of the center of Ikhtamir soum, one km northwest of Altan Sandal Mountain, on a small hillock, there is one circular-framed khirgisur with a circular dam, two square khirgisur with a circular dam, and eight small square tombs.",https://www.dropbox.com/scl/fi/1ew3fdzxtli0dn5i9kbtl/.jpg?rlkey=k3ceu5w6tto7pm4dwsgq8rpya&raw=1,알탄 짚신무덤,アルタン サンダルの墓,阿尔坦凉鞋坟墓,Алтанская сандаловая могила
2,2,Түүхийн дурсгалт газар,Билгэ хааны цогцолбор,Bilge Khan Complex,Архангай,Arkhangai,Хашаат,Khashaat,47.56014,102.84117,"Хашаат сумын Цайдам бригадын нутагт Өгий нуураас баруун урагш 36 км, Хархориноос хойш 47 км зайд Хөгшин Орхон голын зүүн эрэг, Цайдам нуурын баруун өмнө оршдог. ","It is located in the Tsaydam brigade area of ​​Khashaat soum, 36 km southwest of Ugii Lake and 47 km north of Kharkhorin, on the east bank of the Old Orkhon River and southwest of Tsaydam Lake.",https://www.dropbox.com/scl/fi/27whel5nxxsg09yet5vkk/.jpg?rlkey=4exqjq7g5zjuwlouxdijdcui8&dжйц=1,빌게칸 단지,ビルジ カーン コンプレックス,比尔格汗复合体,Комплекс Бильге Хан
3,1,Байгалийн үзэсгэлэнт газар,Булган уул,Bulgan Mountain,Архангай,Arkhangai,Эрдэнэбулган,Erdenebulgan,47.5116,101.4558,"Байгалийн үзэсгэлэнт байдал, түүхийн дурсгалт зүйлсийг нь хамгаалах зорилгоор 1965 онд улсын тусгай хамгаалалтад авсан. ",It was placed under special state protection in 1965 to protect its natural beauty and historical monuments.,https://www.dropbox.com/scl/fi/7twrxr8khoao3xh3yx1m6/.jpg?rlkey=1dajk3fc9s0jfosjalxx52l1z&raw=1,불간산,仏岩山,布尔干山,Гора Булган
4,2,Түүхийн дурсгалт газар,Вандан аваргын хөшөө,Vandan Avarga Statue,Архангай,Arkhangai,Батцэнгэл,Battsengel,47.78078,101.9687,"1994 онд бүтээж ,2014 онд сумын 90 жилийн ойн хүрээнд Вандан аваргын нэрэмжит хүндэтгэлийн талбайг байгуулж хөшөөг тэнд шилжүүлэн байршуулжээ.","It was built in 1994, and in 2014, as part of the soum's 90th anniversary, a memorial square was established in the name of Vandan Avarga and the statue was relocated there.",https://www.dropbox.com/scl/fi/umlqv16nptl5ncsz3kch5/.jpg?rlkey=tza0w5yxcb6tazzh9xouhivqw&raw=1,반단 아바르가 동상,ヴァンダン アヴァルガ像,凡丹·阿瓦尔加雕像,Статуя Вандана Аварги
5,4,Бусад,Дельфинтэй хөшөө,Delfintei Khushuu,Архангай,Arkhangai,Тариат,Tariat,48.1826,99.78723,Тариат сутын төвөөс баруун хойд зүгт 11 км зайтай оршино.,It is located 11 km northwest of the city center.,https://www.dropbox.com/scl/fi/lupxh5siskbw5yr36smnr/.jpg?rlkey=ew69v016qfb9cw1kdn7lyl0wj&raw=1,델핀테이 쿠슈,デルフィン亭クシュウ,德尔芬泰·库舒乌,Дельфинтей Хушуу
6,1,Байгалийн үзэсгэлэнт газар,Дуут нуур,Duut Lake,Архангай,Arkhangai,Хайрхан,Khairkhan,48.52532,101.90015,Хайрхан сумын төвөөс урд зүгт 9.5 км зайтай оршино.,It is located 9.5 km south of the center of Khairkhan soum.,https://www.dropbox.com/scl/fi/uqcl33451d8j7lwn5m4cq/Duu-lake.jpeg?rlkey=qava7rbonn2ejikcrkacmb2tu&raw=1,두트 호수,ダウト湖,杜特湖,Озеро Дуут
7,2,Түүхийн дурсгалт газар,Культегиний хөшөө,Kultegin Statue,Архангай,Arkhangai,Хашаат,Khashaat,47.56033,102.84072," Анх мэлхий чулуун дээр тамга бүхий нүүрэн талыг наран ургах зүг харуулан босгосон байжээ. Культегин гэдэг нь Түрэг улсын жанжин бөгөөд 684 онд төржээ. 16 настайгаасаа төрийн хэрэгт зүтгэж эхэлсэн ба ухаалаг, авъяаслаг жанжин байсан. Тэрээр 731 онд 47 настай таалал төгсөхөд тахилын онгон цогцолбор, шүтээний сүмийг түүний ах Билгэ хаан 732 онд дүүгийнхээ дурсгалд зориулан босгож ач хүү Йолуг тегин 20 хоног ухаж сийлжээ.","The first stone was erected with the stamped side facing the rising sun. Kultegin was a Turkic general born in 684. He began his career in state affairs at the age of 16 and was a wise and talented general. When he died in 731 at the age of 47, the sacrificial complex and the temple were built in 732 by his brother Bilge Khan in memory of his brother, and his grandson Yolug Tegin spent 20 days digging and carving it.",https://www.dropbox.com/scl/fi/uatduddzrrt7r5le86453/.JPG?rlkey=5skswjzder3fwtv2zfd07iv61&raw=1,쿨테긴 동상,クルテギン像,库尔特金雕像,Статуя Культегина
8,2,Түүхийн дурсгалт газар,Луут хотын туурь,Luut City Ruin,Архангай,Arkhangai,Өлзийт,Ulziit,48.02554,102.50808,Луут хот буюу Лүн Чан -Монголын анхны төрт улс Хүннү гүрний нийслэл хот. Луут хот нь тухайн цаг үедээ хаад язгууртны тансаг зэрэглэлийн зуны нийслэл байжээ. Өлзийт сумын төвөөс баруун урд зүгт 9 км зайтай оршино.,"Luut city or Lun Chan - the capital of the first Mongol state, the Hunnic Empire. Luut city was a luxurious summer capital of the kings and nobles at that time. It is located 9 km southwest of the center of Ulziit soum.",https://www.dropbox.com/scl/fi/a7dwszom8l2soz90k1ynh/.jpeg?rlkey=lz6brwdhp299mj8x78ohfmjc9&raw=1,루트시티 유적,ルウトシティ遺跡,卢特城遗址,Руины города Луут
9,1,Байгалийн үзэсгэлэнт газар,Мөст агуй,Must Agui,Архангай,Arkhangai,Тариат,Tariat,48.17204,99.82978,Тариат сутын төвөөс баруун хойд зүгт 5 км зайтай оршино.,It is located 5 km northwest of the center of Tariat.,https://www.dropbox.com/scl/fi/p3yzdle4txnqessxzmm08/.jpg?rlkey=0zn3bzd758dvpzcqmta2zh6je&raw=1,머스트 아구이,マストアグイ,必须阿吉,Должен Агуи
10,1,Байгалийн үзэсгэлэнт газар,Мэлхий хад,Frog Rock,Архангай,Arkhangai,Тариат,Tariat,48.18113,99.78851,Тариат сутын төвөөс баруун хойд зүгт 11 км зайтай оршино.,It is located 11 km northwest of the city center.,https://www.dropbox.com/scl/fi/2fysatbpfjcb9151a4r44/1.jpg?rlkey=yztpqhr3higepa1pes9olp3ki&raw=1,개구리바위,カエル岩,青蛙岩,Лягушачья скала
11,1,Байгалийн үзэсгэлэнт газар,Өгий нуур,Ugii Lake,Архангай,Arkhangai,Өгийнуур,Ogiinur,47.77405,102.783,"25 хавтгай дөрвөлжин километр талбайтай нуур. 7 километр урт, 5 километр өргөн. Хамгийн гүнзгий газартаа 15 метр орчим. Далайн төвшнөөс дээш 1337 метр өргөгдсөн. Өгийнуур сумын төвөөс зүүн хойд зүгт 24 км зайтай оршино.","Lake with an area of ​​25 square kilometers. 7 kilometers long, 5 kilometers wide. About 15 meters at its deepest point. Elevated 1337 meters above sea level. Located 24 km northeast of the center of Ugiinuur soum.",https://www.dropbox.com/scl/fi/6kyr7ad34a6ag2q8e499u/Ugiilake.jpg?rlkey=lp4khy3wthubsefu79crwclr5&raw=1,우기이 호수,ウギー湖,乌吉湖,Озеро Угий
12,1,Байгалийн үзэсгэлэнт газар,Суварга хайрхан уул,Suvarga Khairkhan Mountain,Архангай,Arkhangai,Цэнхэр,Tsenkher,47.05601,101.36538,"Суварга хайрхан уул нь хормойгоороо ой модоор хучигдсан, нүцгэн оройтой, ноён оргилоосоо доош уулын энгэр талдаа тунгалаг нууртай, завилаад сууж буй хүн шиг сонин тогтоц бүхий уул юм. ","Suvarga Khairkhan Mountain is a mountain with a bare peak, covered with forests along its slopes, and a clear lake on the slopes below its peak, with a curious shape resembling a man sitting cross-legged.",https://www.dropbox.com/scl/fi/x4szah8x9x9yuq1jfkwee/.jpg?rlkey=d5luxwwj69fnqksr2pp972a4s&raw=1,수바르가 카이르칸 산,スヴァルガ・ハイルカン山,苏瓦尔加凯尔汗山,Гора Суварга Хайрхан
13,1,Байгалийн үзэсгэлэнт газар,Тайхар чулуу,Taikhar Rock,Архангай,Arkhangai,Ихтамир,Ikhtamir,47.6005,101.25363," Хойд Тамир голын эрэгт байрлах Тайхар чулуу нь аймгийн төвөөс 20 км зайд оршдог, 16 метр өндөр эгц боржин чулуун цохио юм. Энэхүү гайхалтай чулууг бий болсон талаар олон домог бий.","Located on the banks of the Northern Tamir River, Taikhar Rock is a steep granite cliff 16 meters high, located 20 kilometers from the provincial center. There are many legends about the formation of this amazing rock.",https://www.dropbox.com/scl/fi/13w5rhok9mrec1q7xcw3x/TaikharRock.jpg?rlkey=kvu79r3r0hzbgxzncn54m2hgy&raw=1,타이카르 록,タイカール ロック,泰卡岩,Тайхар Рок
14,1,Байгалийн үзэсгэлэнт газар,Тамирын гол,Tamir River,Архангай,Arkhangai,Өгийнуур,Ogiinur,47.76034,102.51995,"Урд, Хойд Тамирын голууд нийлэн Тамирын гол нэртэйгээр зүүн зүгт  урсан Өгий нуурт цутгана.","The South and North Tamir rivers merge and flow into Lake Ogii, which flows eastward under the name Tamir.",https://www.dropbox.com/scl/fi/dcsqnd5pvyhfw19dwigc7/.jpg?rlkey=rq8cmolma4afprfenfwj05tul&raw=1,타미르 강,タミール川,塔米尔河,Река Тамир
15,1,Байгалийн үзэсгэлэнт газар,Тэрхийн цагаан нуур,Terkhiin Tsagaan Lake,Архангай,Arkhangai,Тариат,Tariat,48.16129,99.72011,"Хоргын тогооны дэргэд байрлах цэнгэг уст нуур. Хангайн нуруунаас эх авсан Хойд, Урд Тэрхийн голын урсгал Хорго галт уулын халуун хайлмал бодист боогдон үүсчээ.","A freshwater lake located near the Khorgo crater. The North and South Terkh rivers, originating in the Khangai Mountains, were formed by the hot molten material of the Khorgo volcano.",https://www.dropbox.com/scl/fi/scpuie9gev6fiuhujrpw5/Terkhiinlake.jpg?rlkey=0wh36erf7gnapyniq8f0t4lsx&raw=1,테르킨 차간 호수,テルヒン・ツァガーン湖,特尔欣察干湖,Озеро Терхийн Цагаан
16,1,Байгалийн үзэсгэлэнт газар,Хануй гол,Khanui River,Архангай,Arkhangai,Өндөр-Улаан,Undur-Ulaan,48.02396,101.03394,"Архангай аймгийн нутгаар Хангайн нуруунаас эх авч зүүн хойшоо 421 км урсаад Сэлэнгэ мөрөнд нийлдэг. Хануй, Хүнүй голын бэлчирээс доошлох тусам 20-30 метр гүн эгц хүрмэн хавцал дундуур урсана. ","It originates in the Khangai Range in Arkhangai Province and flows northeast for 421 km before joining the Selenge River. As it descends from the confluence of the Khanui and Khunui rivers, it flows through steep, 20-30 meter deep gorges.",https://www.dropbox.com/scl/fi/6b2lth1xkt8bzadvhqed6/.jpg?rlkey=p4of6u11n3d7h8y822g32zf93&raw=1,카누이 강,ハヌイ川,卡努伊河,Река Хануй
17,2,Түүхийн дурсгалт газар,Хар балгас,Khar Balgas Ruin ,Архангай,Arkhangai,Хотонт,Khotont,47.4313,102.65975,Төв Азийн нүүдэлч ард түмний дунд МЭ VIII-IХ зууны үед ээлжит төр улсаа байгуулан 100 орчим жил оршин тогтнож байсан Уйгурын хаант улсын нийслэл Орду балык буюу нутгийнхны нэршлээр Хар балгас гэдэг их хотын туурь  Хархориноос зүүн хойш 40 км-т Орхоны хөндийд байдаг.,"The ruins of the great city of Ordu Balyk, or Khar Balgas as the locals call it, the capital of the Uyghur Khanate, which was a nomadic people of Central Asia that established its own state in the 8th-9th centuries AD and existed for about 100 years, are located 40 km northeast of Kharkhorin in the Orkhon Valley.",https://www.dropbox.com/scl/fi/220zxyzkegu9sk9pg5tsd/.jpg?rlkey=t52wgv0bik45cyxoe8bx2bjb7&raw=1,카르 발가스 폐허,カール・バルガス遺跡,卡尔巴尔加斯遗址,Руины Хар Балгаса
18,1,Байгалийн үзэсгэлэнт газар,Хорго уул,Khorgo Mountain,Архангай,Arkhangai,Тариат,Tariat,48.18629,99.85693,Одоогоос 9 мянга орчим жилийн өмнө дэлбэрч байгаад унтарсан галт уул юм. Далайн түвшнээс дээш 2240 метрийн өндөр бөгөөд  Тариат сумын төөөс баруун хойд зүгт 4 км зайтай оршино.,"It is a dormant volcano that erupted about 9,000 years ago. It is 2,240 meters above sea level and is located 4 km northwest of Tariat soum.",https://www.dropbox.com/scl/fi/4085jwtnb3atpiitt3rm1/Khorgo.jpg?rlkey=kbvf7dujt7940bkzdct4ms6qs&raw=1,코르고 산,ホルゴ山,霍尔果山,Гора Хорго
19,1,Байгалийн үзэсгэлэнт газар,Хөдөө нуур,Khuduu Lake,Архангай,Arkhangai,Тариат,Tariat,48.16511,99.53246,Тэрхийн цагаан нуурын баруун талд 2.5 км зйтай далайн түвшнээс дээш 2061 метр өндөрт оршино   оршино.,"It is located on the west side of Lake Terkhin, 2.5 km long, at an altitude of 2061 meters above sea level.",,쿠두 호수,クドゥ湖,库杜湖,Озеро Худуу
20,2,Түүхийн дурсгалт газар,Хөшөө цайдам музей,Khushuu Tsaidam Museum,Архангай,Arkhangai,Хашаат,Fence,47.56083,102.84082,"Монгол Улсын Засгийн газрын 2010 оны 32-р тоот тогтоолоор Монгол Улсын нутаг дэвсгэр дээр оршиж байсан Түрэгийн хаант улсын түүх, соёлтой холбогдол бүхий хосгүй үнэт эд өлгийн зүйл, олдворыг хадгалж хамгаалах, судлах, сурталчилах үүрэг бүхий Хөшөө Цайдам музей байгуулагдсан юм. Музей нь байнгын үзэсгэлэнгийн танхим, түр үзэсгэлэнгийн танхим болон гадна үзэсгэлэнгийн талбайтай.","The Hushöö Tsaydam Museum was established by the Mongolian Government Decree No. 32 of 2010, with the mission of preserving, studying, and promoting unique valuable artifacts and finds related to the history and culture of the Turkic Khanate that existed on the territory of Mongolia. The museum has a permanent exhibition hall, a temporary exhibition hall, and an outdoor exhibition area.",https://www.dropbox.com/scl/fi/h1xf9khhwfdl0395niskb/.jpg?rlkey=y09dn496ixyhkx0nvqcq36gfl&raw=1,쿠슈 차이담 박물관,クシュウ・サイダム博物館,胡舒·柴达姆博物馆,Музей Хушуу Цайдама
21,1,Байгалийн үзэсгэлэнт газар,Хунт нуур,Khunt Lake,Архангай,Arkhangai,Тариат,Tariat,48.07585,99.51652,"Тэрхийн цагаан нуурын баруун өмнө зүгт 6.5 км  зайтай, далайн түшвнээс дээш 2060 метрийн өндөрт оршино.","It is located 6.5 km southwest of Lake Terkhin Tsagaan and at an altitude of 2,060 meters above sea level.",,쿤트 호수,クント湖,昆特湖,Озеро Хант
22,3,Шашны дурсгалт газар,Цахирын 2 шүтээн,Tsakhir Two Monks Stupa,Архангай,Arkhangai,Цахир,Tsakhir,48.09223,98.73099,"Суварган дотор Тойн-Эрдэнэ Чүлтэмжамц буюу Өвгөн Гэсэр лам, түүний шавь Цорж-аграмба Санжжав нарын “занданшсан шарил” буй бөгөөд эдгээрийг ХОС ОРШИНОЛ хэмээн нэрлэжээ. ","Inside the stupa are the “buried remains” of Toin-Erdene Chultemjamts, or Old Geser Lama, and his disciple Tsorj-agramba Sanjjav, which are called DOUBLE RESIDENCES.",https://www.dropbox.com/scl/fi/mminvcqzh63nzubzu5tt6/2.jpg?rlkey=bbo59ibfyoshwhczoe0vck05o&raw=1,차키르 두 승려 스투파,ツァキルの二人の僧侶の仏塔,查基尔二僧舍利塔,Ступа двух монахов Цахир
23,1,Байгалийн үзэсгэлэнт газар,Чулуутын гол,Chuluut River,Архангай,Arkhangai,"Тариат, Чулуут, Өндөр-Улаан","Tariat, Chuluut, Undur-Ulaan",48.15943,100.30425,"Чулуут голын урт 415км. Энэ гол Хангайн нурууны хамгийн өндөр хэсгээс эх авдаг учраас унал их, урсгал хурдтай уулын гол юм. ","The Chuluut River is 415 km long. It originates from the highest part of the Khangai Mountains, making it a mountain river with a high gradient and fast flow.",https://www.dropbox.com/scl/fi/xprl0gyzzsnv1bd3w84o4/.jpg?rlkey=2dkksyd504vmwc2a9wy1wkvx0&raw=1,출루트 강,チュルート川,楚鲁特河,Река Чулуут
24,1,Байгалийн үзэсгэлэнт газар,Чулуутын хавцал,Chuluut Canyon,Архангай,Arkhangai,Өндөр-Улаан,Undur-Ulaan,48.13213,100.27831,Чулуут гол нь Тээлийн голын адгаас доош Ацатын горхины адаг хүртэл 100 орчим км газарт 40-60 орчим м гүн хүрмэн чулуун хавцал үүсгэж урсана.,"The Chuluut River flows for about 100 kilometers from the mouth of the Teeli River to the mouth of the Atsat Stream, creating a 40-60 m deep rocky gorge.",https://www.dropbox.com/scl/fi/joyb1bg3wevy1kihv01mr/.jpg?rlkey=j3gwxw8x0rfgl49k31blni2fk&raw=1,출루트 캐년,チュルウト渓谷,楚鲁特峡谷,Чулуутский каньон
25,1,Байгалийн үзэсгэлэнт газар,Шар нохойн там,Shar Nokhoin Tam,Архангай,Arkhangai,Тариат,Tariat,48.17286,99.82929,Тариат сутын төвөөс баруун хойд зүгт 5 км зайтай оршино.,It is located 5 km northwest of the center of Tariat.,https://www.dropbox.com/scl/fi/sy497wahg3sc3a7osk3ft/.jpg?rlkey=6nyvzkqhdhzhdks8a4ktbmcka&raw=1,샤 녹호인 탐,シャール・ノクホイン・タム,沙尔·诺科因·谭,Шар Нохоин Там
26,1,Байгалийн үзэсгэлэнт газар,Шивэртийн нуур,Shivert Lake,Архангай,Arkhangai,Тариат,Tariat,48.1096,99.17569,"Тэрхийн цагаан нуурын баруун зүгт 32 км  зайтай, далайн түшвнээс дээш 2050 метрийн өндөрт оршино.","It is located 32 km west of Lake Terkhin Tsagaan and at an altitude of 2,050 meters above sea level.",,쉬버트 호수,シバート湖,希弗特湖,Озеро Шиверт
27,1,Байгалийн үзэсгэлэнт газар,Халуун-Ус рашаан,Hot-Water Spring,Архангай,Arkhangai,Чулуут,Chuluut,47.75654,100.24363,Чулуут сумын Халуун-Ус багийн нутагт байдаг халуун рашаан,Hot springs in the Khaluun-Us Bag area of ​​Chuluut soum,,온천,温泉,温泉,Горячий источник
28,2,Түүхийн дурсгалт газар,Бага наран суварга,Baga Naran stupa,Архангай,Arkhangai,Чулуут,Chuluut,47.73031,100.26335,Эрдэм чадалтай Нарангийн Шоовой багш түүний шавь Ширээт гэгээн нарын амьдарч байсан газар. Чулуут сумын төвөөс хойд зүгт 30 км зайтай оршино. ,The place where the learned Naranian Shoovoy and his disciple Shireet Gegegen Lama lived. It is located 30 km north of the center of Chuluut soum.,,바가 나란,バガ・ナラン,巴加纳兰,Бага Наран
29,2,Түүхийн дурсгалт газар,Улаан овоо суварга,Ulaan Ovoo Stupa,Архангай,Arkhangai,Чулуут,Chuluut,47.674,100.33014,Чулуут сумын төвөөс зүүн хойд зүгт 20 орчим км затай оршино.,It is located about 20 kilometers northeast of the center of Chuluut soum.,,울란 오보 스투파,ウラン・オヴォー仏塔,乌兰峨眉佛塔,Ступа Улан-Овоо
30,1,Байгалийн үзэсгэлэнт газар,Цогт сүмбэр уул,Tsogtsumber Mountain,Архангай,Arkhangai,Чулуут,Chuluut,47.20897,100.11887,Чулуут сумын нутагт орших далайн түвшнээс дээш 3348.4 метр өндөрт орших сүрлэг сайхан хайрхан юм.,"It is a majestic and beautiful mountain located at an altitude of 3,348.4 meters above sea level in Chuluut soum.",https://www.dropbox.com/scl/fi/5wi2jot24ngcwy3hz88zc/.jpg?rlkey=maku4i07rea0s17xo93ju9wsc&raw=1,초그트 숨버 산,ツォグト・スンベル山,特索格特桑伯山,Гора Цогт-Сумбер
31,1,Байгалийн үзэсгэлэнт газар,Хорго Тэрхийн Цагаан Нуур БЦГ,Khorgo Terkhian Tsagaan Nuur Natural Park,Архангай,Arkhangai,Тариат,Tariat,48.20705,99.64969,"Тэрхийн цагаан нуур, Хорго унтарсан галт уулын хосолсон аялал жуулчлалын бүс нутаг",Terkhian Tsagaan Nuur and Khorgo extinct volcano combined tourism area star_border Save translation,https://www.dropbox.com/scl/fi/2se6ysqtmev2opkjxpvbj/.jpg?rlkey=3jenmyr0v18ukn0ue2geyeu7x&raw=1,코르고 테르키안 차가안 누르 자연공원,ホルゴ テルキアン ツァガーン ヌール自然公園,霍尔果·特尔赫安·察干努尔自然公园,Природный парк Хорго Терхян Цагаан Нуур
32,1,Байгалийн үзэсгэлэнт газар,Алаг нуур,Alag Lake,Баян-Өлгий,Bayan-Olgii,Ногооннуур,Nogoonnuur,49.51523,89.84679,Цагааннуур багийн төвөөс баруун зүгт 6 км зайтай оршино.,It is located 6 km west of the center of Tsagaannuur.,,알라그 호수,アラグ湖,阿拉格湖,Озеро Алаг
33,1,Байгалийн үзэсгэлэнт газар,Алтай таван богд уул,Altai Tavan Bogd Mountain,Баян-Өлгий,Bayan-Olgii,Цэнгэл,Tsengel,48.62961,88.53588,Байгалийн цогцолборт газар,National Park,https://www.dropbox.com/scl/fi/du63hmqh4aedhvuqv36q4/.jpg?rlkey=vdkawztvt4qh5ygjq7bsdr710&raw=1,알타이 타반 복드 산,アルタイ タヴァン ボグド山,阿尔泰塔万博格德山,Гора Алтай Таван Богд
34,1,Байгалийн үзэсгэлэнт газар,Бага түргэний хүрхрээ,Baga Turgen Waterfall,Баян-Өлгий,Bayan-Olgii,Цэнгэл,Tsengel,48.50773,88.36274,Далайн түвшнээс дээш 2400 м өндөрт байдаг хүрхрээ,A waterfall located at an altitude of 2400 m above sea level,https://www.dropbox.com/scl/fi/aaukv315irrwexqpxmvk2/.jpg?rlkey=7g8zsol7fzaff1dxpefav1yws&raw=1,바가 투르겐 폭포,バガ トゥルゲンの滝,巴加图尔根瀑布,Водопад Бага Тургень
35,1,Байгалийн үзэсгэлэнт газар,Бага хатуугийн нуур,Baga Khatuu Lake,Баян-Өлгий,Bayan-Olgii,Цэнгэл,Tsengel,49.058,88.389,Цэнгэл сумын төвөөс баруун хойд зүгт 64 км зайтай орших өндөр уулын цэнгэг нуур,A high mountain fresh lake located 64 km northwest of the center of Tsengel soum.,,바가 카투 호수,バガカトゥ湖,巴加卡图湖,Озеро Бага Хатуу
36,1,Байгалийн үзэсгэлэнт газар,Баяннуур,Bayan Lake,Баян-Өлгий,Bayan-Olgii,Баяннуур,Bayannuur,48.83685,90.91247,Баяннуур сумын төв далйн түвшнээс дээш 1577 метр өндөрт байх энэхүү нуурын баруун хойд эрэгт оршино,"The center of Bayannur soum is located on the northwestern shore of this lake, which is 1,577 meters above sea level.",,바얀 호수,バヤン湖,巴彦湖,Озеро Баян
37,1,Байгалийн үзэсгэлэнт газар,Даян нуур,Dayan Lake,Баян-Өлгий,Bayan-Olgii,Сагсай,Sagsai,48.33838,88.84895,Далын түвшнээс дээш 2232 м өндөрт орших цэнгэг нуур улсын хилээс 12.5 км зайтай байна. ,"The freshwater lake, located at an altitude of 2,232 m above sea level, is 12.5 km from the state border.",https://www.dropbox.com/scl/fi/jbjsrof9pw1amb50q55uu/Dayanlake.jpg?rlkey=gmrt0pqach14p7uz0va1bsuk6&raw=1,다얀 호수,大研湖,大研湖,Озеро Даян
38,1,Байгалийн үзэсгэлэнт газар,Дунд нуур,Dund Lake,Баян-Өлгий,Bayan-Olgii,Ногооннуур,Nogoonnuur,49.49834,89.79635,Цагааннуур багийн төвөөс  баруун зүгт 2 км зайтай оршино.,It is located 2 km west of the center of Tsagaannuur.,,던드 레이크,ダンド湖,邓德湖,Озеро Дунд
39,1,Байгалийн үзэсгэлэнт газар,Мөнххайрхан уул,Munkhkhairkhan Mountain,Баян-Өлгий,Bayan-Olgii,Булган,Bulgan,47.0623,91.36196,"Баян-Өлгий аймгийн Булган сум, Ховд аймгийн Мөнххайрхан сумын хил залгаа нутгийг дамнан 40-80 километрийн өргөнтэйгөөр баруун хойноос зүүн урагш 200 гаруй километр үргэлжлэн оршдог. Мөнххайрхан уулын ноён оргил нь 4362 метр өндөр бөгөөд мөнх цас мөсөн гол бүхий Монголын хоёр дахь өндөр оргил болно. ","It extends from northwest to southeast for more than 200 kilometers, with a width of 40-80 kilometers, across the border of Bulgan soum of Bayan-Olgii aimag and Munkhkhairkhan soum of Khovd aimag. The peak of Munkhkhairkhan Mountain is 4362 meters high and is the second highest peak in Mongolia with a permanent snow and glacier.",https://www.dropbox.com/scl/fi/wq240zy8ggrumzdm07kjp/.jpg?rlkey=qxow63kmmy88ckejwykzhnby3&raw=1,문크카이르칸 산,ムンクハイルカン山,蒙克凯尔汗山,Гора Мунххайрхан
40,4,Бусад,Найрамдал толгой,Nairamdal Hill,Баян-Өлгий,Bayan-Olgii,Өлгий,Olgii,48.97838,89.9811,Өлгий хотын эргэн тойрныг харах цэг,Viewpoint overlooking the city of Ulgii,https://www.dropbox.com/scl/fi/4oc8mvhpowt9r9p6g6miq/.jpg?rlkey=pyvbfpmxoegtcckuxenakw8ks&raw=1,나이람달 언덕,ナイラムダルの丘,奈拉姆达尔山,Найрамдал Хилл
41,1,Байгалийн үзэсгэлэнт газар,Онхотын нуур,Onkhot Lake,Баян-Өлгий,Bayan-Olgii,Цэнгэл,Tsengel,48.69259,88.59157,Далайн түвшнээс дээш 2113 м өндөрт орших цэнгэг нуур,A freshwater lake located 2113 m above sea level,,온코트 호수,オンコート湖,翁科特湖,Озеро Онхот
42,1,Байгалийн үзэсгэлэнт газар,Потанины мөсөн гол,Potanin Glacier,Баян-Өлгий,Bayan-Olgii,Цэнгэл,Tsengel,49.14837,87.91775,"Монголын хамгийн том мөсөн гол бөгөөд 20 км урт, 5 км өргөнтэй байна. ","It is the largest glacier in Mongolia, measuring 20 km long and 5 km wide.",https://www.dropbox.com/scl/fi/n02um3d9ekm4cvlb0mp0u/.jpg?rlkey=5iroaqryr64vqzjztzwc6vgnn&raw=1,포타닌 빙하,ポタニン氷河,波塔宁冰川,Ледник Потанина
43,1,Байгалийн үзэсгэлэнт газар,Таван бэлчирийн хүрхрээ,Tavan Belchir Waterfall,Баян-Өлгий,Bayan-Olgii,Баяннуур,Bayannuur,48.74614,90.70546,"Алтанцөгц сумын төвөөс зүүн өмнө зүгт 20 гаруй км, Баяннуур сумын төвөөс баруун урд зүгт 30 км зайтай оршино.",It is located more than 20 km southeast of the center of Altantsugts soum and 30 km southwest of the center of Bayannur soum.,,타반 벨치르 폭포,タヴァン ベルチル滝,塔万贝尔奇瀑布,Водопад Таван Бельчир
44,1,Байгалийн үзэсгэлэнт газар,Тал нуур,Tal Lake,Баян-Өлгий,Bayan-Olgii,Дэлүүн,Deluun,48.048,90.183,Дэлүүн сумын төвөөс баруун хойд зүгт 55 км зайтай оршино.,It is located 55 km northwest of the center of Deluun soum.,,탈 레이크,タル・レイク,塔尔湖,Озеро Таль
45,1,Байгалийн үзэсгэлэнт газар,Толбо нуур,Tolbo Lake,Баян-Өлгий,Bayan-Olgii,Толбо,Tolbo,48.54871,90.05283,"Толбо сумын төвөөс баруун хойд зүгт 13 км зайд,  далайн түвшнээс дээш 2079 м өндөрт оршино.","It is located 13 km northwest of the center of Tolbo soum, at an altitude of 2,079 m above sea level.",https://www.dropbox.com/scl/fi/rtfyzvl9kqac3134q2wg9/.jpg?rlkey=5nraex4dnixfh2zpevczadrqv&raw=1,톨보 호수,トルボ湖,托尔博湖,Озеро Толбо
46,1,Байгалийн үзэсгэлэнт газар,Хар нуур,Khar Lake,Баян-Өлгий,Bayan-Olgii,Цэнгэл,Tsengel,48.60974,88.92814,Хурган нуураас зүүн зүгт 15 км зайтай оршино.,It is located 15 km east of Lake Khurgan.,,카르 호수,カール湖,卡尔湖,Озеро Хар
47,1,Байгалийн үзэсгэлэнт газар,Хар нуур,Khar Lake,Баян-Өлгий,Bayan-Olgii,Цэнгэл,Tsengel,48.84793,88.55061,Далайн түвшнээс дээш 2614 м өндөрт орших цэнгэг нуур,A freshwater lake located at an altitude of 2614 m above sea level.,,카르 호수,カール湖,卡尔湖,Озеро Хар
48,1,Байгалийн үзэсгэлэнт газар,Хотон нуур,Khoton Lake,Баян-Өлгий,Bayan-Olgii,Цэнгэл,Tsengel,48.65424,88.29729,Далайн түвшнээс 2083 м өндөрт өргөгдсөн цэнгэг уст нуур. Улсын хилээс 10 хүрэхгүй км зайтай оршино. ,A freshwater lake located at an altitude of 2083 m above sea level. It is located less than 10 km from the state border.,https://www.dropbox.com/scl/fi/xak1pryofymn0rng2cewe/.jpg?rlkey=0tic9dj6f3yekwm8zaj86c8z1&dlraw=1,코톤 호수,コトン湖,科顿湖,Озеро Хотон
49,1,Байгалийн үзэсгэлэнт газар,Хурган нуур,Khurgan Lake,Баян-Өлгий,Bayan-Olgii,Цэнгэл,Tsengel,48.55365,88.61064,Далын түвшнээс дээш 2073  м өндөрт орших цэнгэг нуур улсын хилээс 13 км зайтай байна. ,"The freshwater lake, located at an altitude of 2,073 meters above sea level, is 13 km from the country's border.",https://www.dropbox.com/scl/fi/7445oktjd85294pxrdf4j/.jpg?rlkey=zrq29jd1ybejwgrlo2dsgt3mb&raw=1,쿠르간 호수,クルガン湖,库尔干湖,Озеро Хурган
50,1,Байгалийн үзэсгэлэнт газар,Цамбагарав уул,Tsambagarav Mountain,Баян-Өлгий,Bayan-Olgii,Баяннуур,Bayannuur,48.618,90.904,"Цамбагарав уул мөнх цаст уул бөгөөд 4195 метр өндөр. Ховд, Баян-Өлгий аймгийн хил дамнан оршино.","Tsambagarav Mountain is a snow-capped mountain with an altitude of 4,195 meters. It is located on the border of Khovd and Bayan-Olgii aimags.",https://www.dropbox.com/scl/fi/j06i6pmbqxxs1hp5i1bav/.jpg?rlkey=s2uskqibpo820vljar19verpf&raw=1,참바가라브 산,ツァンバガラブ山,桑巴嘎拉夫山,Гора Цамбагарав
51,1,Байгалийн үзэсгэлэнт газар,Чигэртэй нуур,Chigertei Lake,Баян-Өлгий,Bayan-Olgii,Дэлүүн,Deluun,47.87762,90.46988,Дэлүүн сумын төвөөс баруун хойд зүгт 30 гаруй км зайтай оршино.,It is located more than 30 kilometers northwest of the center of Deluun soum.,,치게르테이 호수,チゲル亭湖,奇格泰湖,Озеро Чигертей
52,1,Байгалийн үзэсгэлэнт газар,Шивээт хайрхан уул,Shiveet Kharkhan Mountain,Баян-Өлгий,Bayan-Olgii,Цэнгэл,Tsengel,49.108,88.223,"Шивээт Хайрхан уул, түүний хоёр талаас урсах Цагаан салаа, Хар салаа хоёр голын савд орших Хөх чулуу, Хар чулуу зэрэг газарт орших хадны зургийн дурсгалт газар нь нийт 240 гаруй хаданд зурсан зохиомж зурагнаас бүрдэнэ. ","The rock art monument, located in the basin of the Tsagaan Salaa and Khar Salaa rivers flowing from both sides of Mount Shiveet Khairkhan, consists of a total of more than 240 rock paintings.",https://www.dropbox.com/scl/fi/daip3po4c7y9s1dlaph5h/.jpg?rlkey=m12bwc3bnepyqgib9c06bprl3&raw=1,시베트 카르칸 산,シベット・ハルカン山,什维特·哈尔汗山,Гора Шивит Хархан
53,1,Байгалийн үзэсгэлэнт газар,Эхэн нуур,Ekhen Lake,Баян-Өлгий,Bayan-Olgii,Ногооннуур,Nogoonnuur,49.48598,89.75135,Цагааннуур багийн төвөөс өмнө зүгт 3 км зайтай оршино.,It is located 3 km south of the center of Tsagaannuur.,,에켄 호수,エケン湖,埃肯湖,Озеро Эхен
54,1,Байгалийн үзэсгэлэнт газар,Цаст уул,Tsast Mountain,Баян-Өлгий,Bayan-Olgii,Алтагцөгц,Altantsugts,48.68171,90.725,"Алтанцөгц, Баяннуур сумын хилийн заагт далайн түвшнээс дээш 4208 метр өндөртэй, мөнх цаст уул юм. ","This mountain is a perpetually snowy mountain, 4208 meters above sea level, on the border of Altantsogts and Bayannur soums.",https://www.dropbox.com/scl/fi/y5o79rp7lkhoeeg6j2edn/.jpg?rlkey=wzprm8jy95cgp8z4bdc5y3cbn&raw=1,차스트 산,ツァスト山,察斯特山,Гора Цаст
55,1,Байгалийн үзэсгэлэнт газар,Ёлтын сав газар,Yoltyn Basin,Баян-Өлгий ,Bayan-Olgii,Сагсай,Sagsai,48.17342,89.13895,Ёлтын сав газар нь Алтай суманд байрладаг. БНХАУ-тай хиллэдэг бөгөөд Алтай таван богдын байгалийн цогцолборт газрын үзэсгэлэнт газруудын нэг. ,The Yolt Basin is located in Altai Sum. It borders China and is one of the most beautiful places in the Altai Five Bogds National Park.,https://www.dropbox.com/scl/fi/6j1bq4il2sq0vvbw2d7kn/.jpg?rlkey=ehfsj62ef62y79cm1tgai4q4p&raw=1,욜틴 분지,ヨルティン盆地,约尔廷盆地,Ёлтынская котловина
56,3,Шашны дурсгалт газар,Амарбуянт хийд,Amarbuyant Monastery,Баянхонгор,Bayankhongor,Баян-Өндөр,Bayan-Undur,44.62828,98.70212,Баян-Өндөр сумын нутагт  Шинэжинст сумаас баруун тийш 47км  орчим зайд  250 гаруй жилийн түүхтэй Амарбуянтын хийд оршино. ,"In Bayan-Ondur soum, about 47 km west of Shinejinst soum, there is the Amarbuyant Monastery, which has a history of over 250 years.",https://www.dropbox.com/scl/fi/pwe2wf3rgswfe01zy44tv/.jpg?rlkey=xv428dbijn4rzynqgpfyzkatu&raw=1,아마르부얀트 수도원,アマルブヤント修道院,阿玛布扬特修道院,Амарбуянтский монастырь
57,1,Байгалийн үзэсгэлэнт газар,Бага Шаргалжуут,Baga Shargaljuut ,Баянхонгор,Bayankhongor,Өлзийт,Ulziit,46.23534,101.15372,Өлзийт сумын төвөөс зүүн хойд зүгт 45 км зайтай орших байгалийн үзэсгэлэнт газар.,A beautiful natural area located 45 km northeast of the center of Ulziit soum.,https://www.dropbox.com/scl/fi/zzo7h69p8mcdz79eg2bsl/.jpg?rlkey=28qr3wtd8krvnjnl7zqqrp35s&raw=1,바가 샤갈주트,バガ シャルガルジュート,巴加·沙加尔尤特,Бага Шаргалджут
58,1,Байгалийн үзэсгэлэнт газар,Бөөнцагаан нуур,Buuntsagaan Lake,Баянхонгор,Bayankhongor,Баацагаан,Baatsagaan,45.58828,99.10458,"Нууруудын хөндий дэх хамгийн том нуур юм. Нуурт Байдраг гол цутгана.  Баацагаан сумын төвөөс баруун зүгт 25 км зайтай , далайн түвшнээс дээш 1313 метр өргөгдсөн.","It is the largest lake in the Valley of Lakes. The Baidrag River flows into the lake. It is located 25 km west of the center of Baatsagaan soum, at an altitude of 1313 meters above sea level.",https://www.dropbox.com/scl/fi/53v2ymqqnw6wp0o580i5p/.jpg?rlkey=9atdavide2875tdndz1bg1w0f&raw=1,분차간 호수,ブントサガーン湖,布恩查干湖,Озеро Буунцагаан
59,1,Байгалийн үзэсгэлэнт газар,Галуутын хавцал,Galuut Canyon,Баянхонгор,Bayankhongor,Галуут,Galuut,46.60548,99.97078,"төвөөс 75 км, Галуут сумын төвөөс баруун тийш 20 орчим км-т оршдог. Олгой нуураас Галуут гол тийшээ урсан гарахдаа 2 км орчим урт энэ хавцлыг үүсгэжээ. Хавцал нь 100-150 орчим метр гүнзгий эгц цавчим бөгөөд өргөн нь дунджаар 10 метр орчим болно. ","It is located 75 km from the center of the city and about 20 km west of the center of Galuut soum. As it flows from Olgoi Lake to the Galuut River, it forms this canyon about 2 km long. The canyon is a steep gorge about 100-150 meters deep and has an average width of about 10 meters.",https://www.dropbox.com/scl/fi/wjz9bgn81qmsnwpwhumds/.jpg?rlkey=x7ewz39laqh8v3u8bpwuhym3g&dlraw=1,갈루트 캐년,ガルートキャニオン,加鲁特峡谷,Галуутский каньон
60,1,Байгалийн үзэсгэлэнт газар,Далан тэмээ ачаа багтаадаг агуй,A Cave That Can Hold Seventy Camel's Loads,Баянхонгор,Bayankhongor,Заг,Zag,46.74906,99.32415,"Халиут хэмээх рашааны ойрхон Ламын агуй, Чихний рашаантын агуй, Далан тэмээ ачаа багтаадаг агуй гэх мэт хэд хэдэн томоохон агуй бий. Заг сумын төвөөс зүүн өмнө зүгт 26.5 км зайтай оршино.","There are several large caves near the Khaliut spring, including Lamyn Cave, Chikhnii Spa Cave, and Dalan Camel Cave. It is located 26.5 km southeast of the center of Zag soum.",,낙타 70마리의 짐을 담을 수 있는 동굴,ラクダ70頭分の荷物を収容できる洞窟,可容纳七十头骆驼的洞穴,"Пещера, вмещающая семьдесят верблюжьих грузов"
61,1,Байгалийн үзэсгэлэнт газар,Их богд уул,Ikh Bogd Mountain,Баянхонгор,Bayankhongor,Жинст,Jinst,44.9956,100.23075,"Их богд уул нь Говь-Алтайн нурууны ноён оргил богоод далайн түвшнээс 3957 метр өндөр, байгалийн үзэсгэлэнт газар юм.","Ikh Bogd Mountain is the highest peak of the Gobi-Altai Mountains, 3,957 meters above sea level, and is a place of natural beauty.",https://www.dropbox.com/scl/fi/nmyqfjr146v35e8skuwr6/.jpg?rlkey=xmgsz9v1thv5g3avc1wggi8fe&raw=1,익복드 산,イク・ボグド山,伊赫博格德山,Гора Их Богд
62,3,Шашны дурсгалт газар,Ламын гэгээний хийд,Lamyn Gegeen  Monastery,Баянхонгор,Bayankhongor,Эрдэнэцогт,Erdenetsogt,46.31113,100.98943,Эрдэнэцогт сумын төвөөс зүүн урагш 18.5 км зайтай оршино,It is located 18.5 km southeast of the center of Erdenetsogt soum.,https://www.dropbox.com/scl/fi/54gyo1av0c3keynx8by5k/.jpg?rlkey=qd0fir8w6zumeqqetrhudfouq&raw=1,라민게긴 수도원,ラミン・ゲジーン修道院,拉敏格金寺,Монастырь Ламын Геген
63,2,Түүхийн дурсгалт газар,Лигийн цагаан агуй,Ligiin Tsagaan Cave,Баянхонгор,Bayankhongor,Баянлиг,Wealth,44.71172,101.17024,Баянлиг сумын төвөөс зүүн хойд зүгт 40 км зайтай оршино. Малтлага судалгаагаар эртний хүмүүсийн ул мөр олдсон байна.,It is located 40 km northeast of the center of Bayanlig soum. Excavations have found traces of ancient people.,https://www.dropbox.com/scl/fi/cb7dsla1o714p9kk3l5u3/.jpg?rlkey=k50wnm9yl2aixyfz1ts8vh1pv&raw=1,리기인 차가안 동굴,リギン・ツァガーン洞窟,利吉因查干洞穴,Пещера Лигиин Цагаан
64,1,Байгалийн үзэсгэлэнт газар,Орог нуур,Orog Lake,Баянхонгор,Bayankhongor,Богд,Bogd,45.06081,100.72714,"Богд сумын төвийн чанх урд 13 км зайтай, далайн түвшнээс дээш 1217 метрт  оршино.","It is located 13 km south of the center of Bogd soum, at an altitude of 1217 meters above sea level.",https://www.dropbox.com/scl/fi/qsiaigravwapf6hg6yg9c/.jpeg?rlkey=kts7f7l0zgeb9bv81d5lbud9v&raw=1,오로그 호수,オログ湖,奥罗格湖,Орогское озеро
65,1,Байгалийн үзэсгэлэнт газар,"Оюу, Номин нуур","Oyu, Nomin Lakes",Баянхонгор,Bayankhongor,Жинст,Jinst,45.03375,100.22035,Жинст сумын төвөөс баруун өмнө зүгт 62 км зайтай оршино. 1957 оны 12 сарын 4 -нд хүчтэй газар хөдлөлийн улмаас Бахар уулын орой нурж 2 голын хөндийг хаасны улмаас үүссэн нуурууд юм.,"Located 62 km southwest of the center of Jinst soum, the lakes were formed when the top of Mount Bahar collapsed due to a strong earthquake on December 4, 1957, blocking two river valleys.",https://www.dropbox.com/scl/fi/b4e5o0q4x2puusq4zng9o/.jpg?rlkey=u0677jwbmg5jcgq768lq21hsr&raw=1,"오유, 노민 호수",オユ、ノーミン湖,奥汤、诺明湖,"Ою, Номинские озера"
66,1,Байгалийн үзэсгэлэнт газар,Сангийн далай нуур,Sangiin Dalai Lake,Баянхонгор,Bayankhongor,Баянбулаг,Bayanbulag,46.92523,97.79403,Баябулаг сумын төвөөс баруун хойд зүгт 30 орчим км зайтай оршино.,It is located about 30 km northwest of the center of Bayabulag soum.,,산이인 달라이 호수,サンギイン ダライ湖,桑吉因达赉湖,Озеро Сангиин Далай
67,3,Шашны дурсгалт газар,Сангийн далайн хүрээний туурь,Sangiin Dalai Monastery,Баянхонгор,Bayankhongor,Баянбулаг,Bayanbulag,46.93989,97.78284,"Баянбулаг сумын төвөөс баруун хойд зүгт 30 гаруй км, Сангийн далай нуураас хойд зүгт 1.5 зайтай байна.",It is located more than 30 kilometers northwest of the center of Bayanbulag soum and 1.5 kilometers north of Sangin Dalay Lake.,,산이인 달라이 수도원,サンギイン ダライ僧院,桑吉达赖寺,Монастырь Сангиин Далай
68,1,Байгалийн үзэсгэлэнт газар,Сэндэртийн агуй,Sendert Cave,Баянхонгор,Bayankhongor,Заг,Zag,46.62218,99.20322," Хөх хайрхан ууланд 70 орчим метр урт, шохойн чулуун тогтоцтой, хөндийлжийн гаралтай агуй бий. Хойд хэсэгт нь байх сэндэр шороог ардын уламжлалт эмчилгээнд хэрэглэдэг. Заг сумын төвөөс өмнө зүгт 50 км зайтай орнино. ","There is a cave of limestone formations, about 70 meters long, in Khokh Khairkhan Mountain. The sender earth in the northern part is used in traditional folk medicine. It is located 50 km south of the center of Zag soum.",https://www.dropbox.com/scl/fi/30nzub3r2x16rriqkvc76/.jpg?rlkey=t3krj8txf4tznx65jw9gsvb6g&raw=1,센데르 동굴,センダートの洞窟,森德特洞穴,Пещера Сендерт
69,1,Байгалийн үзэсгэлэнт газар,Тамчийн хавцал,Tamch Canyon,Баянхонгор,Bayankhongor,Эрдэнэцогт,Erdenetsogt,46.7047,101.38644,"Аймгийнтөвөөс 90 км, Эрдэнэцогт сумаас 62 км зайд эртний их хагарал галт уулын хүрмэн чулууг уулын голын ус зүссэнээс үүссэн маш сүрлэг гүн хавцал оршдог. Энэ хавцлын өндөр 380 метр хүрэх тул өвлийн улиралд ёроолд нар үл тусна. ","90 km from the provincial capital and 62 km from Erdenetsogt soum, there is a very impressive deep canyon formed by the cutting of ancient volcanic rocks by mountain rivers. The height of this canyon reaches 380 meters, so the sun does not shine at the bottom in winter.",https://www.dropbox.com/scl/fi/jvefonphp1oba1op1psvf/.jpg?rlkey=4byehsopccjuahxwvsn10aucp&raw=1,탐치 캐년,タムチキャニオン,塔奇峡谷,Тамчский каньон
70,1,Байгалийн үзэсгэлэнт газар,Хөх бүрд нуур,Khukh Burd Lake,Баянхонгор,Bayankhongor,Баян-Овоо,Bayan-Ovoo,46.26924,100.43849,Баян-Овоо сумын төвөс баруун урд зүгт 1.2 км зайтай оршино.,It is located 1.2 km southwest of the center of Bayan-Ovoo soum.,,쿠크 버드 호수,クク・バード湖,库克布尔德湖,Озеро Хух Бурд
71,1,Байгалийн үзэсгэлэнт газар,Хөх нуур,Khukh Lake,Баянхонгор,Bayankhongor,Гурванбулаг,Gurvanbulag,47.52814,98.51136,"Гурванбулаг сумын төвөөс хойд зүгт 28 км зайтай, далайн түвшнээс дээш 2649 метрт оршино.","It is located 28 km north of the center of Gurvanbulag soum, at an altitude of 2,649 meters above sea level.",https://www.dropbox.com/scl/fi/jgij58bzaympzzm6uj5p5/.jpg?rlkey=bvnsxz7y9i7qkmxxr8l8scybo&raw=1,쿠크 호수,クク湖,库克湖,Озеро Хух
72,1,Байгалийн үзэсгэлэнт газар,Хөх эрэг,Khukh Ereg,Баянхонгор,Bayankhongor,Баацагаан,Baatsagaan,45.84912,99.32587,Бөөн цагаан нуураас зүүн хойд зүгт 25 км зайтай байна.,It is 25 km northeast of Bön Tsagaan Lake.,,쿠크 에렉,クク・エレグ,库克埃雷格,Хух Эрег
73,1,Байгалийн үзэсгэлэнт газар,Чихний рашаантын агуй,Ear Spring Cave,Баянхонгор,Bayankhongor,Заг,Zag,46.75537,99.32224,Чихний рашаантын агуйн адраас ус дуслан жижиг тогтоол ус бий болгожээ. Энэ усыг чихэнд дусааж чихний өвчин эмгэгт ашигладаг. Заг сумын төвөөс 26 км зайтай оршино.,"Water drips from the cave of the Ear Spring, creating a small spring of water. This water is used to treat ear diseases by instilling it into the ear. It is located 26 km from the center of Zag soum.",,이어 스프링 동굴,イヤースプリング洞窟,耳泉洞,Пещера Ушного источника
74,1,Байгалийн үзэсгэлэнт газар,Шаргалжуут рашаан,Shargaljuut Mineral Water,Баянхонгор,Bayankhongor,Эрдэнэцогт,Erdenetsogt,46.33119,101.23009,"Эрдэнэцогт сумын төвөөс зүүн урагш зүгт 25 км зайтай орших халуун, хүйтэн рашаан бүхий байгалийн үзэсгэлэнт газар.","A beautiful natural area with hot and cold springs, located 25 km southeast of the center of Erdenetsogt soum.",https://www.dropbox.com/scl/fi/c6j7b10qhjeem2ry8etln/.jpeg?rlkey=xb02k5jnmwg1xlccfccocw6fo&raw=1,샤갈주트 미네랄 워터,シャルガルジュート ミネラルウォーター,沙尔加尔朱特矿泉水,Шаргалджутская минеральная вода
75,2,Түүхийн дурсгалт газар,Шатар чулуу,Shatar Chuluu,Баянхонгор,Bayankhongor,Эрдэнэцогт,Erdenetsogt,46.33074,100.79411,"Аймгийн төвөөс зүүн хойш 12 км-ийн зайтай оршино. Шатар чулуун дурсгалын цогцолбор нь 13 буган чулуу, дөрвөлжин булшны хэлбэртэй чулуун хашлаганууд, монгол шатрын дүрс хэлбэр бүхий чулуун хиргисүүр гэх мэт зүйлүүдээс бүрдэх бөгөөд нийт 50 гаруй чулуун дурсгал байдаг.  ","It is located 12 km northeast of the provincial center. The Chess Stone Monument Complex consists of 13 deer stones, stone fences in the shape of square tombs, and stone khirgisur in the shape of Mongolian chess, and there are more than 50 stone monuments in total.",https://www.dropbox.com/scl/fi/005rs4jlmqml8fx3rps04/.jpg?rlkey=2v2766apki65wa42cpjvjj90l&raw=1,샤타르 출루우,シャタール・チュルウ,沙塔尔楚鲁,Шатар Чулуу
76,1,Байгалийн үзэсгэлэнт газар,Эрхэтийн хавцал,Erkhet Canyon,Баянхонгор,Bayankhongor,Эрдэнэцогт,Erdenetsogt,46.6415,101.45868," Баянхонгор аймгийн төвөөс 80 км, Эрдэнэцогт сумаас зүүн хойд зүгт 55 км зайтай. Тамчийн хавцлаас богино боловч нэг цаг үед үүссэн адил нөхцөл хэлбэр бүхий гүн ангал хавцал юм. ","It is 80 km from the center of Bayankhongor aimag and 55 km northeast of Erdenetsogt soum. It is a deep canyon with similar conditions and shape, shorter than Tamchi Canyon, but formed at the same time.",https://www.dropbox.com/scl/fi/ioks4oug6p8ckbfp51ha4/.jpg?rlkey=j6x2oj1jswj1vxii4lrnub9w9&raw=1,에르케트 협곡,エルケット渓谷,埃尔克赫特峡谷,Каньон Эрхет
77,1,Байгалийн үзэсгэлэнт газар,Эрхэт хайрхан уул,Erkhetkhairkhan Mountain,Баянхонгор,Bayankhongor,Эрдэнэцогт,Erdenetsogt,46.65901,101.25953,Эрдэнэцогт сумын нутагт байдаг далайн түвшнээс дээш 3535 метр өргөгдсөн уул.,"A mountain located in Erdenetsogt soum, 3,535 meters above sea level.",https://www.dropbox.com/scl/fi/07iw283i34gp1ywc7fomk/.jpg?rlkey=t05mimooiolgsq8an1odlpxj2&raw=1,아름다운 산,美しい山,美丽的山,Гора Эрхэт хайрхан
78,1,Байгалийн үзэсгэлэнт газар,Айрхан нуур,Airkhan Lake,Булган,Bulgan,Хутаг-Өндөр,Khutag-Undur,49.62878,102.67522,Хутаг-Өндөр сумын төвөөс хойд зүгт 35 км зайтай байна. Далайн түвшнээс дээш 935 метр өндөрт оршино.,It is located 35 km north of the center of Khutag-Ondur soum. It is located at an altitude of 935 meters above sea level.,,에어칸 호수,エアカーン湖,艾尔汗湖,Озеро Айрхан
79,2,Түүхийн дурсгалт газар,Би Булаг балгас,Bi Bulag Ruin,Булган,Bulgan,Хутаг-Өндөр,Khutag-Undur,49.3965,102.55479,Уйгарын хаан Моюнчур байгуулсан Байбалык хотын туурь гэж үздэг Хутаг-Өндөр сумын төвөөс баруун зүгт 10.4 км зайтай оршино.,"It is located 10.4 km west of the center of Khutag-Ondur soum, believed to be the ruins of the city of Baybalyk, founded by the Uyghur Khan Moyunchur.",https://www.dropbox.com/scl/fi/ctopywy7cdlinsdpck0d9/.jpg?rlkey=w7ya7y5up3nm2ipc06xaicbfg&raw=1,비 불라그 폐허,ビブラグ遺跡,毕布拉格遗址,Руины Би Булага
80,2,Түүхийн дурсгалт газар,Бодь мод,Bodi Tree,Булган,Bulgan,Бүрэгхангай,Buregkhangai,48.25794,103.70152,Бүрэггхангай сумын төвөөс баруун зүгт 34 км зайтай оршино,It is located 34 km west of the center of Buregkhangai soum.,,바디나무,ボディツリー,菩提树,Дерево Боди
81,2,Түүхийн дурсгалт газар,Могойн шинэ ус туурь,Mogoin Shine Us Ruin,Булган,Bulgan,Булган,Bulgan,48.80639,103.51447,Уйгурын  хаан  Моюунчурт  зориулан босгосон тахилын онгон юм.,It is a sacrificial altar built for the Uyghur king Moyunchur.,https://www.dropbox.com/scl/fi/8sixj00geze0fyu1rn6vu/.jpg?rlkey=11gq7gsqrmx4vszha5odaa985&raw=1,모고인 샤인 어스 루인,モゴイン・シャイン・アス・ルイン,莫戈因闪耀我们废墟,Могоин освети нас руинами
82,1,Байгалийн үзэсгэлэнт газар,Ногоон морьт,Nogoon Morit,Булган,Bulgan,Бүрэгхангай,Buregkhangai,48.28907,103.70602,Бүрэгхангай сумын төвөөс баруун хойд зүгт 30 км зайтай оршино. ,It is located 30 km northwest of the center of Buregkhangai soum.,https://www.dropbox.com/scl/fi/j9thswhflo4byjfg68apt/.jpg?rlkey=6wljmmkmczumvr0yrmqq29dbl&raw=1,노군 모릿,ノグーン・モリット,诺贡·莫里特,Ногун Морит
83,3,Шашны дурсгалт газар,Өвгөн хийдийн туурь,Uvgun Khiid Ruin,Булган,Bulgan,Рашаант,Rashaant,47.43795,103.70841,16 дугаар зууны эхэн үед төвдөөс зугтаж явсан Лхамбалдорж ламын үндэслэн байгуулсан гэх энэ томоохон хийд 1660-1680 оны хавьцаа Галдан бошигтын цэрэгт устгагдсан,"This large monastery, said to have been founded by Lama Lhambaldorj, who fled Tibet in the early 16th century, was destroyed by the army of Galdan Boshigt around 1660-1680.",https://www.dropbox.com/scl/fi/8wup3tucvsbc2tlcsa3wz/.jpg?rlkey=hl2dioc71ysc5v716ftx0brma&raw=1,Uvgun Khiid Ruin,ウヴガン・キイド遺跡,乌贡基德废墟,Увгун Хийд Руины
84,1,Байгалийн үзэсгэлэнт газар,Өрмийн цагаан нуур,Urmiin Tsagaan Nuur,Булган,Bulgan,Сайхан,Saikhan,48.83305,102.94606,Сайхан сумын төвөөс зүүн хойд зүгт 34 км зайтай Агуйт уулын зүүн хойд хормойд оршино.,"It is located on the northeastern slopes of Aguit Mountain, 34 km northeast of the center of Saikhan soum.",https://www.dropbox.com/scl/fi/sbn05mq3bgli4gfm3mmho/.jpg?rlkey=bp8m095ph6ew95f4k61p05a8f&raw=1,우르미인 차가안 누르,ウルミン・ツァガーン・ヌール,乌尔敏查干努尔,Урмиин Цагаан Нуур
85,2,Түүхийн дурсгалт газар,Улаан хэрэм,Ulaan Kherem,Булган,Bulgan,Баяннуур,Bayannuur,47.931,104.541,Баяннуур сумын төвөөс зүүн хойно зүгт 13 км зайтай оршино.,It is located 13 km northeast of the center of Bayannur soum.,https://www.dropbox.com/scl/fi/lh8sz1629dtybois6etv2/.jpg?rlkey=i9emocmslir2l03qckr7x674v&raw=1,울란 케렘,ウラン・ケレム,乌兰卡热姆,Улан Херем
86,1,Байгалийн үзэсгэлэнт газар,Уран тогоо уул,Uran Togoo Mountain,Булган,Bulgan,Хутаг-Өндөр,Khutag-Undur,48.997,102.735,"Уран, Тулга, Тогоо, Жалавч гэдэг дөрвөн унтарсан галт уулс оршдог. Хутаг-Өндөр сумын төвөөс өмнө зүгт 70 км зайтай оршино.","There are four extinct volcanoes: Uran, Tulga, Togoo, and Jalavch. They are located 70 km south of the center of Khutag-Ondur soum.",https://www.dropbox.com/scl/fi/9s2pg0auq6d49os19j6i6/.jpg?rlkey=5chnsp1o4pf6pjj24l9jk1xxc&raw=1,우란 토구 산,ウラン・トグー山,乌兰托古山,Гора Уран Тогоо
87,2,Түүхийн дурсгалт газар,Хар бухын балгас,Khar Bukh Ruin,Булган,Bulgan,Дашинчилэн,Dashinchilen,47.88758,103.89521,"Хар бухын голын өмнө хөвөөнд, Хадаасан толгойн зүүн хойно эртний хотын туурийг Хар бухын буюу Хадаасангийн балгас гэдэг. Дашинчилэн сумын төвөөс баруун хойд зүгт 13 км зайтай оршино.","On the banks of the Khar Bukh River, to the east of Khadaasan Tolgoi, is the site of an ancient city called Khar Bukh or Khadaasan Ruins. It is located 13 km northwest of the center of Dashinchilen soum.",https://www.dropbox.com/scl/fi/glpq9oryad15zig6mrzum/.jpg?rlkey=f4m4vsu1dlw82se4p13pkrkz6&raw=1,카르부크 유적지,カール ブク遺跡,卡布克遗址,Хар Бух Руины
88,1,Байгалийн үзэсгэлэнт газар,Харгал нуур,Khargal Lake,Булган,Bulgan,Тэшиг,Teshik,49.92636,102.75219,Тэшиг сумын төвөөс зүүн зүгт 6 км зайд оршино.,It is located 6 km east of the center of Teshig soum.,https://www.dropbox.com/scl/fi/lzgms87dajpyli4dbb15u/.jpg?rlkey=p6dud9lbu9y56dtxvcctn6ea0&raw=1,카르갈 호수,ハルガル湖,哈加尔湖,Озеро Харгал
89,1,Байгалийн үзэсгэлэнт газар,Хөгнө тарна,Khugnu Tarna,Булган,Bulgan,Гурванбулаг,Gurvanbulag,47.46366,103.64047, Хөгнө-Тарна байгалийн цогцолборт газар нь 84390 га талбайтай. Хөгнөхаан уул нь Богд хаант монгол улсын үед төр шашины холбогдолтойгоор тахин шүтэж ирсэн дөрвөн хан уулын нэг нь байжээ.,"Khognuh-Tarna National Park covers an area of ​​84,390 hectares. Khognuh Khan Mountain was one of the four Khan Mountains that were worshipped as state and religious monuments during the Bogd Khanate Mongol Empire.",https://www.dropbox.com/scl/fi/b0ucti2r3fk796eh8t9b3/.jpg?rlkey=m6u2g411e66i9r92mfixsiusj&raw=1,쿠그누 타르나,クグヌ・タルナ,库格努塔尔纳,Хугну Тарна
90,2,Түүхийн дурсгалт газар,Цогтын цагаан балгас,Tsogt White Ruin,Булган,Bulgan,Дашинчилэн,Dashinchilen,48.02351,104.35167,"Дашинчилэн сумын төвөөс зүүн хойд зүгт 33 км, Чин толгойн балгаснаас 20 км зайтай оршино.",It is located 33 km northeast of the center of Dashinchilen soum and 20 km from the Chin Tolgoi ruins.,https://www.dropbox.com/scl/fi/ofetdw1iqkp53pd0ie3cu/.jpg?rlkey=e8aobii953s2d1d1tve9z8tu6&raw=1,초그트 화이트 루인,ツォグトの白い遺跡,措格特白色废墟,Цогт Белые Руины
91,2,Түүхийн дурсгалт газар,Чин толгойн балгас,Chin Tolgoi Ruin,Булган,Bulgan,Дашинчилэн,Dashinchilen,47.87548,104.2421, Энд эртний гэрэлт хөшөөний суурь хоёр том чулуун мэлхий бий бөгөөд олдсон зарим дээврийн ваар нь кидан бичигтэй байжээ.,"There are two large stone frogs at the base of an ancient light statue here, and some of the roof vases found had Khitan writing.",https://www.dropbox.com/scl/fi/ojllic414cms7eiwtu36i/.jpg?rlkey=daq09ga3oz9227yrnj3g5a9g7&raw=1,친 톨고이 유적지,チントルゴイ遺跡,钦陶勒盖遗址,Чин Толгой Руины
92,1,Байгалийн үзэсгэлэнт газар,Шарга нуур,Sharga Lake,Булган,Bulgan,Баян-Агт,Bayan-Agt,48.92894,101.95227,Шарга сумын төвөөс байруун өмнө зүгт 20 км зайтай оршино.,It is located 20 km south of the center of Sharga soum.,https://www.dropbox.com/scl/fi/n5htuwexkaynac3k6vxgz/.jpg?rlkey=ocppuv61tclwgguzs39csu3ql&raw=1,샤가 호수,シャルガ湖,夏尔加湖,Озеро Шарга
93,2,Түүхийн дурсгалт газар,Шивээт улааны дурсгал,Shiveet Ulaan ,Булган,Bulgan,Баян-Агт,Bayan-Agt,48.79829,102.00501,Түрэгийн Хожуу үеийн (690-744) Элетрес Хутлуга хааны дурсгал ,Monument to the Late Turkic Dynasty (690-744) Khan Eletres Khutluga,https://www.dropbox.com/scl/fi/3pgqwrjl3hn1shh94linl/.jpg?rlkey=rxujgenaqmg7psohx8ht1t3wu&raw=1,쉬벳 울란,シベット・ウラン,什维特·乌兰,Шивит Улаан
94,2,Түүхийн дурсгалт газар,Шороон бумбагар,Shoroon Bumbagar,Булган,Bulgan,Баяннуур,Bayannuur,47.95931,104.55622,"2012 онд малтлага судалгаа явуулж эртний нүүдэлчдийн язгууртны иж бүрэн бунхант булшийг илрүүлсэн билээ. Тус олдворыг Улаан хэрэмийн Шороон бумбагарын дурсгал хэмээн нэрлэсэн бөгөөд эртний нүүдэлчдийн урлагийн галерей бүхий 1500 жилийн настай нэн чухал олдвор юм. Бунханы барилга муудаж үйрээгүй, бат бөх хэвээрээ үлдсэн ба дотор талд нь хүн явахад чөлөөтэй, чулуун таазтай, хавтгай чулуугаар ханыг нь хийж бүтээсэн байсан.","In 2012, excavations uncovered a complete mausoleum of an ancient nomadic nobleman. The find, called the Red Wall's Shoroon Bumbagar Monument, is a 1,500-year-old, important artifact that contains a gallery of ancient nomadic art. The structure of the tomb is intact, intact, and free for people to walk around inside, with a stone ceiling and flat stone walls.",https://www.dropbox.com/scl/fi/7yp2dsg9cqy2fzuahvkl7/.jpg?rlkey=7ian3e8gdetjn4bowbz1m0vq5&raw=1,쇼룬 범바가르,ショルーン・ブンバガー,肖伦·邦巴加尔,Шорон Бумбагар
95,1,Байгалийн үзэсгэлэнт газар,Элсэн тасархай,Elsen Tasarkhai,Булган,Bulgan,Рашаант,Rashaant,47.33459,103.67783,Рашаант сумын төвөөс баруун зүгт 20 км зайтай оршино.,It is located 20 km west of the center of Rashaant soum.,https://www.dropbox.com/scl/fi/g8vz4xqd597s7e7atofvu/.jpg?rlkey=ybn7k61dyk7wdbuxppenl6zv4&raw=1,엘센 타사르하이,エルセン・タサルカイ,埃尔森·塔萨凯,Элсен Тасархай
96,3,Шашны дурсгалт газар,Эрдэнэ хамбын хийдийн туурь,Erdene Khamba Monastery Ruin,Булган,Bulgan,Рашаант,Rashaant,47.42575,103.69313, 1612 онд Монголын лам Эрдэнэ Цоржид зориулан байгуулагдсан бөгөөд 1937 онд коммунист дэглэмийн үед устгагдсан. ,It was founded in 1612 for the Mongolian monk Erdene Tsorji and was destroyed in 1937 during the communist regime.,https://www.dropbox.com/scl/fi/4rkz17bos5w5e7s16azje/.jpg?rlkey=hn412pk5ot3sp90sqk1m5taa6&raw=1,에르데네 캄바 수도원 유적,エルデネ カンバ修道院跡,额尔德尼康巴寺遗址,Руины монастыря Эрдэнэ Хамба
97,2,Түүхийн дурсгалт газар,Магсаржав баатрын дусрсгал ,A symbol of heroism Magsarjav hero,Булган,Bulgan,Хутаг-Өндөр,Khutag-Undur,49.39162,102.80444,Хутаг-Өндөр сумын төвөөс зүүн зүгт 6 км зайтай байна. ,,https://www.dropbox.com/scl/fi/4sjuldtciyj9b4gd2ug5h/.jpg?rlkey=azdx1pzhbenr42c3l3apqgok0&raw=1,영웅 막사르자브의 상징,英雄マグサルジャヴの象徴,英雄马格萨尔扎夫的象征,Символ героизма героя Магсарджава.
98,4,Бусад,Аав хөшөө,Father Statue,Говь-Алтай,Govi-Altai,Чандмань,Chandmani,45.32763,97.88825,Чандмань сумын төвөөс баруун зүгт 8 км зайтай Ботгон голын эрэгт оршино. ,"It is located on the banks of the Botgon River, 8 km west of the center of Chandman soum.",https://www.dropbox.com/scl/fi/n8i9o1p9vtfr02tfun518/.jpg?rlkey=32h8kxlkwq0i1fxkszx0zov07&raw=1,아버지 동상,父の像,父亲雕像,Статуя отца
99,1,Байгалийн үзэсгэлэнт газар,Аж богдын нуруу,Аj Bogd Mountain,Говь-Алтай,Govi-Altai,Алтай,Altai,44.80211,95.23946,"Монгол Алтайн нурууны салбар уул бөгөөд хамгийн өндөр оргил нь Хүрэн товон далайн төвшнөөс дээш 3802 метр өндөр. Аж богдын нурууны өврөөс Индэр, Гишүүнтэй, Их гол, ар талаас нь Урт, Дөрөлжийн голууд эх аван урсдаг. ","It is a branch of the Mongolian Altai Mountains, and its highest peak is Khuren Tovon, which is 3,802 meters above sea level. The Inder, Gishuuntei, and Ikh rivers originate from the foot of the Ajbogd Range, and the Urt and Dorolji rivers flow from the rear.",https://www.dropbox.com/scl/fi/huxms6djl5izsqd4krb35/.jpg?rlkey=rykzetusxdffo3khs2jtetnsw&raw=1,Аj 복드 산,Аj ボグド山,阿吉·博格德山,Ай Богд Гора
100,1,Байгалийн үзэсгэлэнт газар,Алаг хайрхан уул,Alag Khairkhan Mountain,Говь-Алтай,Govi-Altai,Бугат,Bugat,45.57154,94.11714,Бугат сумын төвөөс 30 км зайтай далайн түвшнээс дээш 3738 метр өргөгдөн оршино. ,"It is located 3738 meters above sea level, 30 km from the center of Bugat soum.",https://www.dropbox.com/scl/fi/gduc2yhvttisxoih1oqz9/.jpg?rlkey=qolbrewxjrbs4s5liv7t8zafq&raw=1,알라그 카이르칸 산,アラグ・カイルカン山,阿拉格凯尔汗山,Гора Алаг Хайрхан
101,3,Шашны дурсгалт газар,Арын хүрээний туурь,Aryn Monastery Ruin,Говь-Алтай,Govi-Altai,Жаргалан,Jargalant,46.85744,95.72878,Жаргалан сумын төвөөс баруун урд  зүгт 25 км зайтай оршино.,It is located 25 km southwest of the center of Jargalan soum.,https://www.dropbox.com/scl/fi/cvzw0c7wn8sw8wcb5g7wk/.jpg?rlkey=rfp2cxic02wvsasg57wuz4ge7&raw=1,아린 수도원 폐허,アリン修道院跡,阿林修道院遗址,Руины монастыря Арын
102,1,Байгалийн үзэсгэлэнт газар,Бигэр нуур,Biger Lake,Говь-Алтай,Govi-Altai,Бигэр,Biger,45.76243,97.17836,Бигэр сумын төвөөс хойд зүгт 4 км зайтай оршино.,It is located 4 km north of the center of Biger soum.,,비거 호수,ビガー・レイク,更大的湖,Бигер-Лейк
103,1,Байгалийн үзэсгэлэнт газар,Бурхан буудай уул,Burkhan Buudai Mountain,Говь-Алтай,Govi-Altai,Цогт,Tsogt,45.66768,96.73445,"Говь-Алтай аймгийн Бигэр, Цогт, Халиун сумдын нутагт орших өвөрмөц үзэсгэлэнт тогтоц бүхий, ноён оргил нь далайн түвшнээс дээш 3765 мерт өргөгдсөн мөнх цастай уул байдаг. ","Located in the Biger, Tsogt, and Khaliun soums of Gobi-Altai aimag, there is a uniquely beautiful mountain with eternal snow, its highest peak rising 3,765 meters above sea level.",https://www.dropbox.com/scl/fi/4xjbshlht72zntwa4j96p/.jpg?rlkey=oiwzt4500i4tq8wwx64zrx2bu&raw=1,부르칸 부우다이 산,ブルカン・ブダイ山,布尔罕布戴山,Гора Бурхан Буудай
104,1,Байгалийн үзэсгэлэнт газар,Говийн их  дархан цаазат газар А,Great Gobi Strictly Protected Area A,Говь-Алтай,Govi-Altai,Эрдэнэ,Erdene,43.252,97.44196,"Говийн Их Дархан Цаазат Газрын А хэсэг нь Монголын говь цөлийн экосистемийг хамгаалах, түүх, соёлын өвийг хадгалахад чухал үүрэгтэй, 4.6 сая га талбайг хамардаг.","Part A of the Gobi Desert is important for protecting the ecosystem of Mongolia's Gobi Desert and preserving its historical and cultural heritage, covering an area of ​​4.6 million hectares.",https://www.dropbox.com/scl/fi/fmkt2e448le4yj6bcuu1d/.jpg?rlkey=vfrzv3mxvk52u8lfi86twzvrk&raw=1,그레이트 고비 엄격 보호 구역 A,大ゴビ厳重保護区A,大戈壁严格保护区A,Строго охраняемая территория «Большая Гоби» А
105,4,Бусад,Гочоосүрэнгийн суварга,Gochoosuren Stupa,Говь-Алтай,Govi-Altai,Чандмань,Chandmani,45.31666,97.85258,Чандмань сумын төвөөс баруун зүгт 11 км зайтай оршино.,It is located 11 km west of the center of Chandman soum.,,고초수렌 스투파,ごちょうおすれん仏塔,果乔苏伦佛塔,Ступа Гочоосурэн
106,1,Байгалийн үзэсгэлэнт газар,Гэгээн нуур,Gegeen Lake,Говь-Алтай,Govi-Altai,Тайшир,Taishir,46.70391,96.76257,"Тайширын усан цахилгаан станцыг барих үед үүссэн 20 км урт, 10 км өргөн хиймэл нуур.","An artificial lake 20 km long and 10 km wide, created during the construction of the Taishir hydroelectric power station.",https://www.dropbox.com/scl/fi/whni0hpw3i3dxm2m12mib/.jpg?rlkey=diewfxq1sos897fi3gj9rfdw8&raw=1,게긴 호수,ゲジーン湖,格金湖,Озеро Геген
107,1,Байгалийн үзэсгэлэнт газар,Зоос хад,Zoos Rock,Говь-Алтай,Govi-Altai,Чандмань,Chandmani,45.49216,98.23883,Чандмань сумын төвөөс зүүн хойд зүгт 42 км зайтай оршино.,It is located 42 km northeast of the center of Chandman soum.,,동물원 록,ズーズ ロック,动物园摇滚,Зоос Рок
108,1,Байгалийн үзэсгэлэнт газар,Ихэс нуур,Ikhes Lake,Говь-Алтай,Govi-Altai,Дарви,Darwi,46.46125,94.06104,Ихэс нуурын зүүн эрэг дээр  Дарви сумын төв байдаг.,The center of Darvi soum is located on the eastern shore of Lake Ihes.,https://www.dropbox.com/scl/fi/g5sasoa4qxhwp3knn6fsn/.jpg?rlkey=zf0ernu31ep8xhzr8xwfwukmm&raw=1,이케스 호수,イクシュ湖,伊克什湖,Озеро Ихес
109,1,Байгалийн үзэсгэлэнт газар,Мазаалайн ус,Mazaalain Us,Говь-Алтай,Govi-Altai,Эрдэнэ,Erdene,43.25734,97.33213,Эрдэнэ сумын төвөөс урд зүгт 230 км зайд Говийн их дархан цаазат газарт байна. ,"It is located 230 km south of the center of Erdene soum, in the Gobi National Park.",,마잘라인 우리,マザライン・アス,马扎兰美国,Мазаалайн Ус
110,1,Байгалийн үзэсгэлэнт газар,Монгол элс,Mongol Sand,Говь-Алтай,Govi-Altai,Хөхморьт,Khukhmorit,47.49862,95.07601,Хөх морьт сумын хойд талаар нийтдээ 215 гаруй км үргэлжилнэ.,The northern part of Khokh Morit soum extends for a total of more than 215 km.,https://www.dropbox.com/scl/fi/p68q92kruqqogxmqvq2xg/.jpg?rlkey=wjgac294x0sqnjo3899d2nlhd&raw=1,몽골 모래,モンゴルサンド,蒙古沙,Монгольский песок
111,1,Байгалийн үзэсгэлэнт газар,Нарийн худаг,Nariin Khudag,Говь-Алтай,Govi-Altai,Эрдэнэ,Erdene,44.81484,97.3287,Эрдэнэ сумын төвөөс баруун өмнө зүгт 57 км зайд оршино.,It is located 57 km southwest of the center of Erdene soum.,,나린 쿠다그,ナリン・クダグ,纳里因·库达格,Нариин Худаг
112,3,Шашны дурсгалт газар,Номуун ханы хүрээний туурь,Nomuun Khan Monastery Ruin,Говь-Алтай,Govi-Altai,Бигэр,Biger,45.8068,97.00925,"Бигэр сумын төвөөс баруун хойд зүгт 17.5 км оршино. Засагт хан аймгийн Ёст засгийн хошуу, Итгэмжит засгийн хошуутай зах нийлж байв. Ардын дунд Бигэрийн Номун хан хутагт хэмээн алдаршчээ. ",It is located 17.5 km northwest of the center of Biger soum. It was a market town with Yost Khosh and Itgemjit Khosh of Zasagt Khan aimag. He was known among the people as Nomun Khan Khutugt of Biger.,,노문 칸 수도원 유적지,ノムウン カーン修道院跡,诺蒙汗修道院遗址,Руины монастыря Номуун-хана
113,3,Шашны дурсгалт газар,Өлзийт булгийн хийдийн туурь ,Ulziit Bulag Monastery Ruin,Говь-Алтай,Govi-Altai,Чандмань,Chandmani,45.46551,98.23848,Чандмань сумын төвөөс зүүн хойд зүгт 39 км зайтай оршино.,It is located 39 km northeast of the center of Chandman soum.,,울지트 불라그 수도원 폐허,ウルツィット・ブラグ修道院跡,乌尔济特·布拉格修道院遗址,Руины монастыря Улзиит Булаг
114,1,Байгалийн үзэсгэлэнт газар,Сутай хайрхан уул,Sutai Khairkhan Mountain,Говь-Алтай,Govi-Altai,Тонхил,Tonkhil,46.621,93.581,"Төрийн тахилгат Сутай хайрхан уулын ихэнх нь Говь-Алтай аймгийн Тонхил сумын нутагт оршдог боловч цаад талаараа Ховд аймгийн Дарви, Цэцэг сумын нутагт хамаарах хайрхан юм. Ноён оргил Цаст богд нь д.т.д 4234 метр өндөр бөгөөд Сутай хайрхан уул 60 км сунаж тогтсон. ","Most of the state-sanctioned Sutai Khairkhan Mountain is located in the territory of Tonkhil soum of Gobi-Altai aimag, but the rest of the mountain belongs to the territories of Darvi and Tsetseg soums of Khovd aimag. The peak is Tsast Bogd, which is 4234 meters above sea level, and Sutai Khairkhan Mountain stretches for 60 km.",https://www.dropbox.com/scl/fi/5hes8eoy7ozu9wbfx241m/.jpg?rlkey=gkfs8m4ajpil5bxonlmx4bl14&raw=1,수타이 카이르칸 산,スタイ・ハイルカン山,苏泰凯尔汗山,Гора Сутай Хайрхан
115,1,Байгалийн үзэсгэлэнт газар,Сухайтын булаг,Sukhait Spring,Говь-Алтай,Govi-Altai,Цогт,Tsogt,45.0792,96.64386,Цогт сумын төвөөс өмнө зүгт 40 км зайтай оршино.,It is located 40 km south of the center of Tsogt soum.,,수카이트 봄,スカイト 春,素凯 春天,Сухаит Весна
116,1,Байгалийн үзэсгэлэнт газар,Тайгам нуур,Taigam Lake,Говь-Алтай,Govi-Altai,Дэлгэр,Delger,46.36218,97.40159,Тайгам нуур далайн түвшнээс дээш 1780 метр өндөрт байдаг. Тус нуурын баруун өмнө эрэгт Дэлгэр сумын төв байрладаг. ,"Lake Taigam is located at an altitude of 1,780 meters above sea level. The center of Delger soum is located on the southwestern shore of the lake.",,태감호,タイガム湖,泰伽姆湖,Озеро Тайгам
117,2,Түүхийн дурсгалт газар,Тайширын усан цахилгаан станц,Taishir Hydropower Station,Говь-Алтай,Govi-Altai,Тайшир,Taishir,46.69481,96.6654,Тайшир сумын төвөөс зүүн урд зүгт 13 км зайтай оршино.,It is located 13 km southeast of the center of Taishir soum.,https://www.dropbox.com/scl/fi/jfnix9sn27879ifmt26u6/.jpg?rlkey=qmwe2mu7ujfb705ay8dpxg157&raw=1,타이시르 수력발전소,太子水力発電所,太舍尔水电站,Тайширская ГЭС
118,1,Байгалийн үзэсгэлэнт газар,Тонхил нуур,Tonkhil Lake,Говь-Алтай,Govi-Altai,Тонхил,Tonkhil,46.18285,93.90512,Тонхил сумаас өмнө зүгт 16 км зайтай оршино.,It is located 16 km south of Tonkhil soum.,https://www.dropbox.com/scl/fi/iddgxpti9q87958dsc2mf/.webp?rlkey=7o1or9eummyt1m26dbuj6z9rh&raw=1,톤힐 호수,トンキル湖,通基尔湖,Озеро Тонхил
119,1,Байгалийн үзэсгэлэнт газар,Утаг нуур,Utag Lake,Говь-Алтай,Govi-Altai,Чандмань,Chandmani,45.23655,98.34225,Чандмань сумын төвөөс зүүн урд зүгт 30 км зайтай оршино. ,It is located 30 km southeast of the center of Chandman soum.,,우타그 호수,ウタグ湖,乌塔格湖,Озеро Утаг
120,1,Байгалийн үзэсгэлэнт газар,Харандаа хад,Pencil Rock,Говь-Алтай,Govi-Altai,Тайшир,Taishir,46.69488,96.58191,Тайшир сумын төвөөс зүүн урд зүгт 5 км зайтай оршино.,It is located 5 km southeast of the center of Taishir soum.,https://www.dropbox.com/scl/fi/h7muczk7ugiqueluknsts/.jpg?rlkey=p8na1rxd1ithrq6fbd29q9w5o&raw=1,펜슬 락,ペンシルロック,铅笔摇滚,Карандаш Рок
121,1,Байгалийн үзэсгэлэнт газар,Хасагт хайрхан уул,Khasagt Kharkhan Mountain,Говь-Алтай,Govi-Altai,Шарга,Sharga,46.719,95.858,"Хасагт хайрхан уул нь Говь-Алтай аймгийн  Шарга, Жаргалан сумдын нутагт орших, далайн түвшнээс дээш 3578 метр өндөртэй, дархан цаазат газар юм.","Khasagt Khairkhan Mountain is a protected area located in the Sharga and Jargalan soums of Gobi-Altai aimag, at an altitude of 3,578 meters above sea level.",https://www.dropbox.com/scl/fi/opv2zu8fw92shhixrmt81/.jpg?rlkey=0lthkjoip7hmjj9uki6upjn4z&raw=1,카삭트 카르칸 산,カサグト ハルカン山,卡萨格特喀尔汗山,Гора Хасагт Хархан
122,1,Байгалийн үзэсгэлэнт газар,Хөлмийн нуур,Khulmiin Lake,Говь-Алтай,Govi-Altai,Тонхил,Tonkhil,46.18564,93.54615,Тонхил сумаас баруун өмнө зүгт 34 км зайтай оршино.,It is located 34 km southwest of Tonkhil soum.,,쿨미인 호수,クルミン湖,库尔敏湖,Озеро Хулмиин
123,2,Түүхийн дурсгалт газар,Хөшөө чулуу,Khushuu Chuluu ,Говь-Алтай,Govi-Altai,Чандмань,Chandmani,45.30794,97.96203,Чандмань сумын төвөөс баруун өмнө зүгт 3.4 км зайтай оршино.,It is located 3.4 km southwest of the center of Chandman soum.,,쿠슈 출루,クシュウ・チュルウ,胡舒楚鲁,Хушуу Чулуу
124,1,Байгалийн үзэсгэлэнт газар,Цэцэг нуур,Tsetseg Lake,Говь-Алтай,Govi-Altai,Эрдэнэ,Erdene,45.19364,97.54099,Эрдэнэ сумын төвөөс баруун хойд зүгт 18 км зайд оршино.,It is located 18 km northwest of the center of Erdene soum.,,체체그 호수,ツェツェグ湖,采采格湖,Озеро Цецег
125,1,Байгалийн үзэсгэлэнт газар,Шаргын цагаан нуур,Shargyn Tsagaan Lake,Говь-Алтай,Govi-Altai,Шарга,Sharga,46.26585,95.01069,Шарга сумаас баруун зүгт 25 км зайтай оршино.,It is located 25 km west of Sharga soum.,,샤긴 차강 호수,シャルギン・ツァガーン湖,沙尔金·察干湖,Озеро Шаргын Цаган
126,1,Байгалийн үзэсгэлэнт газар,Эрээн нуур,Ereen Lake,Говь-Алтай,Govi-Altai,Жаргалан,Jargalant,47.33629,95.7625,Жаргалан сумын төвөөс хойд зүгт 45 км зайтай оршино.,It is located 45 km north of the center of Jargalan soum.,https://www.dropbox.com/scl/fi/v515zxa641zydwf6u7xt1/.jpg?rlkey=p54se29dlgp6z40hilva7zmw8&raw=1,에린 호수,エリーン・レイク,艾琳湖,Эрин Лейк
127,1,Байгалийн үзэсгэлэнт газар,Ээж хайрхан уул,Eej Khairkhan Mountain,Говь-Алтай,Govi-Altai,"Цогт,Алтай","Tsogt, Altai",44.93638,96.21833,"Цогт , Алтай сумдын хилийн заагт далайн түвшнээс дээш 2274 метр өргөгдсөн ноён оргил бүхий байгалийн өвөрмөц тогтоцтой уул юм. Баянтоорой багийн төвөөс баруун зүгт 45 км зайтай орнино.",It is a unique natural mountain with a peak of 2274 meters above sea level on the border of Tsogt and Altai soums. It is located 45 km west of the center of Bayantoojoo.,https://www.dropbox.com/scl/fi/5kieqbs1wrt9suu616tjq/.jpg?rlkey=5k2wk3y06n8zsnsa1j9dn7ypn&raw=1,에이즈 카이르칸 산,イージ・ハイルカン山,伊吉海尔汗山,Гора Идж Хайрхан
128,3,Шашны дурсгалт газар,Хонгорын хүрээний туурь,Ruins of Khongor Monastery,Говь-Алтай,Govi-Altai,Жаргалан,Jargalan,46.82147,95.98906,Жаргалан сумын төвөөс зүүн өмнө зүгт 28 км зайтай оршино.,It is located 28 km southeast of the center of Jargalan soum.,,콩고르 수도원 유적,ホンゴル修道院の遺跡,洪戈尔寺遗址,Руины монастыря Хонгор
129,3,Шашны дурсгалт газар,Вандан дашилин хүрээний туурь,Ruins of Vandan Dashiling Monastery,Говь-Алтай,Govi-Altai,Баян-Уул,Bayan-Uul,46.8663,95.4549,Баян-Уул сумын төвөөс зүүн өмнө зүгт 28.5 км зайтай оршино.,It is located 28.5 km southeast of the center of Bayan-Uul soum.,,반단 다실링 수도원 유적,ヴァンダン・ダシリン寺院の遺跡,万丹大什林寺遗址,Руины монастыря Вандан Дашилин
130,3,Шашны дурсгалт газар,Арын хүрээний туурь,Ruins of Aryn Monastery,Говь-Алтай,Govi-Altai,Жаргалан,Jargalan,46.85714,95.72871,Жаргалан сумын төвөөс баруун өмнө зүгт 26 км зайтай оршино.,It is located 26 km southwest of the center of Jargalan soum.,,아린 수도원 유적,アリン修道院の遺跡,아린 수도원 유적,Руины монастыря Арын
131,3,Шашны дурсгалт газар,Бичигт,Bichigt,Говь-Алтай,Govi-Altai,Баян-Уул,Bayan-Uul,47.10289,95.0785,Баян-Уул сумын төвөөс баруун хойд зүгт 16 км зайтай оршино.,It is located 16 km northwest of the center of Bayan-Uul soum.,,서면으로,書面で,书面,Бичигт
132,1,Байгалийн үзэсгэлэнт газар,Сангийн далай нуур,Sangiin Dalai Lake,Говь-Алтай,Govi-Altai,Хөх морьт,Khukhmorit,47.40732,94.95572,Хөх морьт сумын төвөөс зүүн зүгт 33 км зайтай Монгол элсний чанх өмнө оршино.,"It is located 33 km east of the center of Khokh Moryt soum, just before the Mongolian Els.",,상긴 호수,サンギン湖,桑金湖,Озеро Сангин Далай
133,1,Байгалийн үзэсгэлэнт газар, Хасагт хайрхан уул,Khasagt Khairkhan Mountain,Говь-Алтай ,Govi-Altai,Жаргалан,jargalan,46.78919,95.80084,"Жаргалан сумын төвөөс баруун урд зүгт 25 км зайтай оршино. Далайн түвшнээс дээш 3578 меэр өргөгсөн байна,","This mountain, located 25 km southwest of the center of Jargalan soum, rises 3,578 meters above sea level.",https://www.dropbox.com/scl/fi/opv2zu8fw92shhixrmt81/.jpg?rlkey=0lthkjoip7hmjj9uki6upjn4z&raw=1,카삭트 카이르칸 산,カサグト ヘアカン山,卡萨格特凯尔汗山,Гора Хасагт Хайрхан
134,1,Байгалийн үзэсгэлэнт газар,Чойрын богд уул,Choiryn Bogd Mountain,Говьсүмбэр,Govisumber,Сүмбэр,Sumber,46.238,108.785,"Далайн түвшнээс дээш 1678 метр оргил бүхий Чойрын богд уул Говьсүмбэр, Дорноговь аймгийн хил дамнан байршина. Сүмбэр сумын төвөөс зүүн өмнө зүгт 38 км зайд оршино. ","Choirin Bogd Mountain, with a peak of 1,678 meters above sea level, is located on the border of Govisumber and Dornogovi aimags. It is located 38 km southeast of the center of Sumber soum.",https://www.dropbox.com/scl/fi/mvjmz6mroi4pq5wtzqja6/.jpg?rlkey=vr6mm1s07qp5gjghrppgw68ab&raw=1,초이린 복드 산,チョイリン ボグド マウンテン,乔林博格德山,Гора Чойрин Богд
135,4,Бусад,Нарантолгойн худаг,Narantolgoin Khudag,Дархан-Уул,Darkhan-Uul,Дархан,Darkhan,49.48538,105.95101,Дархан сумын нутагт оршино.,It is located in Darkhan soum.,,나란톨고인 쿠다그,ナラントルゴイン・クダーグ,纳兰托尔戈因胡达格,Нарантолгоин Худаг
136,1,Байгалийн үзэсгэлэнт газар,Зуун найман  агуй,108 Cave,Дорноговь,Dornogovi,Өргөн,Urgun,44.61792,110.26746,Өргөн сумын баруун өмнө зүгт 45 км зайтай оршино.  ,It is located 45 km southwest of Urgun soum.,,108 동굴,108 洞窟,108洞,108 Пещера
137,1,Байгалийн үзэсгэлэнт газар,Их нарт уул,Ikh Nart Mountain,Дорноговь,Dornogovi,Даланжаргалан,Dalanjargalan,45.72235,108.64579,Даланжаргалан сумын төвөөс баруун өмнө зүгт 44.5 км зайтай оршино. ,It is located 44.5 km southwest of the center of Dalanjargalan soum.,,익나르트 산,イク・ナルト山,伊赫纳尔特山,Гора Их Нарт
138,3,Шашны дурсгалт газар,Хамарын хийд,Khamar Monastery,Дорноговь,Dornogovi,Сайншанд,Sainshand,44.59737,110.27338,Сайншанд сумаас зүүн өмнө зүгт 36 км зайтай оршино.,It is located 36 km southeast of Sainshand soum.,https://www.dropbox.com/scl/fi/kwaj8h5cfhmzllwvlsmlq/.jpg?rlkey=wnmdltvmn6w0idays2hai3npk&raw=1,카마르 수도원,ハマール修道院,卡玛尔寺,Монастырь Хамар
139,1,Байгалийн үзэсгэлэнт газар,Хан Баянзүрх уул,Khan Bayanzurkh Mountain,Дорноговь,Dornogovi,Өргөн,Urgun,44.69225,110.04438,Сайншанд сумаас баруун өмнө зүгт 42 км зайтай оршино.,It is located 42 km southwest of Sainshand soum.,https://www.dropbox.com/scl/fi/i159itvcp4xkn3ka24yti/.jpg?rlkey=2fxpuwje522hu8sgee4rbcj07&raw=1,칸 바얀주르크 산,ハーン・バヤンズルク山,汗巴彦祖尔赫山,Гора Хан-Баянзурх
140,1,Байгалийн үзэсгэлэнт газар,Хэцүү тээгийн өрх агуй,Khetsuu Teeg Urkh Cave,Дорноговь,Dornogovi,Айраг,Airag,45.33916,108.7519,Айраг сумын төвөөс зүүн өмнө зүгт 75 км зайтай оршино.,It is located 75 km southeast of the center of Airag soum.,,케츠우 티그 우르크 동굴,ケツウ・ティーグ・ウルク洞窟,克苏·提格·乌尔赫洞穴,Пещера Хетсуу Тиг Урх
141,1,Байгалийн үзэсгэлэнт газар,Цагаан дэл агуй,Tsagaan Del Cave,Дорноговь,Dornogovi,Айраг,Airag,45.62551,109.10707,Айраг сумын төвөөс баруун урд зүгт 26 км зайтай оршино.,It is located 26 km southwest of the center of Airag soum.,https://www.dropbox.com/scl/fi/6ulkw3jfqkbwpwpoqv9s6/.jpg?rlkey=7ygq2bdwgweeif1thhs01rybl&raw=1,차가안 델 케이브,ツァガーン デル ケーブ,查甘德尔凯夫,Пещера Цагаан Дель
142,1,Байгалийн үзэсгэлэнт газар,Цонжийн чулуу,Tsonjiin Rock,Дорноговь,Dornogovi,Дэлгэрэх,Delgerekh,45.98263,111.4363,Дэлгэрэх сумын төвөөс зүүн хойд зүгт 29 км зайтай оршино.,It is located 29 km northeast of the center of Delgereh soum.,https://www.dropbox.com/scl/fi/74k6g47rsw69mrd78v8t3/.jpg?rlkey=dmsxvi2ak8fqywq6qzgyqzh4v&raw=1,Tsonjiin Rock,ツォンジン岩,尊济岩,Цонджин Рок
143,1,Байгалийн үзэсгэлэнт газар,Эргэлийн зоо,Ergeliin Zoo,Дорноговь,Dornogovi,Хатанбулаг,Khatanbulag,43.31536,108.92646,"Эргэлийн зоо нь Дорноговь аймгийн Хатанбулаг сумын нутагт орших байгалийн өвөрмөц тогтоцтой, палеонтологийн олдвор ихтэй газар юм. Хатанбулаг сумын төвөөс баруун хойд зүгт 28 км зайтай оршино.",Ergel Zoo is a unique natural site with a rich collection of paleontological finds in the Khatanbulag soum of Dornogovi aimag. It is located 28 km northwest of the center of Khatanbulag soum.,https://www.dropbox.com/scl/fi/3efc6et96olx47qexb2x3/.jpg?rlkey=dp9qn3jfagnb8f5chgtdhmvsn&raw=1,에르겔린 동물원,エルゲライン動物園,埃尔格林动物园,Эргелийнский зоопарк
144,3,Шашны дурсгалт газар,Угтамын хийд,Ugtam Monastery,Дорнод,Dornod,Баяндун,Bayandun,49.28652,113.76981,Баяндун сумын төвөөс зүүн хойд зүгт 38 км зайтай оршино.,It is located 38 km northeast of the center of Bayandun soum.,https://www.dropbox.com/scl/fi/1e50i216vyas2cbqvobf2/.jpg?rlkey=hc0gwsgbq28sxsh28j2fb5hxt&raw=1,우그탐 사원,ウグタム修道院,乌格塔姆寺,Монастырь Угтам
145,2,Байгалийн үзэсгэлэнт газар,Хөх нуур,Khukh Lake,Дорнод,Dornod,Чойбалсан,Choibalsan,49.52508,115.58288,Далайн түвшнээс дээш 565 метр өндөрт орших Монгол улсын хамгийн нам дор газар,"The lowest point in Mongolia, at 565 meters above sea level",https://www.dropbox.com/scl/fi/0jedv0tbjmteljvtfpmho/.jpg?rlkey=x53f9tkwzg9sjghuneldmj0cp&raw=1,쿠크 호수,クフ湖,库赫湖,Озеро Хух
146,4,Бусад,Алтач,Altach,Дорнод,Dornod,Цагаан-Овоо,Tsagaan-Ovoo,48.57129,113.55958,Цагаан-Овоо сумаас зүүн зүгт 26 км зайтай Алтачийн бүрд гэх газар алтан тэрэг булсан гэх домог бүхий газар юм.,"Altachi Burd, located 26 km east of Tsagaan-Ovoo soum, is a place where a legend says that a golden chariot was buried.",,알타크,アルタッハ,阿尔塔赫,Альтах
147,1,Байгалийн үзэсгэлэнт газар,Ар сүмийн хоолой,Ar Sumiin Khooloi,Дорнод,Dornod,Халхгол,Khalkhgol,46.876,119.753,"Хянганы нурууны ойт хээрээс Төв Азийн хуурай хээрт шилжих шилжилтийн онцлогийг харуулсан Нөмрөгийн дархан цаазат газрын жижиг гол горхины татмууд, бургасан шугуйт хөндий, ой бүхий бэсрэг уулс, уулс хоорондын нуга, намгархаг газар, элсэн манхан бүхий дов толгод, дэнж маягийн тал, нугачаануудтай байгалийн гайхамшигт тогтоц бүхий газар юм.","The Nomruk Reserve, which represents the transition from the forest-steppe of the Hyangan Mountains to the dry steppe of Central Asia, is a place of magnificent natural formations with small river valleys, willow-covered valleys, forested lowlands, intermountain meadows, wetlands, sand dune hills, terraced plains, and meadows.",https://www.dropbox.com/scl/fi/lfmmfak9w8m7bvkf1xca9/.jpg?rlkey=6qol7phzm8zujyb0c79umwaku&raw=1,아르 수미인 쿨로이,アル・スミイン・クーロイ,阿尔·苏米因·库洛伊,Ар Сумиин Холой
148,1,Байгалийн үзэсгэлэнт газар,Ар хамбын хийдийн туурь,Ar Khambyn Monastery Ruin,Дорнод,Dornod,Матад,Mathad,47.05824,115.05824,Матад сумын төвөөс баруун хойд 39.5 км зайтай оршино.,It is located 39.5 km northwest of the center of Matad soum.,,Ar Khambyn 수도원 유적지,アル・カンビン修道院跡,阿尔坎宾修道院遗址,Руины монастыря Ар Хамбын
149,2,Түүхийн дурсгалт газар,Арслан хадны зураг,Arslan Khad,Дорнод,Dornod,Баяндун,Bayandun,49.05383,113.06099,Баяндун сумын төвөөс баруун урд зүгт 50 гаруй км зайтай оршино. ,It is located more than 50 kilometers southwest of the center of Bayandun soum.,,아르슬란 카드,アルスラン・カド,阿尔斯兰·卡德,Арслан Хад
150,1,Байгалийн үзэсгэлэнт газар,Баян хангай,Bayan Khangai,Дорнод,Dornod,Матад,Mathad,46.86662,115.23547,Матад сумын төвөөс баруун өмнө зүгт 16 км зайтай оршино.,It is located 16 km southwest of the center of Matad soum.,,바얀 항가이,バヤン・ハンガイ,巴彦康爱,Баян Хангай
151,2,Түүхийн дурсгалт газар,Бөмбөг дэлбэрсэн ул мөр,Bombing Trace,Дорнод,Dornod,Халхгол,Khalkhgol,47.70092,118.55413,Халх гол сумын төвөөс баруун хойд зүгт 11.5 км зайтай оршино.,It is located 11.5 km northwest of the center of Khalkh Gol soum.,,폭격 흔적,爆撃跡,轰炸痕迹,След бомбардировки
152,1,Байгалийн үзэсгэлэнт газар,Буйр нуур,Buir Lake,Дорнод,Dornod,Халхгол,Khalkhgol,47.78282,117.68649,"Зүүн хойноос баруун урагш 40 километр,  өргөн нь 21 километр, эргийн шугамын урт 113 километр. Далайн түвшнээс дээш 581 метр өндөрт байна.","It is 40 kilometers long from northeast to southwest, 21 kilometers wide, and has a coastline of 113 kilometers. It is 581 meters above sea level.",https://www.dropbox.com/scl/fi/3kr98giatf5g2egbna286/.jpg?rlkey=6bd0hnm29td69igg60pjlpbcx&raw=1,뷰어 호수,ブイル湖,贝尔湖,Озеро Буир
153,3,Шашны дурсгалт газар,Бурхант хад,Burkhant Rock,Дорнод,Dornod,Баяндун,Bayandun,48.99143,113.40843,Баяндун сумын төвөөс зүүн өмнө зүгт 40 км зайтай оршино. ,It is located 40 km southeast of the center of Bayandun soum.,,부르칸트 록,ブルカント ロック,布尔坎特岩,Бурхант Рок
154,1,Байгалийн үзэсгэлэнт газар,Галуут нуур,Galuut Lake,Дорнод,Dornod,Чулуунхороот,Chuluunkhroot,49.75047,115.2769,Чулуунхороот сумын төвөөс баруун өмнө  зүгт 33 км зайтай оршино. ,It is located 33 km southwest of the center of Chuluunkhoroot soum.,,갈루트 호수,ガルート湖,加鲁特湖,Галуутское озеро
155,1,Байгалийн үзэсгэлэнт газар,Гурваны нуур,Gurvan Nuur Lake,Дорнод,Dornod,Баянтүмэн,Bayantumen,48.18698,114.43628,Чойбалсан хотоос  хойд зүгт 14 км зайтай оршино. ,It is located 14 km north of Choibalsan city.,,구르반 누르 호수,グルバン ヌール湖,古尔万努尔湖,Озеро Гурван Нуур
156,2,Түүхийн дурсгалт газар,Дандар баатрын хөшөө,Dandar Hero Statue,Дорнод,Dornod,Халхгол,Khalkhgol,47.70918,118.54864,Халх гол сумын төвөөс баруун хойд зүгт 12.5 км зайтай оршино.,It is located 12.5 km northwest of the center of Khalkh Gol soum.,,단다르 영웅 동상,,丹达尔英雄雕像,Статуя героя Дандара
157,2,Түүхийн дурсгалт газар,Ерин баатрын хөшөө,90 Heroes Monument,Дорнод,Dornod,Халхгол,Khalkhgol,47.71165,118.56549,Халх гол сумын төвөөс баруун хойд зүгт 12.5 км зайтай оршино.,It is located 12.5 km northwest of the center of Khalkh Gol soum.,https://www.dropbox.com/scl/fi/6to146iakl05mibly8wip/.jpg?rlkey=mayarzwhpzro3d6qf3v0zz37s&raw=1,90인 영웅 기념비,90 人の英雄の記念碑,90英雄纪念碑,Памятник 90 героям
158,2,Түүхийн дурсгалт газар,Их бурхант,Ikh Burkhant ,Дорнод,Dornod,Халхгол,Khalkhgol,47.87385,118.45103,Халх гол сумын төвөөс баруун хойд зүгт 118 км зайтай оршино.,It is located 118 km northwest of the center of Khalkh Gol soum.,https://www.dropbox.com/scl/fi/jtnb3axgssaps5ww4yo60/.jpg?rlkey=a9i6jvl0bmdgxionnsl82n1bv&raw=1,이크 부르칸트,イク・ブルカント,伊克·布尔坎特,Их Бурхант
159,1,Байгалийн үзэсгэлэнт газар,Их газрын чулуу,Ikh Gazriin Chuluu,Дорнод,Dornod,Баяндун,Bayandun,49.08071,113.13204,Баяндун сумын төвөөс баруун өмнө зүгт 53 км зайтай оршино. ,It is located 53 km southwest of the center of Bayandun soum.,,이크 가즈린 출루우,イフ・ガズリン・チュルウ,伊赫·加兹林·楚鲁,Их Газриин Чулуу
160,1,Байгалийн үзэсгэлэнт газар,Сүмийн нуур,Sumiin Nuur Lake,Дорнод,Dornod,Гурванзагал,Gurvanzagal,49.12828,114.82616,Гурванзагал сумын төвөөс баруун урд зүгт 2.5 км зайтай оршино,It is located 2.5 km southwest of the center of Gurvanzagal soum.,,수미인 누르 호수,スミイン・ヌール湖,苏米因努尔湖,Озеро Сумиин-Нур
161,2,Түүхийн дурсгалт газар,То вангийн хүүхдийн овоо,To Vangiin Huuhdiin Ovoo,Дорнод,Dornod,Халхгол,Khalkhgol,47.86408,118.47193,Халх гол сумын төвөөс баруун хойд зүгт 116 км зайтай оршино.,It is located 116 km northwest of the center of Khalkh Gol soum.,https://www.dropbox.com/scl/fi/tr9z1kn6zi83pbebydief/.jpg?rlkey=9qvrqx3ogkgard6f2pgbfhcqj&raw=1,Vangiin Huuhdiin Ovoo에게,ヴァンジン・フーディン・オヴォーへ,前往万吉因胡赫丁敖包,Вангиину Хухдиину Овоо
162,1,Байгалийн үзэсгэлэнт газар,Тэмээн уулын агуй,Temeen Uul Cave,Дорнод,Dornod,Баяндун,Bayandun,49.03687,113.28454,Баяндун сумын төвөөс зүүн хойд зүгт 27.5 км зайтай оршино.,It is located 27.5 km northeast of the center of Bayandun soum.,,테민 울 동굴,テミーン・ウル洞窟,特明乌尔洞穴,Пещера Темеен Уул
163,1,Байгалийн үзэсгэлэнт газар,Утаат минчүүр рашаан,Utaat Minchuur Mineral Water,Дорнод,Dornod,Чойбалсан,Choibalsan,48.71666,115.08228,Чойбалсан хотоос  зүүн хойд зүгт 40 км зайтай оршино. ,It is located 40 km northeast of Choibalsan city.,,우타트 민츄르 미네랄 워터,ウタアト ミンチュール ミネラルウォーター,乌塔特明楚尔矿泉水,Минеральная вода Утаат Минчуур
164,2,Түүхийн дурсгалт газар,Хал голын ялалтын хөшөө,Khalkh River Victory Statue,Дорнод,Dornod,Халхгол,Khalkhgol,47.63496,118.59919,Халх гол сумын төвөөс баруун хойд зүгт 1.5 км зайтай оршино.,It is located 1.5 km northwest of the center of Khalkh Gol soum.,https://www.dropbox.com/scl/fi/s0xundmj4b39dmywlmw2o/.jpg?rlkey=8jol9wmxkbwfosbm03uvj5ous&raw=1,할크 강 승리 동상,ハルフ川の勝利の像,喀尔赫河胜利雕像,Статуя Победы на реке Халх
165,2,Түүхийн дурсгалт газар,Ханан хөшөө,Khanan Khushuu,Дорнод,Dornod,Халхгол,Khalkhgol,47.81996,118.53907,Халх гол сумын төвөөс баруун хойд зүгт 25.5 км зайтай оршино.,It is located 25.5 km northwest of the center of Khalkh Gol soum.,https://www.dropbox.com/scl/fi/mk26majj7g4b5ihj7t8ok/.jpg?rlkey=yle25n09adyoelklp8nt7ty9g&raw=1,카난 쿠슈,カナン・クシュウ,卡南·库舒乌,Ханан Хушуу
166,2,Түүхийн дурсгалт газар,"Хувьсгалт цэргийн хөшөө, дурсгал",Revolutionary Soldier Monument,Дорнод,Dornod,Халхгол,Khalkhgol,47.73447,118.52768,Халх гол сумын төвөөс баруун хойд зүгт 16 км зайтай оршино.,It is located 16 km northwest of the center of Khalkh Gol soum.,,혁명군 기념비,革命戦士記念碑,革命战士纪念碑,Памятник революционному солдату
167,2,Түүхийн дурсгалт газар,Хуягт машин,Khuyagt Mashin,Дорнод,Dornod,Халхгол,Khalkhgol,47.72701,118.64149,Халх гол сумын төвөөс 16 км зайтай оршино.,It is located 16 km from the center of Khalkh Gol soum.,,쿠야트 마신,クヤット・マシン,库亚格特·马辛,Хуягт Машин
168,1,Байгалийн үзэсгэлэнт газар,Хүрхрээ,Khurkhree,Дорнод,Dornod,Халхгол,Khalkhgol,47.06976,119.13491,Халх гол сумын төвөөс зүүн өмнө зүгт 92 км зайтай Дэлгэр гол дээр оршино.,"It is located on the Delger River, 92 km southeast of the center of Khalkh Gol soum.",,커크리,クルクリ,库克里,Кхарри
169,2,Түүхийн дурсгалт газар,Хэрлэн барс хотын туурь,Kherlen Bars Ruin,Дорнод,Dornod,Цагаан-Овоо,Tsagaan-Ovoo,48.05493,113.36421,Чойбалсан хотоос  баруун  зүгт 86 км зайтай оршино. ,It is located 86 km west of Choibalsan city.,https://www.dropbox.com/scl/fi/kany7yyxvs1nlovr3u00o/.jpg?rlkey=hfqm5fd6hyu3fhns2t0bftuoa&raw=1,케를렌 바 폐허,ヘルレン・バーズ廃墟,克鲁伦巴尔斯遗址,Херлен Барс Руины
170,1,Байгалийн үзэсгэлэнт газар,Цагаан нуур,Tsagaan Lake,Дорнод,Dornod,Сэргэлэн,Sergelen,48.505,113.915,Сэргэлэн сумын төвөөс баруун зүгт 7.5 км зайтай оршино.,It is located 7.5 km west of the center of Sergelen soum.,,차가안 호수,ツァガーン湖,查干湖,Озеро Цагаан
171,2,Түүхийн дурсгалт газар,Шонх таван толгойн хүн чулуу,Shonkh Tavan Tolgoi Khun Chuluu,Дорнод,Dornod,Халхгол,Khalkhgol,47.96425,118.15927,Халх гол сумын төвөөс баруун хойд  зүгт 53 км зайтай оршино.,It is located 53 km northwest of the center of Khalkh Gol soum.,,숀크 타반 톨고이 쿤 출루우,ションク・タヴァン・トルゴイ・クン・チュルー,尚赫·塔万·陶勒盖·昆楚鲁,Шонх Таван Толгой Хун Чулуу
172,2,Түүхийн дурсгалт газар,Яковлевийн танкт хөшөө,Yakovlev Statue,Дорнод,Dornod,Халхгол,Khalkhgol,47.81355,118.54736,Халх гол сумын төвөөс баруун хойд зүгт 24.5 км зайтай оршино.,It is located 24.5 km northwest of the center of Khalkh Gol soum.,https://www.dropbox.com/scl/fi/bj2ayyhxb0fjqc6d1dsgt/.jpg?rlkey=7hu8t2t8jhn76istm2olqgnpw&raw=1,야코블레프 동상,ヤコブレフ像,雅科夫列夫雕像,Статуя Яковлева
173,1,Байгалийн үзэсгэлэнт газар,Яхь нуур,Yakh Lake,Дорнод,Dornod,Сэргэлэн,Sergelen,48.63701,114.42385,Сэргэлэн сумын төвөөс зүүн хойд зүгт 113 км зайтай оршино. Далайн түвшнээс дээш 660 метр өндөрт байна. ,It is located 113 km northeast of the center of Sergelen soum. It is 660 meters above sea level.,,야크 호수,ヤク湖,雅克湖,Яхское озеро
174,1,Байгалийн үзэсгэлэнт газар,Сүмбэрийн цагаан нуур,Sumber White Lake,Дорнод,Dornod,Халхгол,Khalkhgol,47.57549,118.63437,Халх гол сумын төвөөс өмнө зүгт 6 км зайтай оршино.,It is located 6 km south of the center of Khalkhgol soum.,,섬버의 화이트 레이크,サンバーズ・ホワイト・レイク,萨姆伯白湖,Озеро Сумберин Цаган
175,1,Байгалийн үзэсгэлэнт газар,Нөмрөгийн дархан цаазат газар,Numrug Strictly Protected Area ,Дорнод,Dornod,Халхгол,Khalkhgol,46.81965,119.51112,Тус бүс нутагт Хянганы нурууны ойт хээрээс Төв Азийн хуурай хээрт шилжих шилжилтийн онцлогийг онгон төрхөөр нь үзэж танилцах боломжтой цорын ганц нутаг юм. Халх гол сумын төвөөс зүүн өмнө зүгт 80 км зайтай оршино.,t is the only place in the region where you can experience the transition from the forest-steppe of the Khyangan Mountains to the dry steppes of Central Asia in its pristine form.,https://www.dropbox.com/scl/fi/fjp4ystefqeg2dl8vzq92/.jpg?rlkey=51i7qmll21cjvc1nqta7rfn57&raw=1,누므루그 엄격보호구역,ヌムルグ厳重保護区,努姆鲁格严格保护区,Строго охраняемая территория Нумруг
176,1,Байгалийн үзэсгэлэнт газар,Дорнод Монголын дархан цаазат газар,Dornod Mongol Strictly Protected Area ,Дорнод,Dornod,Халхгол,Khalkhgol,46.63172,117.1023,"Төв Азийн хялганат хээрийн хэв шинжийг бүрэн харуулсан, онгон байдлаа хадгалж үлдсэн, цагаан зээрийн нүүдэллэх газар юм.","It is a pristine, pristine, and migratory place for the white-tailed deer, fully reflecting the rugged steppe nature of Central Asia.",https://www.dropbox.com/scl/fi/xx9o78zauisgkxdgdh8jh/.jpg?rlkey=fj1o3iptui3ei6gviui9iz4xu&raw=1,도르노드 몽골 엄격보호구역,ドルノドモンゴル厳重保護区,东蒙古严格保护区,Строго охраняемая территория Дорнод Монгол
177,1,Байгалийн үзэсгэлэнт газар,Вангийн цагаан уул,Vangiin Tsagaan Mountain,Дорнод,Dornod,"Халхгол, Матад","Khalkhgol, Matad",46.67105,116.99389,"Далайн түвшнээс дээш 1099 метр өргөгдсөн Халгол, Матад сумдын яг хийлийн зааг дээр оршино.","It is located right on the border of Khalgol and Matad sums, at an elevation of 1,099 meters above sea level.",https://www.dropbox.com/scl/fi/05zcy9v2xvy4g4g1bfhpm/.jpg?rlkey=lnuybqv4b7gzc5sf7v8tnntmt&raw=1,왕의 백산,王氏白山,王氏白山,Гора Вангин Цаган
178,1,Байгалийн үзэсгэлэнт газар,Баруун баян нуур,Baruun Bayan Lake,Дорнод ,Dornod,Сэргэлэн,Sergelen,48.41029,114.07909,Сэргэлэн сумын төвөөс 15.5 км зайтай оршино.,It is located 15.5 km from the center of Sergelen soum.,,바룬 바얀 호수,バルウン バヤン湖,巴鲁恩巴彦湖,Озеро Баруун Баян
179,4,Бусад,Соёлз уулын модот хамар,Soyolz Uulyn Modot Khamar,Дорнод ,Dornod,Халхгол,Khalkhgol,46.722,119.931,Монгол улсын зүүн захын цэг.,The easternmost point of Mongolia.,https://www.dropbox.com/scl/fi/jwzs7v9zg1udyor5ybofq/.jpg?rlkey=vadf2uqqd96v5qym666a5iiyw&raw=1,소욜즈 울린 모도트 카마르,ソヨルズ・ウーリン・モドット・カマル,索约尔兹·乌林·莫多特·卡马尔,Сойолз Уулин Модот Хамар
180,1,Байгалийн үзэсгэлэнт газар,Халх гол,Khalkh River,Дорнод ,Dornod,Халхгол,Khalkhgol,47.78272,118.56445,"Их Хянганы нуруунаас эх авч, 233 километр урсаад Буйр нуурт цутгадаг. Хөлөнбуйрын дундуур урсаж Монголын газар нутагт орж ирээд, Дорнод аймгийн Халхгол сумын нутгаар урсдаг. Төгсгөл хэсэг нь хоёр салаалдаг бөгөөд нэг нь Буйр нуурын баруун хойд хэсэгт цутгана. Гэтэл нөгөө салаа нь  Буйр нуурын яг хойноос эх авч урсах Орчун голд нийлж явсаар хятадын Хөлөн нуурт цутгадаг.","It originates in the Great Khyangan Range and flows for 233 kilometers before emptying into Lake Buir. It flows through the Khulunbuir and enters Mongolian territory, flowing through the Khalkhgol ​​soum of Dornod aimag. Its final section branches into two, one of which flows into the northwest part of Lake Buir. The other branch, however, merges with the Orchun River, which originates just west of Lake Buir, and flows into Lake Hulon in China.",https://www.dropbox.com/scl/fi/ozty0529qzz0k2lfre1x4/.jpg?rlkey=vcvpxo4yzgjy99spav6gl8zgz&raw=1,칼크 강,ハルフ川,喀尔赫河,Река Халх
181,1,Байгалийн үзэсгэлэнт газар,Бага газрын чулуу,Baga Gazryn Chuluu,Дундговь,Dundgovi,Дэлгэрцогт,Delgertsogt,46.20738,106.01798,Дэлгэрцогт сумын төвөөс баруун зүгт 37 км зайтай оршино. Ноён оргил нь далайн түвшнээс дээш 1768 метр өндөрт өргөгдсөн.,"It is located 37 km west of the center of Delgertsogt soum. Noyon Peak rises to an altitude of 1,768 meters above sea level.",https://www.dropbox.com/scl/fi/8gwf9lmmnpqvoo1h323ob/.jpg?rlkey=o57uprb5osq3xfj4ucygc8k7k&raw=1,바가 가즈린 출루우,バガ・ガズリン・チュルウ,巴加·加兹林·楚鲁,Бага Газрын Чулуу
182,1,Байгалийн үзэсгэлэнт газар,Баян борын цагаан нуур,Bayan Boryn Tsagaan Lake,Дундговь,Dundgovi,Баянжаргалан,Bayanjargalan,45.79595,108.51686,Баянжаргалан сумын төвөөс баруун зүгт 47 км зайтай оршино.,It is located 47 km west of the center of Bayanjargalan soum.,,바얀 보린 차강 호수,バヤン ボリン ツァガーン湖,巴彦博林察干湖,Озеро Баян Борын Цагаан
183,3,Шашны дурсгалт газар,Бурхантын агуй,Burkhantyn Cave,Дундговь,Dundgovi,Гурвансайхан,Gurvansaikhan,45.75759,107.2414,Гурвансайхан сумын төвөөс зүүн хойд зүгт 33 км зайтай оршино.,It is located 33 km northeast of the center of Gurvansaikhan soum.,,부르칸틴 동굴,ブルカンティン洞窟,布尔汉廷洞,Бурхантинская пещера
184,3,Шашны дурсгалт газар,Дэлгэрийн хийд,Delger Monastery,Дундговь,Dundgovi,Дэлгэрцогт,Delgertsogt,46.14605,106.15184,Дэлгэрцогт сумын төвөөс баруун зүгт 16.5 км затай оршино.,It is located 16.5 km west of the center of Delgertsogt soum.,https://www.dropbox.com/scl/fi/103aysso5ijmnrf8dhi3o/.jpeg?rlkey=bppvcsm4f0yt6s903v6fji69x&raw=1,델거 수도원,デルガー修道院,德尔格修道院,Дельгерский монастырь
185,1,Байгалийн үзэсгэлэнт газар,Дэлгэрхангай уул,Delgerkhangai Mountain,Дундговь,Dundgovi,Дэлгэрхангай,Delgerkhangai,45.21458,104.72456,Дэлгэрхангай сумын төвөөс өмнө зүгт 6 км зайтай оршино. Ноён оргил нь далайн түвшнээс дээш 1913 метр өндөрт байх Тахилгын овоо юм.,"It is located 6 km south of the center of Delgerkhangai soum. The highest peak is Takhilgin Ovoo, which is 1913 meters above sea level.",https://www.dropbox.com/scl/fi/k1x9tfq7u13y7o8pgakpv/.jpg?rlkey=cn2z2342iag34herg429n6etc&raw=1,델게르항가이 산,デルゲルハンガイ山,德尔格汉爱山,Гора Дэлгерхангай
186,4,Бусад,Задгай театр,Open-Air Theater,Дундговь,Dundgovi,Гурвансайхан,Gurvansaikhan,45.73221,107.24992,Гурвансайхан сумын төвөөс зүүн хойд зүгт 39 км зайтай Их газрын чулууны өмнө хэсэгт оршино.,"It is located 39 km northeast of the center of Gurvansaikhan soum, south of the Great Stone.",https://www.dropbox.com/scl/fi/wl9o9isc0muvu0f5w2bhp/.jpg?rlkey=z7uxdxgt2zy70gssul99qs4ln&raw=1,야외극장,野外劇場,露天剧场,Театр под открытым небом
187,1,Байгалийн үзэсгэлэнт газар,Их газрын чулуу,Ikh Gazryn Chuluu ,Дундговь,Dundgovi,Гурвансайхан,Gurvansaikhan,45.75,107.248,Гурвансайхан сумын төвөөс зүүн хойд зүгт 39 км зайтай оршино.,It is located 39 km northeast of the center of Gurvansaikhan soum.,https://www.dropbox.com/scl/fi/zbpd07horxee2i5vdes7x/.jpeg?rlkey=mknlms2w9ctvcs3pmorucaikj&raw=1,이크 가즈린 출루우,イフ・ガズリン・チュルー,伊克·加兹林·楚鲁,Их Газрын Чулуу
188,1,Байгалийн үзэсгэлэнт газар,Ихрийн агуй,Ikhriin Cave,Дундговь,Dundgovi,Гурвансайхан,Gurvansaikhan,45.75596,107.23251,Гурвансайхан сумын төвөөс зүүн хойд зүгт 33 км зайтай оршино.,It is located 33 km northeast of the center of Gurvansaikhan soum.,,이크리인 동굴,イフリン洞窟,伊克林洞,Пещера Ихриин
189,1,Байгалийн үзэсгэлэнт газар,Мандалын нуур,Mandal Lake,Дундговь,Dundgovi,Сайнцагаан,Saintsagaan,45.67862,106.3295,Сайнцагаан сумын төвөөс зүүн өмнө зүгт 9.8 км зайтай оршино. ,It is located 9.8 km southeast of the center of Saintsagaan soum.,,만달 호수,マンダル湖,曼达尔湖,Озеро Мандал
190,4,Бусад,Норовбанзадын гэрэлт хөшөө,Norovbanzad Statue,Дундговь,Dundgovi,Гурвансайхан,Gurvansaikhan,45.72508,107.22373,Гурвансайхан сумын төвөөс зүүн хойд зүгт 30 км зайтай оршино.,It is located 30 km northeast of the center of Gurvansaikhan soum.,,노로브반자드 동상,ノロフバンザド像,诺罗夫班扎德雕像,Статуя Норовбанзада
191,1,Байгалийн үзэсгэлэнт газар,Өөш манхан,Uush Mankhan,Дундговь,Dundgovi,Өлзийт,Ulziit,44.69511,107.06636,Өлзийт сумын төвөөс баруун хойд зүгт 65.7 км зайтай оршино.,It is located 65.7 km northwest of the center of Ulziit soum.,https://www.dropbox.com/scl/fi/c99vlyhtzhrlods523ud0/.jpg?rlkey=u78l177aqq2ouhqi4jvbduzg2&raw=1,우쉬 만칸,ウーシュ・マンカーン,乌什·曼汗,Ууш Манхан
192,3,Шашны дурсгалт газар,Сумийн туурь,Monastery Riun,Дундговь,Dundgovi,Дэлгэрцогт,Delgertsogt,46.20114,106.03453,Дэлгэрцогт сумын төвөөс баруун зүгт 28.6 км зайтай оршино.,It is located 28.6 km west of the center of Delgertsogt soum.,,수도원 리운,リウン修道院,留恩寺,Монастырь Риун
193,1,Байгалийн үзэсгэлэнт газар,Тоонот агуй,Toonot Cave,Дундговь,Dundgovi,Гурвансайхан,Gurvansaikhan,45.74232,107.21945,Гурвансайхан сумын төвөөс зүүн хойд зүгт 31 км зайтай оршино.,It is located 31 km northeast of the center of Gurvansaikhan soum.,,투놋 동굴,トゥーノット洞窟,图诺特洞穴,Пещера Тунот
194,1,Байгалийн үзэсгэлэнт газар,Умбын цагаан нуур,Umbiin Tsagaan Lake,Дундговь,Dundgovi,Цагаандэлгэр,Tsagaandelger,46.693,107.907,Цагаандэлгэр сумын төвөөс зүүн хойд зүгт 46.5 км зайтай оршино.,It is located 46.5 km northeast of the center of Tsagaandelger soum.,,움비인 차강 호수,ウンビン・ツァガーン湖,翁比因查干湖,Озеро Умбиин Цагаан
195,1,Байгалийн үзэсгэлэнт газар,Хур харцагын тагт,Khur Khartsagyn Tagt,Дундговь,Dundgovi,Гурвансайхан,Gurvansaikhan,45.74389,107.21742,Гурвансайхан сумын төвөөс зүүн хойд зүгт 31 км зайтай оршино.,It is located 31 km northeast of the center of Gurvansaikhan soum.,,쿠르 카르차긴 타그트,クール・ハルツァギン・タグト,库尔·哈察金·塔格特,Хур Харцагын Тагт
196,1,Байгалийн үзэсгэлэнт газар,Цагаан суварга,Tsagaan Suvarga,Дундговь,Dundgovi,Өлзийт,Ulziit,44.58982,105.78613,Өлзийт сумын төвөөс баруун өмнө зүгт  67.4 км зайтай оршино.,It is located 67.4 km southwest of the center of Ulziit soum.,https://www.dropbox.com/scl/fi/0djk4s8uwk8849h08cm2z/.jpeg?rlkey=13du2i1jukd8ein3anyjmzw9m&raw=1,차가안 수바르가,ツァガーン・スヴァルガ,查甘·苏瓦尔加,Цагаан Суварга
197,1,Байгалийн үзэсгэлэнт газар,Эхийн умай агуй,Ekhiin Umai Cave,Дундговь,Dundgovi,Гурвансайхан,Gurvansaikhan,45.74643,107.22528,Гурвансайхан сумын төвөөс зүүн хойд зүгт 32 км зайтай оршино.,It is located 32 km northeast of the center of Gurvansaikhan soum.,,에키인 우마이 동굴,駅院うまい洞窟,埃克欣乌迈洞,Пещера Эхиин Умай
198,1,Байгалийн үзэсгэлэнт газар,Бага нуур,Baga Lake,Завхан,Zavkhan,Эрдэнэхайрхан,Erdenekhairkhan,48.4217,95.95819,Улаагчийн хар нуураас баруун хойд зүгт 8 км зайтай оршино.,It is located 8 km northwest of Ulaagchig Black Lake.,,바가 호수,バガ湖,巴加湖,Озеро Бага
199,1,Байгалийн үзэсгэлэнт газар,Баян нуур,Bayan Lake,Завхан,Zavkhan,Сантмаргац,Santmargats,48.45357,95.1251,"Нуурын өмнөд эрэг нь элсэрхэг тул илүүдэл ус үүгээр шүүгдэж, үүний ачаар цэнгэг устай байдаг ажээ. Баян нуур нь хэдийгээр бага талбайтай боловч Монголын цэнгэг уст нууруудаас эзлэхүүнээрээ 6-д жагсдаг Сантмаргац сумын төвөөс баруун урд зүгт 32 км зайтай оршино","The southern shore of the lake is sandy, which filters excess water, thereby providing it with fresh water. Bayan Lake, although small in area, is the sixth largest freshwater lake in Mongolia, located 32 km southwest of the center of Santmargats soum.",,바얀 호수,バヤン湖,巴彦湖,Озеро Баян
200,1,Байгалийн үзэсгэлэнт газар,Бор хярын элс,Bor Khyaryn Sand,Завхан,Zavkhan,"Сантмаргац, Завханмандал","Santmargats, Zavkhanmandal",48.39068,94.99093,"Ургамал сумын араар зүүн тийш үргэлжлэн Хүнгийн голыг даган хөвөөлдөг бөгөөд Баруун Монгол, Зүүн Монгол хэмээх хоёр ихэр уулын өмнө талд оршдог. Элсэн манханы нийт урт 180 орчим километр үргэлжлэх бөгөөд Эрдэнэхайрхан сумын хойгуур гарч Яруу сумын нутаг хүртэл тэлнэ. ","It continues eastward behind Urgamal soum, following the Khung River, and lies in front of the twin mountains of West Mongolia and East Mongolia. The total length of the sand dunes is about 180 kilometers, extending from the outskirts of Erdenekhairkhan soum to the territory of Yaruu soum.",https://www.dropbox.com/scl/fi/cerez4dc04e696qmsrjas/.jpg?rlkey=f08lba58hne7lq8z1ypbzh0f6&raw=1,보르 카린 샌드,ボル・キャリン・サンド,博尔·凯林沙,Бор Хярын Санд
201,1,Байгалийн үзэсгэлэнт газар,Бүст нуур,Bust Lake,Завхан,Zavkhan,Тэлмэн,Telmen,49.13976,97.48426,Тэлмэн сумын төвөөс хойд зүгт 60 км зайтай оршино.,It is located 60 km north of the center of Telmen soum.,,버스트 레이크,バストレイク,胸围湖,Бюст-Лейк
202,1,Байгалийн үзэсгэлэнт газар,Дархан уул,Darkhan Mountain,Завхан,Zavkhan,Тосонцэнгэл,Tosontsengel,48.75248,98.25738,Далайн түвшнээс дээш 1871 метр өндөрт өргөгдсөн Дархан уулын зүүн хормойд Тосонцэнгэл сумын төв оршино.,"The center of Tosontsengel soum is located on the eastern slopes of Darkhan Mountain, which rises 1,871 meters above sea level.",,다르칸 산,ダルハン山,达尔汗山,Гора Дархан
203,1,Байгалийн үзэсгэлэнт газар,Загастайн даваа,Zagastain Davaa,Завхан,Zavkhan,Алдархаан,Aldarkhaan,48.071,97.167,"Энэ даваа нь далайн түвшнээс дээш 2500 метрийн өндөрт байх бөгөөд хамгийн хүнд хүнд, бэрхшээлтэй нөхцөлд тооцогддог.","This pass is at an altitude of 2,500 meters above sea level and is considered one of the most difficult and challenging.",,자가스테인 다바,ザガステイン・ダヴァー,扎加斯坦·达瓦,Загастайн Даваа
204,1,Байгалийн үзэсгэлэнт газар,Их хайрхан уулын агуй,Ikh Khairkhan Mountain Cave,Завхан,Zavkhan,Завханмандал,Zavkhanmandal,47.95112,94.98887,Завханмандал сумын төвөөс баруун үрд зүгт 55 км зайтай оршино.,It is located 55 km southwest of the center of Zavkhanmandal soum.,,익 카이르칸 산 동굴,イク・ハイルカン山の洞窟,伊赫海尔汗山洞,Горная пещера Их Хайрхан
205,1,Байгалийн үзэсгэлэнт газар,Мухартын гол,Mukhartyn River,Завхан,Zavkhan,Эрдэнэхайрхан,Erdenekhairkhan,48.20992,95.94611,Эрдэнэхайрхан сумын төвөөс зүүн  хойд зүгт 30 км зайтай оршино.,It is located 30 km northeast of the center of Erdenekhairkhan soum.,https://www.dropbox.com/scl/fi/2we6099yw7x7g2pk6a0fv/.jpg?rlkey=7qu5pssw7nwrsqz6d2wliyan6&raw=1,무크하틴 강,ムカルティン川,穆哈廷河,Река Мухартын
206,1,Байгалийн үзэсгэлэнт газар,Ногоон нуур,Nogoon Lake,Завхан,Zavkhan,Түдэвтэй,Tudevtei,49.11567,96.54695,Түдэвтэй сумын төвөөс хойд зүгт 15 км зайтай оршино.,It is located 15 km north of the center of Tudevtei soum.,,노군 호수,ノグーン湖,诺贡湖,Озеро Ногун
207,1,Байгалийн үзэсгэлэнт газар,Ойгон нуур,Oigon Lake,Завхан,Zavkhan,Түдэвтэй,Tudevtei,49.16171,96.55832,"Далайн түвшнээс дээш 1664 метрийн өндөрт, Түдэвтэй сумын төвөөс хойд зүгт 18 км зайтай оршино.","It is located at an altitude of 1664 meters above sea level, 18 km north of the center of Tudevtei soum.",https://www.dropbox.com/scl/fi/1hy4qgoqo2kudolq35ar4/.jpg?rlkey=68ew5ecvqicgqht0r2vjyhmet&raw=1,오이곤 호수,オイゴン湖,奥伊贡湖,Озеро Ойгон
208,1,Байгалийн үзэсгэлэнт газар,Отгонтэнгэр хайрхан,Otgontenger Mountain,Завхан,Zavkhan,"Алдархаан, Отгон","Aldarkhaan, Otgon",47.607,97.551,"Төрийн тахилгат, далайн түвшнээс дээш 3905 метр өргөгдсөн Отгонтэнгэр хайрхан завхан аймгийн Отгон, Алдархаан сумдын нутгийг дамнан оршино. ","Otgontenger, a state monument and located at an altitude of 3,905 meters above sea level, is located across the territories of Otgon and Aldarkhaan soums of Khairkhan Zavkhan aimag.",https://www.dropbox.com/scl/fi/mchob9a9y4e0w80rnsa0b/.jpg?rlkey=42spp0xpoqi32bruag2h0c0xj&raw=1,옷곤텡게르 산,オットゴンテンゲル山,奥特贡腾格山,Гора Отгонтенгер
209,1,Байгалийн үзэсгэлэнт газар,Сэнжит хад,Senjit Rock,Завхан,Zavkhan,Эрдэнэхайрхан,Erdenekhairkhan,48.21876,96.14979,"Улаагчин хар нуураас өмнө зүгт 25.5 км, Эрдэнэхайрхан сумын төвөөс зүүн хойд зүгт 60 км зайтай оршино. ",It is located 25.5 km south of Ulaagchin Black Lake and 60 km northeast of the center of Erdenekhairkhan soum.,https://www.dropbox.com/scl/fi/qi267rhzeae97wostp1o6/.JPG?rlkey=jmm178fnz08anf7f15vmyhe8v&raw=1,센짓 록,センジット ロック,森吉特摇滚,Сенджит Рок
210,1,Байгалийн үзэсгэлэнт газар,Тахилт нуур,Takhilt Lake,Завхан,Zavkhan,Нөмрөг,Numrug,48.80841,96.81075,Нөмрөг сумын төвөөс баруун өмнө зүгт 12 км зайтай оршино.,It is located 12 km southwest of the center of Nomrug soum.,,타힐트 호수,タキルト湖,塔克希尔特湖,Озеро Тахилт
211,1,Байгалийн үзэсгэлэнт газар,Тэлмэн нуур,Telmen Lake,Завхан,Zavkhan,"Нөмрөг, Тэлмэн","Numrug, Telmen",48.83135,97.29711,"Завхан аймгийн Нөмрөг, Тэлмэн сумдын заагт оршдог давстай нуур. Нууранд гурван арал байх ба нүүдлийн шувууд цуглардаг байна.",A salt lake located on the border of Nomrug and Telmen soums in Zavkhan aimag. There are three islands in the lake and migratory birds gather there.,https://www.dropbox.com/scl/fi/w29deml1kkt64fkuiw29v/.jpg?rlkey=qs0g4cyynavzm3q99yh2io3kf&raw=1,텔멘 호수,テルメン湖,泰尔门湖,Озеро Тельмень
212,1,Байгалийн үзэсгэлэнт газар,Тэсийн гол,Tes River,Завхан,Zavkhan,Баянтэс,Bayantes,49.737,96.42438,Хөвсгөл аймгийн нутаг Булнайн нуруунаас эх аван 550 км урссаар Увс нуурт цутгадаг манай орны томоохон голуудын нэг юм.,"It is one of the largest rivers in our country, originating in the Bulnai Mountains in Khuvsgul aimag and flowing for 550 km into Uvs Lake.",https://www.dropbox.com/scl/fi/gh3wbhmougcqm0v4yotwt/.jpg?rlkey=8z91wmkgjt8g16yywhmyufpuo&raw=1,테스 강,テス川,特斯河,Река Тес
213,1,Байгалийн үзэсгэлэнт газар,Улаагчны хар нуур,Ulaagchny Khar Lake,Завхан,Zavkhan,Эрдэнэхайрхан,Erdenekhairkhan,48.356,96.064,"Эрдэнэхайрхан сумын төвөөс зүүн  хойд зүгт 80 км зайтай оршино. Далайн түвшнээс дээш 1980 метр, 24 км урт, 5-10 км өргөнтэй байна.","It is located 80 km northeast of the center of Erdenekhairkhan soum. It is 1980 meters above sea level, 24 km long, and 5-10 km wide.",https://www.dropbox.com/scl/fi/bgij251gfjrbulxy67h3z/.jpg?rlkey=qkjpzvqdp8iy0nck8hpwryz5e&raw=1,울라그치니 카르 호수,ウラークチヌイ・カール湖,乌拉赫尼卡尔湖,Озеро Улаагчны Хар
214,1,Байгалийн үзэсгэлэнт газар,Хаг нуур,Khag Lake,Завхан,Zavkhan,Яруу,Yaruu,48.06832,96.61838,Яруу сумын төвөөс баруун өмнө зүгт 10 км зайтай оршино.,It is located 10 km southwest of the center of Yaruu soum.,,카그 호수,カグ湖,卡格湖,Озеро Хаг
215,1,Байгалийн үзэсгэлэнт газар,Холбоо нуур,Kholboo Lake,Завхан,Zavkhan,Сантмаргац,Santmargats,48.58144,95.41892,Сантмаргац сумын төв Холбоо нуурын зүүн эрэгт оршино.,The center of Santmargats soum is located on the east bank of Lake Soyun.,,콜부 호수,コルブー湖,科尔布湖,Озеро Холбу
216,1,Байгалийн үзэсгэлэнт газар,Хөх нуур,Khukh Lake,Завхан,Zavkhan,Алдархаан,Aldarkhaan,47.60194,97.34937889,Аймгийн төвөөс зүүн урагш 46 км зайтай оршино.,It is located 46 km southeast of the provincial center.,,쿠크 호수,クク湖,库克湖,Озеро Хух
217,1,Байгалийн үзэсгэлэнт газар,Цэцэрлэгийн рашаан,Tsetserleg Mineral Water,Завхан,Zavkhan,Цагаанхайрхан,Tsagaankhairkhan,47.46124,97.33434,Цагаанхайрхан сумын төвөөс зүүн  зүгт 44 км зайтай оршино.,It is located 44 km east of the center of Tsagaankhairkhan soum.,,체체를렉 미네랄 워터,ツェツェルレグ ミネラルウォーター,采采勒格矿泉水,Минеральная вода «Цецерлег»
218,1,Байгалийн үзэсгэлэнт газар,Шорвог нуур,Shorvog Lake,Завхан,Zavkhan,Түдэвтэй,Tudevtei,49.10414,96.49586,Түдэвтэй сумын төвөөс хойд зүгт 16 км зайтай оршино.,It is located 16 km north of the center of Tudevtei soum.,,쇼보그 호수,ショーヴォーグ湖,绍尔沃格湖,Озеро Шорвог
219,1,Байгалийн үзэсгэлэнт газар,Ялайт нуур,Yalait Lake,Завхан,Zavkhan,Нөмрөг,Numrug,48.85745,96.94641,Нөмрөг сумын төвөөс баруун өмнө зүгт 1.2 км зайтай оршино.,It is located 1.2 km southwest of the center of Nomrug soum.,,얄라이트 호수,ヤライト湖,亚莱特湖,Озеро Ялайт
220,2,Түүхийн дурсгалт газар,Айраг нуурын хиргэсүүр,Airag Nuuryn Khirgesuur,Завхан ,Zavkhan,Сонгино,Songino,48.986639,96.095,Айраг нуурын цогцолбор дурсгал нь манай улсын нутагт бүртгэгдсэн хамгийн том дугуй хүрээтэй хиргисүүр юм. Сонгино сумын төвөөс 16.4 км зайтай оршино.,The Airag Lake complex monument is the largest circular-framed khirgisur monument recorded in our country. It is located 16.4 km from the center of Songino soum.,https://www.dropbox.com/scl/fi/pm4ev6dztj5f7wspziop7/.jpg?rlkey=x4thjto5yqb7jxiprc1dafo85&raw=1,아이락 누린 키르게수르,アイラグ・ヌーリン・キルゲスール,艾拉格·努伦·基格苏尔,Айраг Нуурын Хиргесуур
221,2,Түүхийн дурсгалт газар,Айргийн хүүхний гозгор,Airgiin Khuukhnii Gozgor,Орхон,Orkhon,Жаргалант,Jargalant,49.013,104.536,Жаргалант сумын төвөөс зүүн тийш 7км зайд орших Айргийн гозгор гэдэг нүцгэн уулын өвөрт орших Хүннүгийн хожуу үеийн бүлэг дурсгал нь том жижиг нийлсэн 90 гаруй бүлэг дурсгал юм.,"Located 7 km east of the center of Jargalant soum, on the slopes of a bare mountain called Airgiin Gozgor, the Late Hunnic Period group of monuments consists of more than 90 large and small monuments.",https://www.dropbox.com/scl/fi/ckav32qdyhcs2oqlj1iy5/.jpg?rlkey=kih0pyvfzs256z6jm04n7h86s&raw=1,에어긴 쿠크니 고즈고르,エアギイン・クークニ・ゴズゴル,艾尔吉因·库赫尼·戈兹戈尔,Аиргийн Хуухний Гозгор
222,4,Бусад,Морины их шүтээн,The great idol of horses,Өвархангай ,Ovorkhangai,Тарагт,Taragt,46.16524,102.65879,Арвайхээр хотоос баруун өмнө зүгт 16.5 км зайтай оршино.,It is located 16.5  km eastwest of the center of Arvaikheer city.,https://www.dropbox.com/scl/fi/afcmm3irhrg9zrogjuwzx/.jpg?rlkey=lbpmgn33pphqqt57h2g4u3nd7&raw=1,말의 위대한 우상,馬の偉大な偶像,马的伟大偶像,Великий кумир лошадей
223,1,Байгалийн үзэсгэлэнт газар,Арц богд уул,Arts Bogd Mountain,Өвөрхангай,Ovorkhangai,Богд,Bogd,44.55001,102.10914,"Арц богд уул нь Бага Богд уулын зүүн хоолойгоор зааглагдаж, баруун үзүүр нь Бага Богд уултай 20 гаруй километр газраар зөрсөн байдаг. Уулсын ар тал нь эгц, нилээд хадархаг говийн шинжтэй. Ноён оргил нь далайн төвшнөөс дээш 2477 метр өндөр Их баян уул.","The Arts Bogd Mountain is bordered by the eastern gorge of Baga Bogd Mountain, and its western tip is separated from Baga Bogd Mountain by more than 20 kilometers. The backside of the mountains is steep and rocky, with a typical Gobi style. The highest peak is Ikh Bayan Mountain, 2,477 meters above sea level.",https://www.dropbox.com/scl/fi/8n0embpk8yd8bjx4e92ld/.jpg?rlkey=uljr7guu3obclk7j6urgix9w3&dl=0,아트 보그드 마운틴,アーツ ボグド マウンテン,艺术博格德山,Искусство Богд Гора
224,1,Байгалийн үзэсгэлэнт газар,Бага богд уул,Baga Bogd Mountain,Өвөрхангай,Ovorkhangai,Баруунбаян-Улаан,Barunubayan-Ulaan,45.3124,101.88416,"Баруунбаян-Улаан сумаас бага зэрэг зүүн урд зүгт, Баянхонгор аймгийн Богд сумаас зүүн урд зүгт, хоёр сумын хилийг дамнан оршдог хөвч уулс бөгөөд түүний ноён оргил нь Мянган Ямаат уул далайн түвшнээс дээш 3600 метр юм.","A mountain range located slightly southeast of Baruunbayan-Ulaan soum and southeast of Bogd soum of Bayankhongor aimag, straddling the border of the two soums, with its highest peak, Miangan Yamaat Mountain, at 3,600 meters above sea level.",https://www.dropbox.com/scl/fi/ta18sdhfhmo42eouejo72/.jpg?rlkey=fdqjv7w2vj0k9hduzdslmytvl&raw=1,바가 복드 산,バガ ボグド山,巴嘎博格德山,Гора Бага Богд
225,2,Түүхийн дурсгалт газар,Буган чулуун хөшөө,Deer Stone,Өвөрхангай,Ovorkhangai,Бат-Өлзий,Bat-Olzii,46.77045,101.88678,"Бат-Өлзий сумын төвөөс баруун зүгт 19 км зайтай, Орхон голын өмнөхөн талд оршино.","It is located 19 km west of the center of Bat-Ulzii soum, just before the Orkhon River.",https://www.dropbox.com/scl/fi/psf5egifovugbjghlt0c7/.jpg?rlkey=kj6f4lvfyor223ur00z5s9a72&raw=1,사슴 돌,鹿石,鄂尔浑小瀑布,Олений камень
226,1,Байгалийн үзэсгэлэнт газар,Орхоны бага хүрхрээ,Orkhon Small Waterfall,Өвөрхангай,Ovorkhangai,Бат-Өлзий,Bat-Olzii,46.79513,101.94328,Орхон голын Улаан цутгалан хүрхрээнээс баруун хойд зүгт 1.8 км зайтай орших багавтар хүрхрээ.,A small waterfall located 1.8 km northwest of the Ulaan Chutkulan Waterfall on the Orkhon River.,https://www.dropbox.com/scl/fi/r47aiwvtneisuskqqj5wr/.JPG?rlkey=nq3oxxdzt6jduupi0jcvriapr&raw=1,오르혼 소폭포,オルホン小滝,鄂尔浑小瀑布,Малый водопад Орхон
227,1,Байгалийн үзэсгэлэнт газар,Орхоны хөндий,Orkhon Valley,Өвөрхангай,Ovorkhangai,Бат-Өлзий,Bat-Olzii,46.882,102.298,"Орхоны хөндий нь археологийн болон түүх соёлын олдвороор нэн баялаг бөгөөд YIII-IX зууны Уйгарын нийслэл Хар балгас, Монголын эзэнт гүрний нийслэл Хархорум хот, Төвхөн хийд зэрэг түүх соёлын дурсгалт газрууд оршиж байдаг.","The Orkhon Valley is very rich in archaeological and historical and cultural artifacts, and is home to historical and cultural monuments such as the ruins of the 13th-9th century Uyghur capital, Kharkhorum, the capital of the Mongol Empire, and the Tuvkhan Monastery.",https://www.dropbox.com/scl/fi/f00hn17cxkpqenbusgk9a/OrkhonValley.jpg?rlkey=235harstooqof0y1550lvgel8&raw=1,오르콘 밸리,オルホン渓谷,鄂尔浑河谷,Орхонская долина
228,1,Байгалийн үзэсгэлэнт газар,Таацын цагаан нуур,Tsaatsiin Tsagaan Lake,Өвөрхангай,Ovorkhangai,Баруунбаян-Улаан,Barunubayan-Ulaan,45.15632,101.47114,"Тус нуур нь ойр орчмын Бөөн цагаан, Адгийн цагаан, Орог нууруудын хамтаар ""Нууруудын хөндий"" гэдэг нэрээр Рамсарын ус, намгархаг газраар бүртгэгдсэн байдаг. Нүүдлийн шувууд хуран цугладаг Нууруудын хөндий нь ховордсон реликт цахлайн үржил явагддаг нутаг юм.","The lake, along with the nearby lakes Bön Tsagaan, Adgiin Tsagaan, and Orog, is registered as a Ramsar site and wetland under the name ""Valley of Lakes"". The Valley of Lakes, where migratory birds gather, is a breeding ground for the endangered relict gull.",,차아친 차강 호수,ツァーツィン・ツァガーン湖,查特辛查干湖,Озеро Цаациин Цагаан
229,1,Байгалийн үзэсгэлэнт газар,Тамчийн хавцал,Tamch Canyon,Өвөрхангай,Ovorkhangai,Бат-Өлзий,Bat-Olzii,46.69451,101.48343,Бат-Өлзий сумын төмөөс баруун өмнө зүгт 67 км зайтай оршино. Эртний их хагарал галт уулын хүрмэн чулууг уулын голын ус зүссэнээс үүссэн маш сүрлэг гүн хавцал оршдог.,"Located 67 km southwest of the capital of Bat-Ulzii soum, it is a majestic deep canyon formed by the cutting of volcanic rocks by mountain rivers through an ancient rift.",https://www.dropbox.com/scl/fi/jvefonphp1oba1op1psvf/.jpg?rlkey=4byehsopccjuahxwvsn10aucp&raw=1,탐치 캐년,タムチキャニオン,塔奇峡谷,Тамчский каньон
230,3,Шашны дурсгалт газар,Төвхөн хийд,Tuvkhen Monastery,Өвөрхангай,Ovorkhangai,Бат-Өлзий,Bat-Olzii,47.01312,102.2557,Бат-Өлзий сумын төвөөс зүүн хойд зүгт 40 гаруй  км зайтай оршино.Өндөр-Овоот буюу Шивээт-Улаан хэмээх аглаг ой модоор хүрээлэгдсэн асга хадтай өндөр уулын оройн байц хадны багавтар дэвсэг дээр оршдог. ,"It is located more than 40 kilometers northeast of the center of Bat-Ulzii soum. It is located on a small rocky ledge at the top of a high mountain with steep cliffs, surrounded by dense forests called Ondur-Ovoot or Shiveet-Ulaan.",https://www.dropbox.com/scl/fi/ht21g5hxs3dm4h5t7nufl/.jpg?rlkey=pvp9txle5b720runmt77whfgx&raw=1,투브켄 수도원,トゥフケン修道院,图夫肯修道院,Тувхенский монастырь
231,1,Байгалийн үзэсгэлэнт газар,Тэмээн чулуу,Camel Rock,Өвөрхангай,Ovorkhangai,Бат-Өлзий,Bat-Olzii,46.88041,102.34531,Бат-Өлзий сумын төвөөс зүүн хойд зүгт 10 км зайтай оршино.,It is located 10 km northeast of the center of Bat-Ulzii soum.,https://www.dropbox.com/scl/fi/tza7at34w1stbun79z9i6/.jpg?rlkey=wxtv8nr5bnwid75w5769v7b2t&raw=1,카멜 록,キャメルロック,骆驼岩,Верблюжья скала
232,1,Байгалийн үзэсгэлэнт газар,Улаан цутгалан хүрхрээ,Ulaan Tsutgalan Waterfall,Өвөрхангай,Ovorkhangai,Бат-Өлзий,Bat-Olzii,46.78721,101.96066,"Бат-Өлзий сумын төвөөс баруун зүгт 24 км зайтай оршино. Улаан гол Орхон голд цутгахад үүссэн 20 метр өндөр, 10 метр өргөнтэй хүрхрээ.","Located 24 km west of the center of Bat-Ulzii soum, it is a 20-meter-high and 10-meter-wide waterfall formed when the Ulaan River flows into the Orkhon River.",https://www.dropbox.com/scl/fi/bzle8horw889zv28tfkyw/.jpg?rlkey=wbw99b8sli8jqhw693xz3pdjx&raw=1,울란 쿳갈란 폭포,ウラン ツットガラン滝,乌兰楚嘎兰瀑布,Водопад Улаан Цутгалан
233,1,Байгалийн үзэсгэлэнт газар,Үүртийн тохой,Uurtiin Tokhoi,Өвөрхангай,Ovorkhangai,Хужирт,Khujirt,46.89038,102.41015,Хужирт сумын төвөөс баруун зүгт 29 км зайтай оршино.,It is located 29 km west of the center of Khujirt soum.,https://www.dropbox.com/scl/fi/1heaffcnqk32o0w9wlous/.jpg?rlkey=r2htavkn9zwro354tomhpyy3m&raw=1,우르틴 토호이,ウルティン・トコイ,乌尔廷·托科伊,Ууртин Тохой
234,1,Байгалийн үзэсгэлэнт газар,Хаяа ,Khaya ,Өвөрхангай,Ovorkhangai,Төгрөг,Tugrug,45.39761,102.82652,Төгрөг сумын төвөөс баруун өмнө зүгт 28 км дайтай оршино.,It is located 28 km southwest of the center of Togrug soum.,,카야,カヤ,卡亚,Хая
235,4,Бусад,Хүйс цэг,Khuis Tseg,Өвөрхангай,Ovorkhangai,Бүрд,Burd,46.8645,103.82988,Бүрд сумаас өмнө зүгт 16 км зайтай Өвөр хөшөөт гэх газарт Монгол улсын газарзүйн төв цэг оршино.Газарзүйч профессор Н.Шагдар 1979 онд тодорхойлсон бөгөөд чулуун овоогоор тэмдэглэснийг  хожим  суварга босгон  тохижуулжээ,"The geographical center of Mongolia is located at a place called Inner Monument, 16 km south of Burd sum. Geologist Professor N. Shagdar determined it in 1979 and marked it with a stone mound, which was later decorated with a stupa.",https://www.dropbox.com/scl/fi/acqvn9o426vi78zdm0gtv/.jpg?rlkey=5t5s4o576xboh3sa46b7635rb&raw=1,쿠이스 체그,ハウス・ツェグ,奎斯·泽格,Хуис Цег
236,1,Байгалийн үзэсгэлэнт газар,Хүйсийн найман нуур,Khuisiin Naiman Lake,Өвөрхангай,Ovorkhangai,Уянга,Uyanga,46.582,101.782,Уянга сумын төвөөс баруун хойд зүгт 46 км зайтай оршино.,"It is located 46 km northwest of the center of Uyanga soum. There are eight lakes named Shireet, Mukhar, Khaliut, Bugat, Khaya, Shanaa Doroo, and Khuis, which are connected to each other by underground water veins. The lakes are separated from each other by a distance of 500 meters to 3.5 km. One of the eight lakes, Shanaa Lake, dries up in dry years and fills up in rainy years.",https://www.dropbox.com/scl/fi/y6xduvw57em293zfguhm0/.jpg?rlkey=4vrvx00ct7uhncpo9w6dgtgb0&raw=1,쿠이신 나이만 호수,クイシン・ナイマン湖,奎西因奈曼湖,Озеро Хуйсин Найман
237,2,Байгалийн үзэсгэлэнт газар,Хятруун ,Hyatruun,Өвөрхангай,Ovorkhangai,Уянга,Uyanga,46.55709,102.05391,Уянга сумын төвөөс баруун хойд зүгт 21 км зайтай оршино.,It is located 12 km northwest of the center of Uyanga soum.,,老的,古い,老的,Хятрун
238,1,Байгалийн үзэсгэлэнт газар,Цагаан голын хүрхрээ,Tsagaan Gol Waterfall,Өвөрхангай,Ovorkhangai,Бат-Өлзий,Bat-Olzii,46.896446,102.358281,Бат-Өлзий сумын төвөөс зүүн хойд зүгт 14.8 км зайтай оршино.,It is located 14.8 km northeast of the center of Bat-Ulzii soum.,,차가안 골 폭포,ツァガーンゴル滝,查干戈尔瀑布,Водопад Цагаан Гол
239,1,Байгалийн үзэсгэлэнт газар,Ширээт нуур,Shireet Lake,Өвөрхангай,Ovorkhangai,Уянга,Uyanga,46.52847,101.80968,Уянга сумын төвөөс баруун хойд зүгт 44 км зайтай оршино. Хүйсийн найман нуурын хамгийн том нуур бөгөөд далайн түвшнээс дээш 2470 мер өндөрт байна. ,"It is located 44 km northwest of the center of Uyanga soum. It is the largest of the eight lakes of Khuis and is 2,470 meters above sea level.",https://www.dropbox.com/scl/fi/1j0yi6on69lc0zrlggmvc/.jpg?rlkey=oeu52671zfyzjltgfoe05s6ze&raw=1,시리트 호수,シリート湖,希里特湖,Озеро Ширит
240,1,Байгалийн үзэсгэлэнт газар,Эрхэтийн хавцал,Erkhet Canyon,Өвөрхангай,Ovorkhangai,Бат-Өлзий,Bat-Olzii,46.66681,101.50512,Бат-Өлзий сумын төмөөс баруун өмнө зүгт 65 км зайтай оршино.Эртний их хагарал галт уулын хүрмэн чулууг уулын голын ус зүссэнээс үүссэн маш сүрлэг гүн хавцал оршдог.,It is located 65 km southwest of the capital of Bat-Ulzii soum. It is a very majestic deep canyon formed by the cutting of volcanic rocks by mountain rivers during an ancient rift.,https://www.dropbox.com/scl/fi/3o01aaputsgli32qkzwrp/1.jpg?rlkey=vdrbstujipdphy8q1zblsno0w&raw=1,에르케트 협곡,エルケット渓谷,埃尔克赫特峡谷,Каньон Эрхет
241,3,Шашны дурсгалт газар,Агуйтын хийдийн туурь,Ruins of Aguit Monastery,Өмнөговь,Omnogovi,Ханбогд,Khanbogd,42.58721,107.82796,"Ханбогд сумын төвөөс өмнө зүгт 118 км, улсын хилээс 16 км зайтай орших далайн түвшнээс дээш 1278 метр өргөгдсөн Агуйт уулын өмнө хормойд хуучны хийдийн туурь байна.","Located 118 km south of the center of Khanbogd soum and 16 km from the state border, on the slopes of Mount Aguit, which rises 1,278 meters above sea level, are the ruins of an ancient monastery.",https://www.dropbox.com/scl/fi/h7eu3sehisdbulq0smoe3/.JPG?rlkey=6yfsj8at340zu2wcjx4ho0yvw&raw=1,아구이트 수도원,アグイット修道院,阿吉特修道院,Агитский монастырь
242,1,Байгалийн үзэсгэлэнт газар,Баяжихын агуй,Bayjih Cave,Өмнөговь,Omnogovi,Ханбогд,Khanbogd,43.03289,107.0405,Ханбогд сумын төвөөс баруун өмнө зүгт 28 км зайтай оршино. ,It is located 28 km southwest of the center of Khanbogd soum.,https://www.dropbox.com/scl/fi/2375jhr7kkqrlojqnir5l/.jpg?rlkey=voravxhftemg6v26k1ioxoxgk&raw=1,바이지 동굴,ベイジ洞窟,拜吉洞,Пещера Байджих
243,1,Байгалийн үзэсгэлэнт газар,Баянзаг,Bayanzag ,Өмнөговь,Omnogovi,Булган,Bulgan,44.14024,103.72102,"Булган сумын төвөс зүүн хойд  зүгт 21 км зайтай оршино.Заг мод их ургадаг учраас Баянзаг гэж нэрлэгдсэн. Урдаас хойшоо чиглэлтэй сунаж тогтсон, өргөн нь 5 км, урт нь 8 км орчим.","It is located 21 km northeast of the center of Bulgan soum. It was named Bayanzag because of the abundance of sycamore trees. It stretches from south to north, is about 5 km wide, and 8 km long.",https://www.dropbox.com/scl/fi/1ylxx985p3603b9rgze9w/BayanzagCamp.jpg.jpg?rlkey=ij8ol0o3lejz564q3zb2m4736&raw=1,바얀자그,バヤンザグ,巴彦扎格,Баянзаг
244,1,Байгалийн үзэсгэлэнт газар,Гурван зээрдийн агуй,Gurvan Zeerd Cave,Өмнөговь,Omnogovi,Ханбогд,Khanbogd,42.50542,107.44762,"Ханбогд сумын төвөөс зүүн өмнө зүгт 138 км, улсын хилээс 6 км зайтай далайн түвшнээс дээш 1100 метр өргөгдсөн Гурван зээрд уулын ар биед оршино. ","It is located 138 km southeast of the center of Khanbogd soum and 6 km from the state border, at an altitude of 1,100 meters above sea level, in the foothills of Gurvan Zeerd Mountain.",https://www.dropbox.com/scl/fi/1jsttie0gop37c12c87gs/.jpg?rlkey=efs7xi78wilmnhg5efeihebyg&raw=1,구르반 지르드 동굴,ガーバン・ゼアード洞窟,古尔万泽德洞穴,Пещера Гурван Зерд
245,1,Байгалийн үзэсгэлэнт газар,Гэгээтийн ам,Gegeetiin Am,Өмнөговь,Omnogovi,Баяндалай,Bayandalai,43.84959,103.17353,Баяндалай сумын төвөөс баруун хойд зүгт 65 км зайтай оршино.,It is located 65 km northwest of the center of Bayandalai soum.,,게게틴 암,ゲゲティン・アム,吉吉廷·阿姆,Гегеетийн Ам
246,1,Байгалийн үзэсгэлэнт газар,Дунд сайхан уул,Dund Saikhan Mountain,Өмнөговь,Omnogovi,Баяндалай,Bayandalai,43.639,103.771,Далайн түвшнээс дээш 2826 метр Баяндалай сумын төвөөс зүүн хойд зүгт 35км зайтай оршино. ,"It is located 35 km northeast of the center of Bayandalai soum, 2826 meters above sea level.",https://www.dropbox.com/scl/fi/x7qjlkgqhd6mmthdscgtk/.jpg?rlkey=qu5m6ifa1sk3pv1u89ls8dkqu&raw=1,던드사이칸산,ドゥンド サイハン山,敦德赛坎山,Гора Дунд Сайхан
247,3,Шашны дурсгалт газар,Дэмчогийн хийд,Demchog Monastery,Өмнөговь,Omnogovi,Ханбогд,Khanbogd,43.12814,107.12784,Ханбогд сумын төвөөс баруун өмнө зүгт 13 км зайтай оршино. ,It is located 13 km southwest of the center of Khanbogd soum.,https://www.dropbox.com/scl/fi/vj0gvc4hhdcpgtj5n2wgy/.jpg?rlkey=uwzg8azimomkc5hyr9mhzid6s&raw=1,뎀초그 수도원,デムチョグ修道院,德姆秋寺,Демчогский монастырь
248,1,Байгалийн үзэсгэлэнт газар,Ёлын ам,Yolyn Am,Өмнөговь,Omnogovi,Ханхонгор,Khankhongor,43.48871,104.0669,Аймгийн төв Даланзадгад хотоос баруун өмнө зүгт 45 км зайтай оршино.,The provincial capital is located 45 km southwest of Dalanzadgad.,https://www.dropbox.com/scl/fi/rmsglr16tfdxcvcpbmbx2/.jpeg?rlkey=vzuc7fl59hoe90jicc0ifgkml&raw=1,욜린 암,ヨリン・アム,尤林·阿姆,Йолин Ам
249,1,Байгалийн үзэсгэлэнт газар,Зулганайн баян бүрд,Zulganai Oasis,Өмнөговь,Omnogovi,Гурвантэс,Gurvantes,43.58463,100.04577,Гурвантэс сумын төвөөс баруун хойд зүгт 100 шахам км зайтай оршино.,It is located almost 100 km northwest of the center of Gurvantes soum.,https://www.dropbox.com/scl/fi/agl0la3l66ggvxsmztgqp/.JPG?rlkey=zufm71langxg83jqi3qjzvppj&raw=1,줄가나이 오아시스,ズルガナイ オアシス,祖尔加奈绿洲,Зулганайский оазис
250,1,Байгалийн үзэсгэлэнт газар,Ловон чомбын агуй,Lovon Chomb Cave,Өмнөговь,Omnogovi,Ханбогд,Khanbogd,42.58842,107.82547,Ханбогд өмнө зүгт 118 км зайтай орших Агуйт ууланд олон агуй байдгийн хамгийн том нь юм. Хийдийн хойд хамар даваад ороход зүүн тийш харсан том хадан цохионы ёроолд  1170 м өндөрт оршдог. Тус агуй нь зүүн тийш харсан амтай ба амсарын хэмжээ 1.3 х 1м. ,"It is the largest of the many caves in Aguit Mountain, 118 km south of Khanbogd. It is located at an altitude of 1170 m at the bottom of a large cliff facing east when entering through the northern nose of the monastery. The cave has an east-facing mouth and the size of the mouth is 1.3 x 1 m.",https://www.dropbox.com/scl/fi/ak74fllai7ycwtyebu24l/.jpg?rlkey=v1h4zuc0l9amikzax7navmmej&raw=1,로본 촘 동굴,ロボンチョム洞窟,Lovon Chomb 洞穴,Пещера Ловон Чомб
251,1,Байгалийн үзэсгэлэнт газар,Молцог элс,Moltsog Sand,Өмнөговь,Omnogovi,Булган,Bulgan,44.158,104.034,Булган сумын төвөөс зүүн хойд зүгт 45 км зайтай оршино.,It is located 45 km northeast of the center of Bulgan soum.,https://www.dropbox.com/scl/fi/3b3i33hwbod0fq1unapmb/.jpg?rlkey=ei9ehgdyb2id22ke0256jlb9m&raw=1,몰트소그 모래,モルツォグサンド,毛措沙,Мольцог Песок
252,1,Байгалийн үзэсгэлэнт газар,Нэмэгтийн хавцал,Nemegt Canyon,Өмнөговь,Omnogovi,Гурвантэс,Gurvantes,43.5,101.0634,Гурвантэс сумын төвөөс  хойд зүгт 60 км зайтай оршино.  Нэмэгт уул нь далайн түвшнээс дээш 2769 м өргөгдсөн. ,It is located 60 km north of the center of Gurvantes soum. Nemegt Mountain rises 2769 m above sea level.,https://www.dropbox.com/scl/fi/56cz4by4islw8rnnn12o6/.jpg?rlkey=duwp2lzxllh35k8irmezs9pho&raw=1,네메그트 캐년,ネメグト渓谷,内梅特峡谷,Каньон Немегт
253,3,Шашны дурсгалт газар,Сангийн далай хийд,Sangiin Dalai Monastery,Өмнөговь,Omnogovi,Номгон,Nomgon,42.84082,105.13946,1707 онд үндэс суурь нь тавигдсан энэхүү хийд Номгон сумын төвд оршино.,"This monastery, founded in 1707, is located in the center of Nomgon soum.",https://www.dropbox.com/scl/fi/2qjj84gvq9ekct00ogt6l/.jpg?rlkey=w8efss06nv4mt3utgk02criqg&raw=1,산이인 달라이 수도원,サンギイン ダライ僧院,桑吉达赖寺,Монастырь Сангиин Далай
254,1,Байгалийн үзэсгэлэнт газар,Сэрүүн булаг,Seruun Bulag,Өмнөговь,Omnogovi,Сэврэй,Sevrei,43.756,102.314,Сэврэй сумын төвөөс зүүн хойд зүгт 23 км зайтай оршино.,It is located 23 km northeast of the center of Sevrey soum.,,세룬 불라그,セルウン・ブラグ,塞伦·布拉格,Серуун Булаг
255,1,Байгалийн үзэсгэлэнт газар,Төгрөгийн ширээ,Tugrugiin Shiree,Өмнөговь,Omnogovi,Булган,Bulgan,44.30003,103.19997,Булган сумын төвөөс баруун хойд зүгт 43 км зайтай оршино. мөргөцөг бөгөөд өндөр нь 30-аад метр байдаг. Мөргөцөгийн хананд эртний үлэг гүрвэлийн яс цухуйж байдаг. Үлэг гүрвэлийн зулзаганы араг яс бүхий чулуужсан өндөгний олдворууд эндээс нилээд олджээ.,It is located 43 km northwest of the center of Bulgan soum. It is a mound and is about 30 meters high. Ancient dinosaur bones protrude from the walls of the mound. A large number of fossilized eggs with skeletons of dinosaur cubs have been found here.,https://www.dropbox.com/scl/fi/gcau7tax6dgo4btj7453g/.jpg?rlkey=p20axjj4g8avmzgqef91kd8og&raw=1,투그루긴 샤리,トゥグルギン・シリー,图格鲁吉因郡,Тугругаин Шире
256,1,Байгалийн үзэсгэлэнт газар,Хавцгайт ,Khavtsgait,Өмнөговь,Omnogovi,Булган,Bulgan,43.90411,103.5273,Булган сумын төвөөс өмнө зүгт 22 км зайтай оршино,It is located 22 km south of the center of Bulgan soum.,,카브츠가이트,カフツガイト,哈夫茨盖特,Хавцгаит
257,1,Байгалийн үзэсгэлэнт газар,Хонгорын элс,Khongoryn Els,Өмнөговь,Omnogovi,Сэврэй,Sevrei,43.725,102.37,"Сэврэй сумын төвөөс хойд зүгт 22.5 км зайтай орших Хонгорын элс Өмнөговь аймгийн Гурвантэс, Сэврэй, Баяндалай сумдын нутгийг дамнан 180 км үргэлжилэх бөгөөд 3-15 км өргөнтэй, 10-30 метр өндөртэй байна.","Located 22.5 km north of the center of Sevrey soum, the Khongor sand dunes extend for 180 km across the territories of Gurvantes, Sevrey, and Bayandalai soums of Umnugovi aimag, and are 3-15 km wide and 10-30 meters high.",https://www.dropbox.com/scl/fi/jtbvj8cgeiesvc7ldc6pf/.jpg?rlkey=46uq6vk2yf8fkmwdtafn8h5p3&raw=1,홍고린 엘스,ホンゴリン・エルス,孔戈林·埃尔斯,Хонгорын Элс
258,1,Байгалийн үзэсгэлэнт газар,Хэрмэн цав,Khermen Tsav,Өмнөговь,Omnogovi,Гурвантэс,Gurvantes,43.49702,99.81429,"гурвантэс сумын төвөөс баруун хойд зүгт 125 км зайтай орших 10 гаруй км үргэлжилдэг ганга юм. Адаг хэсэгтээ 10 километр өргөн, зарим газартаа 100-200 метр гүн байдаг. Холоос харахад их хотын балгас мэт харагддаг.","It is a ravine that stretches for more than 10 kilometers, located 125 kilometers northwest of the center of the Suruntes soum. It is 10 kilometers wide at its widest point and 100-200 meters deep in some places. From a distance, it looks like the ruins of a large city.",https://www.dropbox.com/scl/fi/ysqs2iin11z0jzt1xaas7/.jpg?rlkey=uxisfqukwgpgeup1vkokhmrfr&raw=1,케르멘 차브,ヘルメン・ツァブ,克尔门察夫,Хермен Цав
259,1,Байгалийн үзэсгэлэнт газар,Эхийн умай хад,The Rock Called the Womb,Өмнөговь,Omnogovi,Ханбогд,Khanbogd,43.03061,107.04205,Ханбогд ууланд орших байгалийн өвөрмөц тогтоц.,A unique natural formation located in Khanbogd Mountain.,https://www.dropbox.com/scl/fi/xzxiu658f4lc8kwvpauy6/.jpg?rlkey=wj888wywcbl0hqqafbtymf0fm&raw=1,자궁이라 불리는 바위,子宮と呼ばれる岩,被称为子宫的磐石,"Скала, называемая утробой"
260,3,Шашны дурсгалт газар,Эрээтийн хийдийн туурь,Ruins of Eret Monastery,Өмнөговь,Omnogovi,Ханбогд,Khanbogd,43.14627,107.12411,Ханбогд ууланд орших эртний сүмийн үлдэгдэл.,Руины древнего храма на горе Ханбогд,,에레트 수도원 유적,エレト修道院の遺跡,埃雷特修道院遗址,Руины монастыря Эрет
261,3,Шашны дурсгалт газар,Цагаан толгойн хийдийн туурь,Ruins of Tsagaan Tolgoi Monastery,Өмнөговь,Omnogovi,Ханбогд,Khanbogd,43.16665,107.15253,Ханбогд ууланд орших эртний сүмийн үлдэгдэл.,Руины древнего храма на горе Ханбогд,,차강 톨고이 수도원 유적,ツァガーン トルゴイ修道院の遺跡,察干陶勒盖修道院遗址,Руины монастыря Цаган Толгой
262,1,Байгалийн үзэсгэлэнт газар,Бага булаг,Baga Bulag,Өмнөговь,Omnogovi,Ханбогд,Khanbogd,43.19258,107.12411,Ханбогд ууланд орших байгалийн өвөрмөц тогтоц.,A unique natural formation located in Khanbogd Mountain.,https://www.dropbox.com/scl/fi/jq31hxvzapvntxem5v1d9/.jpg?rlkey=cjk8hkn5jtg8s84s2ghu6j4vw&raw=1,작은 스프링,小さな春,小弹簧,Бага Булак
263,4,Бусад,Их  гэр,Big Ger,Өмнөговь,Omnogovi,Ханбогд,Khanbogd,43.03692,106.97253,Оюу толгой уурхайгаас зүүн зүгт 11 км зайтай оршино.,It is located 11 km east of the Oyu Tolgoi mine.,https://www.dropbox.com/scl/fi/k5bxbrnj46qraukc99aih/.jpg?rlkey=6cfuznf7825cs98ajqym1y3pf&raw=1,훌륭한 집,素晴らしい家,好房子,Большой юрт
264,2,Түүхийн дурсгалт газар,Алтан-Овоо,Altan-Ovoo,Сүхбаатар ,Sukhbaatar,Дарьганга,Dariganga,45.31187,113.83578,Дарь-Овоо гэж нэрлэх нь ч бий. Дарьгангын галт уулсын нэг бөгөөд далайн төвшнөөс дээш 1354 метр өндөр. Дарьганга сумын төвийн дэргэд орших энэ уул нь Сүхбаатар аймгийн урд хэсгийн 6 суманд амьдардаг Дарьгангачуудын шүтэн биширдэг уул юм. XYII зууны үеэс нутгийнхан тахиж ирсэн бөгөөд 1913 оноос Богд хааны зарлигаар тахиж ирсэн.,"It is also called Dar-Ovoo. It is one of the volcanoes of Darganga and is 1354 meters above sea level. Located near the center of Darganga soum, this mountain is a mountain worshiped by the Darganga people living in 6 soums in the southern part of Sukhbaatar aimag. Locals have worshiped it since the XYII century, and since 1913, it has been worshipped by the decree of Bogd Khan.",https://www.dropbox.com/scl/fi/pxys1gtupx6ln0u8j8apn/.jpg?rlkey=2s1ly4w5vbkqxltyhnprwjptb&raw=1,알탄오부,アルタン・オヴォー,阿勒坦敖包,Алтан-Овоо
265,2,Түүхийн дурсгалт газар,Бичигт шахаа,Bichigt Shakhaa,Сүхбаатар ,Sukhbaatar,Дарьганга,Dariganga,45.57238,114.23953,"Дарьганга сумын төвөөс зүүн хойд зүгт 50 орчим км зайтай 40-өөд метр өндөр, 1 километр урт хадан хясаа байна. ","About 50 kilometers northeast of the center of Dariganga soum, there is a cliff about 40 meters high and 1 kilometer long.",https://www.dropbox.com/scl/fi/p25y63kt5lk9hldz5krvt/.jpg?rlkey=2eni3shc10ei4i12gn9xk777q&raw=1,비칙트 샤하,ビチグト・シャカ,比奇特·沙哈,Бичигт Шахаа
266,1,Байгалийн үзэсгэлэнт газар,Ганга нуур,Ganga Lake,Сүхбаатар ,Sukhbaatar,Дарьганга,Dariganga,45.268,113.984,Дарьганга сумын төвөөс зүүн урагш 12км зайтай далайн түвшнээс дээш 1294 метр өндөрт оршино. Цэнгэг уст Ганга нуурыг 21 булаг тэтгэн тэжээдэг байна.,"It is located 12 km southeast of the center of Dariganga soum at an altitude of 1,294 meters above sea level. The freshwater Ganga Lake is fed by 21 springs.",https://www.dropbox.com/scl/fi/68iw2k3uacqfhapzg6u6k/.jpg?rlkey=6h2r81c9nutj4nvh3spevjcax&raw=1,강가 호수,ガンガ湖,恒河湖,Озеро Ганга
267,1,Байгалийн үзэсгэлэнт газар,Дуут нуур,Duut Lake,Сүхбаатар ,Sukhbaatar,Дарьганга,Dariganga,45.30493,113.81081,Дарьганга сумын төвөөс 2 км зайтай оршино.,It is located 2 km from the center of Dariganga soum.,,두트 호수,ダウト湖,杜特湖,Озеро Дуут
268,1,Байгалийн үзэсгэлэнт газар,Зотол хан уул,Zotol Khan Mountain,Сүхбаатар ,Sukhbaatar,Эрдэнэцагаан,Erdenetsagaan,45.82146,114.75256,Эрдэнэцагаан сумын төвөөс баруун урд зүгт 49 км зайтай оршино. ,It is located 49 km southwest of the center of Erdenetsagaan soum.,https://www.dropbox.com/scl/fi/kx3wffi04lng3740c0c9l/.jpg?rlkey=2hiw5nh5il0038f3rdd8c46xk&raw=1,조톨 칸 산,ゾトル・カーン山,佐托尔汗山,Гора Зотол Хан
269,2,Түүхийн дурсгалт газар,Ламтын хүн чулуу,Lamtyn Khun Chuluu,Сүхбаатар ,Sukhbaatar,Дарьганга,Dariganga,45.3306,114.44535,Дарьганга сумын төвөөс зүүн хойд зүгт 45 км зайтай Ламт уулын баруун хормойд 3 хүн чулуу байдаг.Эдгээрийг шаргал өнгийн элсэн чулуугаар уран гоёмсог сийлж хийсэн ба бүгд түшлэгтэй исэр сандалд сууж байгаа дүртэй.,"There are three human stones on the western slope of Lamt Mountain, 45 km northeast of the center of Dariganga soum. They are beautifully carved from yellow sandstone, and all depict people sitting on armchairs.",https://www.dropbox.com/scl/fi/73pl3ftzmdu3faww4way8/.jpeg?rlkey=z133rz8pu7ahk4dmtf0w2ly8f&raw=1,람틴 쿤 출루우,ラムティン・クン・チュルー,拉姆廷·昆楚鲁,Ламтын Хун Чулуу
270,1,Байгалийн үзэсгэлэнт газар,Талын агуй,Talyn Cave,Сүхбаатар ,Sukhbaatar,Дарьганга,Dariganga,45.48459,114.4858,"Шилийн богд уулаас баруун хойш 14 километрт оршино. Тэгшхэн талын уудам хөндийд тогтсон гурван тусдаа тасалгаатай агуй юм. Монгол орны агуйнуудаас хамгийн том төдийгүй хамгийн үзэсгэлэнтэй нь юм. Агуйн амаар босоо хүн багтахгүй учир бөхийж орно. Дөнгөж ормогц бараг эгц доошилдог. Агуйн нийт урт нь 240 метр, нийт багтаамж нь 10 мянган шоо метрээс илүү ажээ.","Shiliin Bogd is located 14 kilometers northwest of the mountain. It is a cave with three separate chambers located in a wide valley on a flat side. It is not only the largest but also the most beautiful of the caves in Mongolia. Since the mouth of the cave cannot fit a standing person, one has to bend down to enter. Once inside, it descends almost straight down. The total length of the cave is 240 meters, and the total capacity is more than 10 thousand cubic meters.",https://www.dropbox.com/scl/fi/mjpz6nzko24p0gv6m33px/.jpg?rlkey=nyt8hcm1ewklepu99dm3gz5bd&raw=1,탈린 동굴,タリン洞窟,塔林洞穴,Талинская пещера
271,2,Түүхийн дурсгалт газар,Торой бандийн хөшөө,Toroi Bandi Statue,Сүхбаатар ,Sukhbaatar,Дарьганга,Dariganga,45.28888,114.07431,Торой бандийн хөшөө Гангын цагаан овоон дээр Дарьганга сумын төвөөс зүүн зүгт 18 км зайтай байна. ,"The statue of Toroi Bandi is located on the Gangyin Tsagaan Ovoon, 18 km east of the center of Dariganga soum.",https://www.dropbox.com/scl/fi/022xjxb1nesahdxi8b7vl/.jpg?rlkey=gxauw6ocaxnx3nbyzgy3s79xc&raw=1,토로이 반디 동상,トロイ バンディ像,托罗伊·班迪雕像,Статуя Торои Банди
272,2,Түүхийн дурсгалт газар,Хөргийн хөндийн хүн чулуу,Khurgiin Khundii Khun Chuluu,Сүхбаатар ,Sukhbaatar,Дарьганга,Dariganga,45.55271,114.23294,Бичигтийн шахааны баруун доогуур урдаасаа хойш чиглэсэн их хөндийг “Хөргийн хөндий” гэдэг. Энд долоон хүн чулуу бий.,"The large valley running from south to north, below the Bichigt Shahaan, is called ""Khergiin Valley."" There are seven human stones here.",https://www.dropbox.com/scl/fi/agqjrc4lu4n6gputnpuuf/.jpg?rlkey=5e6uq2uahpyui12xojfnnaci4&raw=1,Khurgiin Khundii Khun Chuluu,クルギン・クンディ・クン・チュルー,库尔金·昆迪·昆楚鲁,Хургиин Хундии Хун Чулуу
273,1,Байгалийн үзэсгэлэнт газар,Шилийн богд уул,Shiliin Bogd Mountain,Сүхбаатар ,Sukhbaatar,Дарьганга,Dariganga,45.47241,114.58912,Дарьганга сумын төвөөс зүүн хойд зүгт 65 км зайтай оршино,It is located 65 km northeast of the center of Dariganga soum.,https://www.dropbox.com/scl/fi/zm6yyjbq7y83mnttl6jis/.avif?rlkey=8q530udmh9otrv23zjovt128b&raw=1,스리인복드산,シリイン・ボグド山,石林博格达山,Гора Шилиин Богд
274,1,Байгалийн үзэсгэлэнт газар,Алгана нуур,Algana Nuur,Сэлэнгэ ,Selenge,Алтанбулаг,Altanbulag,50.28384,106.13694,Аймгийн төв Сүхбаатар хотоос баруун хойд зүгт  3.7 км зайтай оршино.,The provincial center is located 3.7 km northwest of Sukhbaatar city.,,알가나 누르,アルガナ ヌール,阿尔加纳努尔,Алгана Нуур
275,2,Түүхийн дурсгалт газар,Алтанбулаг хувьсгалын өлгий,Altanbulag ,Сэлэнгэ ,Selenge,Алтанбулаг,Altanbulag,50.31665,106.49417,"Монгол, Орос, Хятад гурван улсын гэрээг 1918 онд баталж байсан. Ардын журамт цэргийн Түр засгийн газрын байшин, Хувьсгалын музей, Сүхбаатар жанжны журамт цэргийн штаб, банкны анхны байшин, Консулын байр, Шүүхийн анхны байр, Дөрвөлжин сүм зэрэг түүхийн олон дурсгалт байшин байгууламжууд байдаг.","The treaty between Mongolia, Russia, and China was ratified in 1918. There are many historical monuments, including the People's Revolutionary Army Provisional Government Building, the Revolutionary Museum, General Sukhbaatar's Revolutionary Army Headquarters, the first bank building, the Consulate Building, the first Court Building, and the Square Mosque.",https://www.dropbox.com/scl/fi/7ws4utb6miaexasw1pss6/.jpg?rlkey=s4b947rlkv21v1p3z566suylq&raw=1,알탄불라그,アルタンブラグ,阿勒坦布拉格,Алтанбулаг
276,3,Шашны дурсгалт газар,Амарбаясгалант хийд,Amarbayasgalant Monastery,Сэлэнгэ ,Selenge,Баруунбүрэн,Baruunburen,49.48013,105.08523,Бүрэнхаан уулын өвөрт Ивэн голын зүүн биед Баруунбүрэн сумын төвөөс зүүн хойд зүгт 49 км зайтай оршино. Монголын анхдугаар Богд Г.Занабазарm зориулсан хийдийг бариулахаар 1725 онд Манжийн эзэн хаан Энх-Амгалан зарлиг гаргаж улсын сангаас 10 түмэн лан мөнгө гаргажээ. 1726 онд Монголын олон уран дархчуул барилгын ажлыг эхлүүлж тоосго модоор барьж 1737 онд дуусгажээ.,"It is located 49 km northeast of the center of Baruunburen soum, on the left bank of the Iven River, in the foothills of the Burenkhan Mountain. In 1725, the Manchu emperor Enkh-Amgalan issued a decree to build a monastery dedicated to the first Bogd of Mongolia, G. Zanabazar, and allocated 10 thousand lacs of money from the state treasury. In 1726, many Mongolian craftsmen began construction work, building it with bricks and wood, and it was completed in 1737.",https://www.dropbox.com/scl/fi/r1nzu1k57853ols3bej6c/Amarbayasgalant.jpg.jpg?rlkey=eai1allyp5ose84ec5vl1th1v&raw=1,아마르바야스갈란트 수도원,アマルバヤスガラント修道院,阿玛尔巴亚斯加兰特修道院,Монастырь Амарбаясгалант
277,1,Байгалийн үзэсгэлэнт газар,Ишгэнт нуур,Ishgent Lake,Сэлэнгэ ,Selenge,Хушаат,Khushaat,49.62078,105.7612,Хушаат сумын төвөөс баруун өмнө зүгт 7 км зайтай Хутаг өндөр уулын зүүн өмнө  бэлд байна. ,"It is located on the southeastern slope of the Khutagh mountain, 7 km southwest of the center of Khushaat soum.",https://www.dropbox.com/scl/fi/6mroe2k9z68sui6o1dhfz/.jpg?rlkey=688wiot3hr6qc9yyyhbu3j5kr&raw=1,이슈겐트 호수,イシュゲント湖,伊什根特湖,Озеро Ишгент
278,1,Байгалийн үзэсгэлэнт газар,Орхон Сэлэнгийн бэлчир,Orkhon Selengiin Belchir,Сэлэнгэ ,Selenge,Сүхбаатар,Sukhbaatar,50.25357,106.1389,Сэлэнгэ аймгийн төв Сүхбаатар хотын баруун талд байна.,The center of Selenge aimag is located to the west of Sukhbaatar city.,https://www.dropbox.com/scl/fi/3ln773ggoafaky4je6tet/.jpg?rlkey=gtuzobvlyfyxm0qobndsohl8c&raw=1,오르콘 셀렝기인 벨치르,オルホン セレンギン ベルチル,鄂尔浑色楞席贝尔其,Орхон Селенгиин Белчир
279,1,Байгалийн үзэсгэлэнт газар,Сайханы хөтөл,Saikhany Khutul,Сэлэнгэ ,Selenge,Алтанбулаг,Altanbulag,50.30676,106.15252,Аймгийн төв Сүхбаатар хотоос 6 км зайтай оршино. ,It is located 6 km north of the provincial capital Sukhbaatar city.,https://www.dropbox.com/scl/fi/fffnz3mipclbiewu73gyi/.jpg?rlkey=p1ptgkyzzmz8cdry6zyc34tx0&raw=1,사이카니 쿠툴,サイハニー・クトゥル,赛罕尼呼图尔,Сайханы Хутул
280,1,Байгалийн үзэсгэлэнт газар,Төхмийн гүн нуур,Tukhmiin Gun Lake,Сэлэнгэ ,Selenge,Алтанбулаг,Altanbulag,50.262,106.61751,Алтанбулаг сумын төвөөс 10 км зайтай оршино. Далайн түвшнээс дээш 639 метр өндөрт байна.,It is located 10 km from the center of Altanbulag soum. It is 639 meters above sea level.,https://www.dropbox.com/scl/fi/36pox9vqmxxukkv2z9ps7/.jpg?rlkey=voezihp4p08fdf2jbnj54766w&raw=1,투크미인 군 호수,トゥクミン ガン湖,图赫敏贡湖,Озеро Тухмиин-Гун
281,1,Байгалийн үзэсгэлэнт газар,Тужийн нарс,Tujiin Nars,Сэлэнгэ ,Selenge,Алтанбулаг,Altanbulag,50.11,106.545,Алтанбулаг сумын төвөөс 25 км зайтай оршино.  65548.56 га талбайтай Төрийн тусгай хамгаалалт бүхий байгалийн цогцолборт газар. Далайн түвшнээс дээш 620 гаруй метрийн өндөрт орших хамгийн нам дор газрын нэг юм.,"It is located 25 km from the center of Altanbulag soum. It is a state-protected natural park with an area of ​​65,548.56 hectares. It is one of the lowest places in the country, at an altitude of more than 620 meters above sea level.",https://www.dropbox.com/scl/fi/laecpvb5m7y89m1zdoidj/.jpg?rlkey=usdvt7yx1i5gmp3te2i4y6n2h&raw=1,투지인 나스,トゥジン・ナールス,图金纳尔斯,Туджиин Нарс
282,1,Байгалийн үзэсгэлэнт газар,Ханын хөндий,Khanyn Khundii,Сэлэнгэ ,Selenge,Алтанбулаг,Altanbulag,50.29586,106.20477,Аймгийн төв Сүхбаатар хотоос хойд зүгт 6 км зайтай оршино.,The provincial center is located 6 km north of Sukhbaatar city.,,카닌 쿤디,カニン・クンディ,卡宁昆迪,Ханын Хундии
283,2,Түүхийн дурсгалт газар,Хүслийн ээж мод,Khusliin Eej Mod,Сэлэнгэ ,Selenge,Шаамар,Shaamar,50.15353,106.20057,Шаамар сумын төвөөс хойд зүгт 9 км зайтай оршино.,It is located 9 km north of the center of Shaamar soum.,https://www.dropbox.com/scl/fi/7pxkkj7qf53f4dpw1s5ld/.jpg?rlkey=jjljyffjx6sbzcnqfe3gtow3v&raw=1,Khusliin Eej Mod,フスリン・イージ・モッド,库斯林·埃杰·莫德,Хуслин Идж Мод
284,1,Байгалийн үзэсгэлэнт газар,Цагаан нуур,Tsagaan Lake,Сэлэнгэ ,Selenge,Цагааннуур,Tagaannuur,49.96229,105.35729,Цагааннуур сумын төвөөс баруун өмнө зүгт 15 км зайтай оршино.,It is located 15 km southwest of the center of Tsagaannuur soum.,,차강 호수,ツァガーン湖,查干湖,Озеро Цаган
285,2,Байгалийн үзэсгэлэнт газар,Товхон хан уул,Tovkhonkhan Mountain,Сэлэнгэ ,Selenge,Цагааннуур,Tagaannuur,49.94754,105.03382,Цагааннуур сумын төвөөс баруун өмнө зүгт 36 км зайтай оршино.,It is located 36 km southwest of the center of Tsagaannuur soum.,,토브혼칸 산,トヴコンハン山,托夫洪汗山,Гора Товхон Хан
286,3,Шашны дурсгалт газар,Номун хааны хүрээний туурь,Ruins of Nomun Khan Monastery,Сэлэнгэ ,Selenge,Цагааннуур,Tagaannuur,49.91285,105.12606,Цагааннуур сумын төвөөс баруун өмнө зүгт 30 км зайтай оршино.,It is located 30 km southwest of the center of Tsagaannuur soum.,,노문 칸 수도원 유적,ノムン・ハーン修道院の遺跡,诺蒙汗寺遗址,Руины монастыря Номун Хан
287,1,Байгалийн үзэсгэлэнт газар,Соронзон хад,Magnetic Rock,Сэлэнгэ ,Selenge,Хүдэр,Khuder,49.68754,107.24317,Хүдэр сумын төвөөс баруун өмнө зүгт 107 км зайтай оршино.,It is located 107 km southwest of the center of Khuder soum.,https://www.dropbox.com/scl/fi/vi7u7gc7tlemz2orjkv4y/.jpg?rlkey=o16l376dw3ftqco9vqyk9fx3y&raw=1,자성 암석,磁性岩石,磁性岩石,Магнитная порода
288,1,Байгалийн үзэсгэлэнт газар,Ерөөгийн халуун рашаан,Yeroo Hot Springs,Сэлэнгэ ,Selenge,Ерөө,Eruu,49.01856,107.54415,Улаанбаатар хотоос зүүн хойд зүгт 300 км зайтай оршино. ,It is located 300 km northwest of the Ulaanbaatar city.,https://www.dropbox.com/scl/fi/9c7muwuhwv2pkx4rnb76s/1.jpg?rlkey=x9hb1lw21yhioo6wf0q367ikn&raw=1,여루 온천,イェルー温泉,耶鲁温泉,Горячие источники Йероо
289,3,Шашны дурсгалт газар,Аглаг бүтээлийн хийд,Aglag Buteel Monastery,Төв,Tuv,Борнуур,Bornuur,48.45009,106.12307,"УБ хотоос баруун хойш 99 км,  Борнуур сумын Нарт багийн “Далын ам” хэмээх газарт оршдог. Тус ам байгаа уулыг Гарьд хэмээнэ.Үндэслэн байгуулагч нь ард олноо “бурханч лам” хэмээн алдаршсан Г.Пүрэвбат бөгөөд энэхүү сүмийг “Өлзийг бадруулагч хийд орон” болно хэмээсэн байдаг.","It is located 99 km northwest of UB city, in the Nart Bag of Bornuur soum, in a place called “Dalyn am”. The mountain where the mouth is located is called Gard. The founder was G. Purevbat, who was popularly known as “Burkhanch Lama”, and this temple was said to be “a monastery that will bring forth the harvest”.",https://www.dropbox.com/scl/fi/di4riwayihszdfjfdohlv/Aglag.jpg?rlkey=1nyje82qyf3suhsy7ax00uezi&raw=1,아글라그 부틸 수도원,アグラッグ ブティール修道院,阿格拉布提尔修道院,Монастырь Аглаг Бутил
290,1,Байгалийн үзэсгэлэнт газар,Алтан-Өлгий хайрхан,Altan-Ulgii Khairkhan Mountain,Төв,Tuv,Эрдэнэ,Erdene,48.30995,107.66524,Далайн түвшнээс дээш 2655 метр өндөр өргөгдсөн Алтан-Өлгий уул нь Хэнтийн нурууны өндөр оргилын нэг юм. Улаанбаатар хотоос зүүн хойд зүгт 75 км зайтай оршино.,"Altan-Ulgii Mountain, rising 2,655 meters above sea level, is one of the highest peaks in the Khentii Mountains. It is located 75 km northeast of Ulaanbaatar.",https://www.dropbox.com/scl/fi/idhgth9dz6wxhmlgx5lk7/.jpg?rlkey=mo03inhci661nnblpl1a4mrda&raw=1,알탄-울기 카이르칸 산,アルタン・ウルギー・ハイルカン山,阿尔坦-乌尔盖凯尔汗山,Гора Алтан-Улгий Хайрхан
291,1,Байгалийн үзэсгэлэнт газар,Асралт хайрхан,Asralt Khairkhan Mountain,Төв,Tuv,Эрдэнэ,Erdene,48.46565,107.41264,Далайн түвшнээс дээш 2799 метр өндөр өргөгдсөн Асралт хайрхан уул нь Хэнтийн нурууны ноён оргил юм. Улаанбаатар хотоос хойд зүгт 80 орчим км зайтай оршино.,"Asralt Khairkhan Mountain, rising 2,799 meters above sea level, is the highest peak in the Khentii Mountains. It is located about 80 kilometers north of Ulaanbaatar.",https://www.dropbox.com/scl/fi/fhnxrj2xlkl1nzrwklh9m/.jpg?rlkey=qne5kks98mhp8dn44d9t1qrg6&raw=1,아스랄트 카이르칸 산,アスラルト・ハイルカン山,阿斯拉尔特凯尔汗山,Гора Асралт Хайрхан
292,1,Байгалийн үзэсгэлэнт газар,Бөөрөлжүүт нуур,Buuruljuut Lake,Төв,Tuv,Архуст,Arhust,47.36685,108.06938,Архуст сумын төвөөс зүүн өмнө зүгт 25 км зайтай оршино.,It is located 25 km southeast of the center of Arkhust soum.,,부룰류트 호수,ブウルルジュト湖,布鲁尤特湖,Озеро Буурулюут
293,3,Шашны дурсгалт газар,Гүнжийн сүм,Gunjiin Sum,Төв,Tuv,Эрдэнэ,Erdene,48.183609,107.555606,Тэрэлжээс хойд зүгт 40 орчим км зайтай оршино.,It is located about 40 km north of Terelj.,https://www.dropbox.com/scl/fi/7f78pwb5basftcpxjvdde/Gunjiinsum.jpg?rlkey=aefzpv92nqzl0ym05adw9mv6s&raw=1,군지인숨,郡司院和,群智院心,Гунджин Сумма
294,1,Байгалийн үзэсгэлэнт газар,Дугана хад,Dugana Khad Rock ,Төв,Tuv,Борнуур,Bornuur,48.48093,106.0682,Борнуур сумын төвөөс баруун зүгт 14 км зайтай оршино.,It is located 14 km west of the center of Bornuur soum.,https://www.dropbox.com/scl/fi/1vk0dkiqpxztkp05ywjxf/.jpg?rlkey=ue3mtesd1820umfz2c7zcrz1d&raw=1,두가나 카드 록,ドゥガナ カド ロック,杜加纳·卡德·洛克,Дугана Хад Рок
295,1,Байгалийн үзэсгэлэнт газар,Мандал толгой,Mandal Mountain,Төв,Tuv,Батсүмбэр,Batsumber,48.39306,106.77928,Батсүмбэр сумын төвөөс зүүн хойд зүгт 3.5 км зайтай оршино.,It is located 3.5 km northeast of the center of batsumber soum.,https://www.dropbox.com/scl/fi/3s0smto2wx1usxb80f7g1/.jpg?rlkey=anr6w5w81afdvt23vwa50tqpw&raw=1,만달산,マンダル山,曼达尔山,Гора Мандал
296,1,Байгалийн үзэсгэлэнт газар,Өлзийт нуур,Ulziit Lake,Төв,Tuv,Баянцагаан,Bayantsagaan,46.96962,106.8806,Баянцагаан сумын төвөөс баруун хойд зүгт 34 км зайтай оршино.,It is located 34 km northwest of the center of Bayantsagaan soum.,https://www.dropbox.com/scl/fi/fk8rpmwnn0x4af7gnu57a/.jpg?rlkey=wykjevovbzq0xzpkciuglqyoo&raw=1,울지트 호수,ウルジート湖,乌尔济特湖,Озеро Ульзиит
297,1,Байгалийн үзэсгэлэнт газар,Сөгнөгөр авирах хад,Sognogor Climbing Rock ,Төв,Ulaanbaatar,Батсүмбэр,Batsumber,48.33602,106.88696,Батсүмбэр сумын төвөөс зүүн өмнө  зүгт 13 км зайтай оршино.,It is located 13 km southeast of the center of batsumber soum.,https://www.dropbox.com/scl/fi/upep4qay56bgxxl88glh5/.jpg?rlkey=c1st8kzo5zs160z2uycbcpt4l&raw=1,소뇨고르 클라이밍 록,ソニョゴール クライミング ロック,索格格攀岩,Восхождение на скалу Соногор
298,1,Байгалийн үзэсгэлэнт газар,Сөгнөгөр Хүрхрээ голын бэлчир,Sugnugur Khurkhree Golyn Belchir,Төв,Tuv,Батсүмбэр,Batsumber,48.46943,107.12176,Батсүмбэр сумын төвөөс зүүн хойд зүгт 32 км зайтай оршино.,It is located 32 km northeast of the center of Batsumber soum.,,수그누구르 쿠르크리 골린 벨치르,スグヌグル・クルクリ・ゴリン・ベルチル,苏格努古尔·库克里·戈林·贝尔奇尔,Сугнугур Хурхри Голын Белчир
299,2,Түүхийн дурсгалт газар,Тоньюкукийн хөшөө,Tonyukuk  Statue,Төв,Tuv,Эрдэнэ,Erdene,47.69464,107.47589,"Эртний Түрэгийн хаант улсын гурван хааны зөвлөх байсан мэргэн сайд Тоньюкукт зориулан босгосон нэгэн дурсгал юм. Гэрэлт хөшөө нь 62 мөр бичээстэй бөгөөд тухайн үеийн Түрэгийн нийгмийн байдлыг Тоньюкукийн намтартай холбогдуулан бичсэн агуулгатай юм. Энэхүү цогцолборт хүн чулуу, гэрэлт хөшөө, тахилын чулуун байгууламж, амьтны дүрст хөшөө чулуу зэрэг олон дурсгалууд багтана. ","It is a monument dedicated to the wise minister Tonyukuk, who was an advisor to three kings of the ancient Turkic empire. The illuminated monument has 62 lines of inscriptions and describes the social situation of the Turkic people at that time in connection with Tonyukuk's biography. The complex includes many monuments such as human stones, illuminated statues, sacrificial stone structures, and animal statues.",https://www.dropbox.com/scl/fi/jg2u5ma6d6z1hml5v0lvw/.jpg?rlkey=uy4r8ojwesoha5y8i18847vlr&raw=1,토니국 동상,トニュクク像,托尼库克雕像,Статуя Тонюкука
300,1,Байгалийн үзэсгэлэнт газар,Төхөмийн нуур,Tukhum Lake,Төв,Tuv,Бүрэн,Buren,46.908,104.989,Төхөмийн нуурын зүүн эрэгт Бүрэн сумын төв оршино.,The center of Buren soum is located on the eastern shore of Lake Tokhomi.,,투쿰 호수,トゥクム湖,图胡姆湖,Озеро Тухум
301,1,Байгалийн үзэсгэлэнт газар,Хагийн хар нуур,Khagiin Khar Lake,Төв,Tuv,Эрдэнэ,Erdene,48.41246,107.91334,Улаанбаатар хотын Налайх дүүргээс зүүн хойд зүгт 118 км зайтай оршино.,"It is located 118 km northeast of Nalaikh District, Ulaanbaatar City.",https://www.dropbox.com/scl/fi/ypa82x9fz0ydxu1y4nyh1/.jpg?rlkey=3z620pp39cq7wj0xko7mu3ujg&raw=1,카긴 카르 호수,カギン・カール湖,卡吉因卡尔湖,Озеро Хагиин Хар
302,1,Байгалийн үзэсгэлэнт газар,Хустайн нуруу,Khustain Nuruu,Төв,Tuv,Алтанбулаг,Altanbulag,47.658,105.893,Алтанбулаг сумын төвөөс баруун зүгт 46 км зайтай оршино.,It is located 46 km west of the center of Altanbulag soum.,https://www.dropbox.com/scl/fi/xetl9y693495yh2a2q7r6/Khustai.jpg?rlkey=892lqz0z1irodl4spq15lz4eq&raw=1,쿠스테인 누루,クステイン・ヌルー,库斯坦·努鲁,Хустейн Нуруу
303,1,Байгалийн үзэсгэлэнт газар,Хустайн урд даваа,Khustain Urd Davaa,Төв,Tuv,Алтанбулаг,Altanbulag,47.677,105.875,Алтанбулаг сумын төвөөс баруун зүгт 60 км зайтай оршино.,It is located 60 km west of the center of Altanbulag soum.,,쿠스테인 우르드 다바,クスティン・ウルド・ダヴァー,库斯坦·乌尔德·达瓦,Хустейн Урд Даваа
304,2,Түүхийн дурсгалт газар,Цогтын хадны бичиг,Tsogtyn Khadny Bichig,Төв,Tuv,Дэлгэрхаан,Delgerkhaan,46.42382,104.69318,Дэлгэрхаан сумын төвөөс зүүн өмнө зүгт 26 км зайтай оршино.,It is located 26 km southeast of the center of Delgerkhaan soum.,https://www.dropbox.com/scl/fi/vl409p8zqccytwk9zqpqx/.jpg?rlkey=tn7k60zpysj2bsjdb2flgyyl9&raw=1,措格廷·卡德尼·比奇格,ツォグティン・カドニー・ビチグ,措金·哈德尼·比其格,Цогтын Хадны Бичиг
305,2,Түүхийн дурсгалт газар,Ээж хад,Eej Rock,Төв,Tuv,Сэргэлэн,Sergelen,47.31241,106.97718,Сэргэлэ сумын төвөөс өмнө зүгт 42 км зайтай оршино.,It is located 42 km south of the center of Sergele soum.,https://www.dropbox.com/scl/fi/zjr9nz2e45n6tnebjf9x4/.jpg?rlkey=xfhlyfvoizp346j7sy9blbxsp&raw=1,에이지락,イージ・ロック,伊吉摇滚,Идж Рок
306,1,Байгалийн үзэсгэлэнт газар,Заан тэрэлжийн бэлчир,Zaan Tereljiin Belchir,Төв ,Tuv,Эрдэнэ,Erdene,48.18067,107.26353,Төв аймгийн Эрдэнэ сумын нутагт Заан гол Тэрэлжийн голд цутгах хэсэг юм.,"The Zaan River flows into the Terelj River in Erdene soum, Tuv aimag.",,잔 테렐지인 벨치르,ザーン・テレルジン・ベルチル,扎安·特雷尔金·贝尔奇尔,Заан Терелджиин Белчир
307,1,Байгалийн үзэсгэлэнт газар,Зоргол хайрхан уул,Zorgol Khairkhan Mountain,Төв ,Tuv,Баян-Өнжүүл,Bayan-Onjuul,46.92353,105.87782,"Улаанбаатараас 145 километр, Дундговь аймгийн Эрдэнэдалай сумын төвөөс 138 километр зайтай. Зүүн талаас нь харахад дээрээ угалзтай  юм шиг, урд талаас нь харахад суварга юм шиг харагддаг. Цул боржин чулуун хайрхан бөгөөд далайн төвшнөөс дээш 1668 метр өндөр. Хайрханы бараа харагдах газраас нэрийг нь хэлдэггүй. Эмэгтэй хүн оройд нь гардаггүй. Хайрханы баруун суган доор рашаан булаг урсдаг. Хайрханы урд талд яг ширээ шиг хэлбэртэй хад байгаа. Хажууд нь нэг ургаа мод байдаг бөгөөд сүүдрэвчийн үүрэг гүйцэтгэж өгдөг.","It is 145 kilometers from Ulaanbaatar and 138 kilometers from the center of Erdenedalai soum, Dundgovi aimag. When viewed from the east, it looks like a spire, and when viewed from the south, it looks like a stupa. It is a monolithic granite khairkhan and is 1668 meters above sea level. The name of Khairkhan is not known from where it is visible. Women do not climb to its top. A spring flows under the right arm of Khairkhan. In front of Khairkhan is a rock shaped like a table. There is a single tree next to it, which acts as a shade tree.",https://www.dropbox.com/scl/fi/4wa4l0wmqcjjqzywl68v3/.jpg?rlkey=i4f9lhtxa64ktfs9gomfvpwxz&raw=1,조르골 카이르칸 산,ゾルゴル・ハイルハン山,佐戈尔凯尔汗山,Гора Зоргол Хайрхан
308,1,Байгалийн үзэсгэлэнт газар,Агар тагийн агуй,Agar Tag Cave,Увс,Uvs,Өндөрхангай,Undurkhangai,49.20080111,94.91531,Өлгий сумын төвөөс зүүн өмнө зүгт 12 км зайтай оршино.,It is located 12 km southeast of the center of Ulgii soum.,,한천 태그 동굴,寒天タグの洞窟,琼脂标签洞,Пещера Агар-Таг
309,1,Байгалийн үзэсгэлэнт газар,Айраг нуур,Airag Lake,Увс,Uvs,Завхан,Zavkhan,48.86504,93.43389,"Их нууруудын хотгорт орших цэнгэг уст, далайн түвшингээс 1030 м өндөрт байдаг нуур. Хяргас нуураас 5 км зайд нэг сав газарт багтдаг.","A freshwater lake located in the Great Lakes Basin, 1030 m above sea level. It is located 5 km from Lake Khyargas in the same basin.",https://www.dropbox.com/scl/fi/bzuulk0pdiug9s6y8gdsh/.jpg?rlkey=3qlz8kuezthx1ze9o3y5c50um&raw=1,아이락 호수,アイラグ湖,艾拉格湖,Озеро Айраг
310,1,Байгалийн үзэсгэлэнт газар,Алтан элс,Altan Sand,Увс,Uvs,Баруунтуруун,Baruunturuun,49.87059,94.98859,"Увс нуурын хотгорын зүүн хэсэгт орших Бөөрөг дэл элсний зүүн хэсэгт Баруунтуруун сумын нутагт Алтан элс оршдог. Элсний нийт талбай нь 177.5 мянган га. Элсэн доороос эх аван урсдаг цэнгэг устай гол горхи, булаг шанд, баян бүрдүүд болон элсний нүүлт зэрэг гадны нөлөөнд автахгүйгээр орших элсэн манхан юм.","In the eastern part of the Uvs Nuur depression, in the eastern part of the Būrūg del els, in the territory of Baruunturuun soum, lies Altan els. The total area of ​​the sand is 177.5 thousand hectares. It is a sand dune that is not subject to external influences such as freshwater streams, springs, oasis, and sand drifts that originate from the sand.",https://www.dropbox.com/scl/fi/qiwihkh1dfghiq5vpb8s7/.jpg?rlkey=v38zlk5cpmd1ab4bxjupcmrvy&raw=1,알탄샌드,アルタンサンド,阿尔坦沙,Алтан Сэнд
311,1,Байгалийн үзэсгэлэнт газар,Ачит нуур,Achit Lake,Увс,Uvs,Бөхмөрөн,Bukhmorun,49.50957,90.55178,Бөхмөрөн сумын төвөөс зүүн өмнө зүгт 25 зайтай оршино.,It is located 25 kilometers southeast of the center of Bukhmorun soum.,https://www.dropbox.com/scl/fi/o8tissngxcx9jrspuad9z/.jpg?rlkey=d95imcmcjc4empx15cnizjtrj&raw=1,아킷 호수,アシット湖,阿吉特湖,Озеро Ачит
312,1,Байгалийн үзэсгэлэнт газар,Баян нуур,Bayan Lake,Увс,Uvs,Зүүнговь,Zuungovi,49.98684,93.98453,Зүүнговь сумын төвөөс зүүн хойд зүгт 10 км зайтай оршино.,It is located 10 km northeast of the center of Zuungobi soum.,,바얀 호수,バヤン湖,巴彦湖,Озеро Баян
313,1,Байгалийн үзэсгэлэнт газар,Гоожуурын хүрхрээ,Goojuur Waterfall,Увс,Uvs,Ховд,Khovd,49.44064,91.25133,Хархираа Түргэний уулсын баруун урд орших Олон нуурын уулсад оршино. Шивэрийн голын зүүн цутгал Гоожуурын голд 17 метр өндрөөс унадаг. Нутгийнхан Хүрэн Ханангийн хүрхрээ гэж нэрлэдэг.,"Kharkhiraa is located in the Olon Nuur Mountains, southwest of the Turgen Mountains. The left tributary of the Shiveri River falls from a height of 17 meters into the Goojuur River. Locals call it the Khuren Khanan Waterfall.",https://www.dropbox.com/scl/fi/xp30jbja2yulamff9bsys/.jpg?rlkey=shidd6dlfq6wtz4kvy8mwq6qe&raw=1,구주르 폭포,グジュール滝,古朱尔瀑布,Водопад Годжуур
314,1,Байгалийн үзэсгэлэнт газар,Дуут нуур,Duut Lake,Увс,Uvs,Бөхмөрөн,Bukhmorun,50.10712,90.16857,Бөхмөрөн сумын төвөөс хойд зүгт 58 км  зайтай улсын хил дээр оршино.,"It is located 58 km north of the center of Bukhmorun soum, on the state border.",https://www.dropbox.com/scl/fi/f1dul704joa6qshjfn9nf/.jpeg?rlkey=o7r62ot6j0n0ng6pq5xfgzyam&raw=1,두트 호수,ダウト湖,杜特湖,Озеро Дуут
315,1,Байгалийн үзэсгэлэнт газар,Өлгий нуур,Ulgii Lake,Увс,Uvs,Өлгий,Olgii,48.90957,92.0906,Өлгий сумын төвөөс өмнө зүгт 13.5 км зайтай оршино.,It is located 13.5 km south of the center of Ulgii soum.,,울기 호수,ウルギー湖,乌尔盖湖,Озеро Улгий
316,1,Байгалийн үзэсгэлэнт газар,Түргэний уул,Turgen Mountain,Увс,Uvs,Тариалан,Tarialan,49.691,91.4,"Үүрэг нуур нь Алтайн нурууны салбар Цагаан шувуут уул, Түргэний уулсын хооронд, Их нууруудын хотгорын баруун хойд хэсэгт оршдог.","Lake Urekh is located in the northwest of the Great Lakes Basin, between the Tsagaan Puyut Mountains and the Turgen Mountains, a branch of the Altai Mountains.",https://www.dropbox.com/scl/fi/2vh6br47t11ojq0uo1rbo/.jpg?rlkey=i234krark0ljbbt3rwl1w9fpr&raw=1,투르겐 산,トゥルゲン山,图尔根山,Тургеньская гора
317,1,Байгалийн үзэсгэлэнт газар,Увс нуур,Uvs Lake,Увс,Uvs,Давст,Davst,50.39978,92.69028,Их нууруудын хотгорын хойд захад байх Монгол улсын хамгийн том нуур юм. Гүн нь 30м. Нуурын хойд үзүүр ОХУ-ын Бүгд Найрамдах Тува Улсын нутаг дэвсгэрт байна.,"It is the largest lake in Mongolia, located at the northern end of the Great Lakes Basin. Its depth is 30 m. The northern tip of the lake is in the territory of the Russian Republic of Tuva.",https://www.dropbox.com/scl/fi/fv7c8ity27ouzotdkzkii/.jpg?rlkey=w1f75ikfegsj8ss4llefltkq5&raw=1,우브스 호수,ウブス湖,乌布苏湖,Озеро Увс
318,1,Байгалийн үзэсгэлэнт газар,Үүрэг нуур,Uureg Lake,Увс,Uvs,Сагил,Sagil,50.15267,91.00574,Далйн түвшнээс дээш 1425 метрийн өндөрт байх үзэсгэлэнт нуур,A beautiful lake at an altitude of 1425 meters above sea level,https://www.dropbox.com/scl/fi/513r24edynas2y5swgmch/.jpg?rlkey=1uqnt0lkd29u03r2atwz48o09&raw=1,우레그 호수,ウーレグ湖,乌雷格湖,Озеро Уурег
319,1,Байгалийн үзэсгэлэнт газар,Ханхөхий уул,Khankhuhii Mountain,Увс,Uvs,Өндөрхангай,Undurkhangai,49.378,94.689,"Хан Хөхийн нуруу нь Хангайн нурууны баруун хойд залгаа болж, Увс аймгийн Зүүнхангай, Өндөрхангай, Цагаанхайрхан сумдын нутагт оршдог. Ноён оргил нь Алтан Дуулга бөгөөд далай түвшнээс дээш 2928","The Khan Khokhi Range is a northwestern extension of the Khangai Range and is located in the Zuunkhangai, Undurkhangai, and Tsagaankhairkhan soums of Uvs aimag. The highest peak is Altan Duulga, which is 2928 meters above sea level.",https://www.dropbox.com/scl/fi/6bq5plcgmfyax76lv9wnm/.jpg?rlkey=zff7elckfe0hduq7u8tmwp4as&raw=1,칸쿠히이 산,カンクヒ山,坎库希山,Гора Ханхухий
320,1,Байгалийн үзэсгэлэнт газар,Хяргас нуур,Khyargas Lake,Увс,Uvs,Завхан,Zavkhan,49.15551,93.34995,"Их нууруудын хотгор дахь эрдэст нуур. Тус нуурыг 2000 онд байгалийн цогцолборт газарт бүртгэж авсан бөгөөд нийт 3,328 км² нутгийг хамрана.","A mineral lake in the Great Lakes Basin. The lake was registered as a national park in 2000 and covers a total area of ​​3,328 km².",https://www.dropbox.com/scl/fi/mf6g23z9gcp3kzgq8p26p/.jpg?rlkey=xgy3ttgql1gxqjjzismgjsk4z&raw=1,캬르가스 호수,カヤルガス湖,凯亚加斯湖,Озеро Хьяргас
321,1,Байгалийн үзэсгэлэнт газар,Шаазгай нуур,Shaazgai Lake,Увс,Uvs,Ховд,Khovd,49.23332,91.28162,Ховд сумын төвөөс зүүн өмнө зүгт 28 км зайтай оршино.,It is located 28 km southeast of the center of Khovd soum.,https://www.dropbox.com/scl/fi/2304rduwxzckyg8njcpq6/.jpg?rlkey=ojd2xdwgupuse98ki7nepo9g4&raw=1,샤즈가이 호수,シャーズガイ湖,沙兹盖湖,Озеро Шаазгай
322,1,Байгалийн үзэсгэлэнт газар,Дөрөө нуур,Duruu Lake,Увс,Uvs,Баруунтуруун,Baruunturuun,50.01809,94.94304,Алтан элсний чанх ард Монгол улсын торгон хил дээр оршино.,"It is located right behind the Golden Sands, on the border of Mongolia and Russia.",,도로오 호수,ドロ湖,多鲁湖,Озеро Дуру
323,2,Түүхийн дурсгалт газар,100 ламын агуй,100 Monk's Cave,Улаанбаатар,Ulaanbaatar,Налайх,Nalaykh,47.8398,107.3988,Тэрэлжийн гүүрнээс зүүн хойд зүгт 6 км зайтай оршино.,It is located 6 km northeast of the Terelj bridge.,https://www.dropbox.com/scl/fi/3mak1e2msk96c5yepcwu6/100.jpg?rlkey=jnu7m4azvc3o7aoqg1g8b5b6s&raw=1,100 수도사의 동굴,100 モンクの洞窟,100 和尚洞,100 Пещера Монаха
324,1,Байгалийн үзэсгэлэнт газар,Авирах хад,Climbing Rock,Улаанбаатар,Ulaanbaatar,Налайх,Nalaykh,47.86469,107.41943,Тэрэлжийн гүүрнээс зүүн хойд зүг 10 км зайтай оршино.,It is located 10 km northeast of the Terelj bridge.,https://www.dropbox.com/scl/fi/sdwnuknqkkjg5z8qxrk2q/.jpg?rlkey=fgbaj0puh3h40yt6bibyh867n&raw=1,암벽등반,クライミングロック,攀岩,Восхождение на скалу
325,3,Шашны дурсгалт газар,Арьяабал бурханы хийд,Aryabal Buddhist Temple,Улаанбаатар,Ulaanbaatar,Налайх,Nalaykh,47.93427,107.42567,Налайх дүүргээс зүүн хойд зүгт 35 км зайтай оршино,It is located 35 km northeast of the center of Nalaikh district.,https://www.dropbox.com/scl/fi/jhjyhgi1uzzvmm3tnw8n4/.jpg?rlkey=9k9u652o498zcmblh21c6byre&raw=1,아리야발 불교 사원,アリヤバル仏教寺院,阿雅巴尔佛寺,Буддийский храм Арьябал
326,2,түүхийн дурсгалт газар,Дино парк,Dino Park,Улаанбаатар,Ulaanbaatar,Налайх,Nalaykh,47.90272,107.43882,Мэлхий хаднаас зүүн өмнө зүгт 1.3 км зайтай оршино.,It is located 1.3 km southeast of the Melkhii Rock.,https://www.dropbox.com/scl/fi/8gt08t3q2noojf4ltp55l/.jpg?rlkey=ayb55ubgvfkddcdeo349xjxxw&raw=1,디노파크,ディノパーク,恐龙公园,Дино Парк
327,1,Байгалийн үзэсгэлэнт газар,Их тэнгэрийн амны хадны зураг,Ikh Tengeriin Amny Khadny Zurag,Улаанбаатар,Ulaanbaatar,Хан-Уул,Khan-Uul,47.88071,106.9413,"Их тэнгэрийн амны хаданд дотроо олон толботой дөрвөлжин хашлаганууд, ганцаар юм уу 2, 3, 5-аараа хөтлөлцөж зогссон хүний тойм зураг, халин нисч буй бүргэд, замаар явж буй адуу зэргийг улаан зосоор зурсан байдаг. Дөрвөлжин хашлаганы дээд талд хошуугаа хажуу тийш харуулан халин нисч яваа бүргэд шувуу, хашлаганы зүүн талд хөтлөлцөж зогссон хүмүүсийн тойм зураг, хашлаганы доод талд хоёр зэрэгцээ замаар адуу хөтөлж яваа хүнийг тоймлон дүрсэлсэн ","On the rock of the mouth of the great sky, there are many square arches with many spots inside, and the outline of a person standing alone or in groups of 2, 3, or 5 holding hands, an eagle flying in flight, and a horse walking on a road, all drawn in red copper. At the top of the square arch, there is an eagle flying with its beak turned to the side, and on the left side of the arch is an outline of people standing holding hands, and at the bottom of the arch, there is an outline of a person leading a horse on two parallel roads.",https://www.dropbox.com/scl/fi/wvnzayinj80fdujafe05d/.jpg?rlkey=1hpavbfkh360x279aexwde0ev&raw=1,이크 텡게린 암니 카드니 주라그,イフ・テンゲリン・アムニー・カドニー・ズラグ,伊赫·腾格里因·阿姆尼·卡德尼·祖拉格,Их Тенгерийн Амны Хадны Зураг
328,3,Шашны дурсгалт газар,Манзушир хийд,Manzushir Monastery,Улаанбаатар,Ulaanbaatar,Хан-Уул,Khan-Uul,47.76049,106.99409,Төв аймгийн төв Зуунмод хотоос зүүн хойд зүгт 6.5 км зайтай оршино.,"It is located 6.5 km northeast of Zuunmod, the center of Tuv aimag.",https://www.dropbox.com/scl/fi/0qti1ropwmzj1mitc66ta/.jpg?rlkey=9ynvad3l5hmyuueeewxule1thraw=1,만주시르 수도원,マンズシル修道院,曼祖希尔修道院,Манзуширский монастырь
329,2,Түүхийн дурсгалт газар,Өүлэн эхийн хөшөө,"Statue Of Hoelun, Mother Of Chinggis Khaan",Улаанбаатар,Ulaanbaatar,Налайх,Nalaykh,47.80264,107.54305,Налайх дүүргээс зүүн хойд зүгт 20 км зайтай оршино.,It is located 20 km northeast of Nalaikh district.,https://www.dropbox.com/scl/fi/h776o894f176zjn80h3gb/.jpg?rlkey=fjr8dekbove5mqlwawymioov9&raw=1,칭기스칸의 어머니 호엘룬의 동상,チンギスハーンの母ホエルン像,成吉思汗母亲诃额伦雕像,"Статуя Оэлун, матери Чингисхана"
330,1,Байгалийн үзэсгэлэнт газар,Тэмээ хад,Camel Rock,Улаанбаатар,Ulaanbaatar,Налайх,Nalaykh,47.93082,107.42264,Тэрэлжийн гүүрнээс зүүн хойд зүгт 18 км зайтай оршино.,It is located 18 km northeast of the Terelj bridge.,https://www.dropbox.com/scl/fi/p5oslf6e16qhn5cbhn7lh/.jpg?rlkey=m1neouifdbu10txjregbjnf5e&draw=1,낙타바위,ラクダ岩,骆驼岩,Верблюжья скала
331,2,Түүхийн дурсгалт газар,Цонжин болдог,Tsonjin Boldog,Улаанбаатар,Ulaanbaatar,Налайх,Nalaykh,47.80804,107.52993,Улаанбаатар хотоос зүүн зүгт 53 км зайтай оршино. ,It is located 53 km east of Ulaanbaatar.,https://www.dropbox.com/scl/fi/2xmiclmfrie9oqkjxcvnj/Tsonjinboldog.jpg?rlkey=i6xn4dkxnp4gqg3y3ow8zru2m&raw=1,촌진 볼독,ツォンジン・ボルドッグ,颂金博尔多格,Цонджин Болдог
332,1,Байгалийн үзэсгэлэнт газар,Мэлхий хад,Turtle Rock,Улаанбаатар ,Ulaanbaatar,Налайх,Nalaykh,47.9077,107.42273,Налайх дүүргээс зүүн хойд зүгт 24 км зайтай оршино.,It is located 24 km northeast of Nalaikh district.,https://www.dropbox.com/scl/fi/yzgb644m5o8a915vq6p7c/.jpg?rlkey=uic41m66i6yvvnhmws4pu4cwv&raw=1,거북바위,亀岩,龟岩,Черепашья скала
333,1,Байгалийн үзэсгэлэнт газар,Баатар хайрхан уул,Baatarkharkhan Mountain,Ховд,Khovd,Жаргалант,Jargalant,47.94733,91.61875,Жаргалант сумын төвөөс өмнө зүгт 5 км зайтай оршино.,It is located 5 km south of the center of Jargalant soum.,https://www.dropbox.com/scl/fi/dpbda6vi34xyvhv54mzgg/.jpg?rlkey=j0avlgafxld31ai0z61ad9ul6&raw=1,바타르 카이르칸 산,バータル・ハイルハン山,巴塔尔·海尔汗山,Гора Баатархайрхан
334,1,Байгалийн үзэсгэлэнт газар,Алтан хөхий уул,Altan Khukhii Mountain,Ховд,Khovd,Мянгад,Myangad,48.78052,91.55165,Нутгийн ардууд Алтан Хөхий уулыг 1761 оноос хойш өнөөг хүртэл жил бүр тахиж ирсэн хамгийн эртний тахилгат уулын нэг юм. 2005 оны 3 дугаар сарын 30-нд Ерөнхийлөгчийн 44 дүгээр зарлигийг гаргуулан Алтан Хөхий уулыг төрийн тахилгатай уул болгожээ.,"Altan Khokhi Mountain is one of the oldest sacred mountains, having been worshipped annually by local people since 1761. On March 30, 2005, Presidential Decree No. 44 was issued, making Altan Khokhi Mountain a state sacred mountain.",https://www.dropbox.com/scl/fi/84qrw33y6lguag5htybg5/.jpg?rlkey=3gqqukwpryg401tfd3raf7nl3&raw=1,알탄 쿠키 산,アルタン クキ山,阿尔坦库希山,Гора Алтан Хухий
335,1,Байгалийн үзэсгэлэнт газар,Байтаг Богд уул,Baitag Bogd Mountain,Ховд,Khovd,Булган,Bulgan,45.28582,90.95946,Байтаг Богд нь Монгол улсын Ховд аймгийн Булган сумын нутагт оршдог уул. Оргил нь 3400 метр өндөр. Булган сумын төвөөс зүүн өмнө зүгт 120 км зайтай оршино.,"Baitag Bogd is a mountain located in Bulgan soum, Khovd province, Mongolia. Its peak is 3,400 meters high. It is located 120 km southeast of the center of Bulgan soum.",https://www.dropbox.com/scl/fi/x5bc39qqh09pm6zf0k4xd/.jpg?rlkey=uhokrs3tn1106fj9lhj8eu587&raw=1,바이탁 복드 산,バイタグ ボグド山,拜塔格博格德山,Гора Байтаг Богд
336,1,Байгалийн үзэсгэлэнт газар,Бодончийн хавцал,Bodonch Canyon,Ховд,Khovd,Цэцэг,Tsetseg,45.98625,93.28533,"Ховд аймгийн төвөөс 300-400 км алслагдан, улсын хил дагуу байрлах Булган, Үенч, Алтай сумыг зориход 110 км үргэлжлэх Бодончийн хавцлыг дайран өнгөрдөг.","The road to Bulgan, Uench, and Altai soums, located 300-400 km from the center of Khovd aimag, passes through the 110 km long Bodonchi Gorge.",https://www.dropbox.com/scl/fi/j8iyt3uc79s4hthoebr3b/.jpg?rlkey=x1frr5e2fe95p5h3ut737uwgr&raw=1,보돈치 캐년,ボドンチ渓谷,博东奇峡谷,Бодончский каньон
337,1,Байгалийн үзэсгэлэнт газар,Далай нуур,Dalai Lake,Ховд,Khovd,Дөргөн,Durgun,48.20762,92.66519,"Хар нууртай залгаа орших энэ нуур далайн түвшнээс дээш 1132 метр өндөрт, 305 км.кв талбайтай, урт 24 км, өргөн нь 17 км байна. ","This lake, adjacent to Black Lake, is 1,132 meters above sea level, has an area of ​​305 square kilometers, is 24 kilometers long, and 17 kilometers wide.",https://www.dropbox.com/scl/fi/mqiptz47mk7f4nn8cgz2h/Dalailake.jpg?rlkey=p45qdoaqkpedrymrc4yhhvnol&raw=1,달라이 호수,ダライ湖,达赉湖,Озеро Далай
338,1,Байгалийн үзэсгэлэнт газар,Дөргөн нуур,Durgun Lake,Ховд,Khovd,Чандмань,Chandmani,47.676,93.442,"Хамгийн гүнзгий хэсэгтээ 27 метр, хамгийн өргөн хэсэгтээ 16.8 км, хамгийн урт нь 24 км юм. Чандмань сумын төвөөс зүүн зүгт 45 км зайтай оршино.","It is 27 meters deep at its deepest point, 16.8 km at its widest point, and 24 km long. It is located 45 km east of the center of Chandman soum.",https://www.dropbox.com/scl/fi/wivdn8wmfj62fte4e2s7o/Durgenlake.jpg?rlkey=h1ay80y0nr72q1a7ohn8fcr56&raw=1,두르군 호수,ドゥルグン湖,杜尔古纳湖,Озеро Дургун
339,4,Бусад,Дөргөний усан цахилгаан станц,Durgun Hydropower Plant,Ховд,Khovd,Дөргөн,Durgun,48.32617,92.8073,Дөргөн сумын төвөөс зүүн өмнө зүгт 15 км зайтай оршино.,It is located 15 km southeast of the center of Durgun soum.,https://www.dropbox.com/scl/fi/f889nqc1wawskpd33da59/.jpg?rlkey=2ja14v6t8mtklq6xtmqp8x3b8&raw=1,Durgun 수력 발전소,ドゥルグン水力発電所,杜尔贡水电站,Дургунская ГЭС
340,1,Байгалийн үзэсгэлэнт газар,Их тойруулга нуур,Ikh Toiruulga Nuur,Ховд,Khovd,Мөст,Must,46.72927,93.21449,Мөст сумын төвөөс зүүн зүгт 44 км зайтай оршино.,It is located 44 km east of the center of Must soum.,,이크 토이룰가 누르,イク・トイルウルガ・ヌール,伊赫·托伊鲁尔加·努尔,Их Тойруулга Нуур
341,1,Байгалийн үзэсгэлэнт газар,Мөнххайрхан уул,Munkhkhairkhan Mountain,Ховд,Khovd,Мөнхайрхан,Munkhairkhan,46.891,91.473,"Баян-Өлгий аймгийн Булган сум, Ховд аймгийн Мөнххайрхан сумын хил залгаа нутгийг дамнан 40-80 км-ийн өргөнтэйгээр баруун хойноос зүүн урагш 200 гаруй км үргэлжилдэг.Алтайн нурууны 2 дахь өндөр оргил бөгөөд  далайн түвшнээс дээш 4362 метр өндөртэй ","It stretches for more than 200 km from northwest to southeast, with a width of 40-80 km, across the border of Bulgan soum of Bayan-Olgii aimag and Munkhkhairkhan soum of Khovd aimag. It is the second highest peak in the Altai Mountains and is 4362 meters above sea level.",https://www.dropbox.com/scl/fi/1iejrxewhgav1ept6loni/.jpg?rlkey=3xy6uk30ap8ej1r3h4x9dllur&raw=1,문크카이르칸 산,ムンクハイルカン山,蒙克凯尔汗山,Гора Мунххайрхан
342,1,Байгалийн үзэсгэлэнт газар,Рашаант хүрхрээ,Rashaant Waterfall,Ховд,Khovd,Манхан,Mankhan,47.72521,92.49847,Манхан сумын төвөөс зүүн хойд зүгт 40 шахам км зайтай оршино.,It is located approximately 40 km northeast of the center of Mankhan soum.,https://www.dropbox.com/scl/fi/2mum8d5eomz78vsa8201u/.jpeg?rlkey=ujptc10bc19ywtw895cs5g9kp&raw=1,라샤안트 폭포,ラシャーントの滝,拉桑特瀑布,Водопад Рашаант
343,1,Байгалийн үзэсгэлэнт газар,Улаан богочийн рашаан,Ulaan Bogoch Mineral Water,Ховд,Khovd,Жаргалант,Jargalant,48.02963,91.65341,Аймгийн төв Ховд хотоос хойд зүгт 2.5 км зайтай оршино.,The provincial capital is located 2.5 km north of Khovd city.,https://www.dropbox.com/scl/fi/dllcc9elt0tmbkyoux0z9/.jpg?rlkey=frpnmjipyah89a98hn6tntauj&raw=1,울란보고치 생수,ウラン ボゴチ ミネラルウォーター,乌兰博格奇矿泉水,Минеральная вода Улан Богоч
344,1,Байгалийн үзэсгэлэнт газар,Хар нуур,Khar Lake,Ховд,Khovd,"Чандмань, Дөргөн","Chandmani, Durgun",48.10357,93.21928,Чандмань сумын төвөөс зүүн зүгт 68 км зайтай оршино. Өмнөд хэсэгт орших Дөргөн нууртай хоолойгоор холбогдоно.,It is located 68 km east of the center of Chandman soum. It is connected to Lake Dorgen in the south by a canal.,https://www.dropbox.com/scl/fi/228trtln487zgm6uamgsv/.jpg?rlkey=sfa4d1lyhik0rjzt1dfrahxpy&raw=1,카르 호수,カール湖,卡尔湖,Озеро Хар
345,1,Байгалийн үзэсгэлэнт газар,Хар-Ус нуур,Khar-Us Lake,Ховд,Khovd,"Буянт,",Buyant,47.9815,92.12107,"Монголын том нууруудын нэг Хар-Ус нуур нь 1153 км.кв талбайтай, 72км урт, 26км өргөн, эргийн урт 306.8 км, дундаа аралтай, урд захаараа хулс, шагшуургатай нуур юм.","One of Mongolia's largest lakes, Khar-Us Lake, has an area of ​​1,153 square kilometers, is 72 kilometers long, 26 kilometers wide, and has a coastline of 306.8 kilometers. It has an island in the middle and is covered with bamboo and sedge along its southern edge.",https://www.dropbox.com/scl/fi/2kt7b6xllwsqsssamtk20/.jpg?rlkey=kyutti9mkxj4lfvicefa2albw&raw=1,카르우스 호수,カルウス湖,卡尔乌斯湖,Озеро Хар-Ус
346,1,Байгалийн үзэсгэлэнт газар,Хойд цэнхэрийн агуй,Khoit Tsenkher Cave,Ховд,Khovd,Манхан,Mankhan,47.34736,91.95668,Манхан сумын төвөөс баруун өмнө зүгт 25 км зайтай оршино.,It is located 25 km southwest of the center of Mankhan soum.,https://www.dropbox.com/scl/fi/725n7dg85uah05emei154/.jpg?rlkey=cnithtzmq4kxkxor67vmom7wl&raw=1,코이트 첸케르 동굴,コイト・ツェンケル洞窟,科伊特岑克洞穴,Пещера Хойт Ценхер
347,1,Байгалийн үзэсгэлэнт газар,Хөдөө нуур,Khuduu Lake,Ховд,Khovd,Зэрэг,Zereg,47.10598,92.79624,Зэрэг сумаас баруун зүгт 2.7 км зайтай оршино.,It is located 2.7 km west of Zereg soum.,https://www.dropbox.com/scl/fi/g6atm9mzciupo7m7ef4la/.jpg?rlkey=8onnmucs6cisz5tex0vpb1lcb&raw=1,쿠두 호수,クドゥ湖,库杜湖,Озеро Худуу
348,1,Байгалийн үзэсгэлэнт газар,Хясаа нуур,Khyasaa Lake,Ховд,Khovd,Үенч,Uench,46.10207,92.04649,Үенч сумын төвөөс хойд зүгд 4.5 км зайтай оршдог хиймэл нуур юм.,It is an artificial lake located 4.5 km north of the center of Uench soum.,,카야사 호수,キャサー湖,凯萨湖,Озеро Хьясаа
349,1,Байгалийн үзэсгэлэнт газар,Цэцэг нуур,Tsetseg Lake,Ховд,Khovd,Цэцэг,Tsetseg,46.66636,93.25152,Цэцэг сумын төвөөс хойд зүгт 15 км зайтай оршино.,It is located 15 km north of the center of Tsetseg soum.,https://www.dropbox.com/scl/fi/4dvez6y93c0lf3okx8fgo/.jpg?rlkey=m6usgvv0gmwnyx5j15krapea9&raw=1,체체그 호수,ツェツェグ湖,采采格湖,Озеро Цецег
350,1,Байгалийн үзэсгэлэнт газар,Ачмаг нуур,Achmag Lake,Хөвсгөл,Khuvsgul,Түнэл,Tunel,49.6602,100.4869,"Аймгийн төв Мөрөн хотоос зүүн зүгт 23 км, Түнэл сумын төвөөс баруун өмнө зүгт  28 км  зайтай оршино.",The aimag's center is located 23 km east of the city of Muron and 28 km southwest of the center of Tunel soum.,,아크마그 호수,アシュマグ湖,阿赫马格湖,Озеро Ахмаг
351,1,Байгалийн үзэсгэлэнт газар,Бүрэнхаан уул,Burenkhaan Mountain,Хөвсгөл,Khuvsgul,Ханх,Khankh,51.71853,100.60112,"Ханх сумын чанх хойд хэсэгт ОХУ, Монгол Улсын хилийн дагуу 70 орчим км үргэлжлэх зүүн Саяны нурууны салбар уулсын нэг бол Бүрэнхаан уул юм.  Гантиг чулуулгаас тогтсон Бүрэнхаан уул Хөвсгөл аймгийн хамгийн өндөр ууланд тооцогддог бөгөөд оргил нь 3491 метр өндөртэй Мөнх сарьдаг юм.","Burenkhaan Mountain is one of the branches of the Eastern Sayan Range, which stretches for about 70 kilometers along the border of Russia and Mongolia, just north of Khankh Sum. Burenkhaan Mountain, made of marble, is the highest mountain in Khuvsgul Province, with its peak at 3,491 meters, Munkh Sarydag.",https://www.dropbox.com/scl/fi/42ek7pvn3sewp2inkd8zn/Burenkhaan.jpg?rlkey=lpoen7g0u6qdonc3tdofq3kfz&raw=1,부렌칸 산,ブレンカーン山,布伦坎山,Гора Буренхаан
352,2,Түүхийн дурсгалт газар,Гэлэнхүүгийн суварга,Gelenkhuu Stupa,Хөвсгөл,Khuvsgul,Жаргалант,Jargalant,48.68467,99.37348,Жаргалант сумын төвөөс баруун өмнө зүгт 13 км зайтай оршино.,It is located 13 km southwest of the center of Jargalant soum.,https://www.dropbox.com/scl/fi/wkt00pzhs3es8s2z8j112/Gelenkhuu.jpg?rlkey=q8essjgkwhv7ctwowqyo0334n&raw=1,겔렌쿠 스투파,ゲレンクー仏塔,格伦库佛塔,Ступа Геленхуу
353,1,Байгалийн үзэсгэлэнт газар,Даян дээрхийн агуй,Dayan Deerkhi Cave,Хөвсгөл,Khuvsgul,Цагаан-Үүр,Tagaan-uur,50.57466,102.05822,Цагаан-Үүр сумын төвөөс зүүн зүгт 53  км зайтай оршино.,It is located 53 km east of the center of Tsagaan-Uur soum.,https://www.dropbox.com/scl/fi/wxn5nvcxl11ql0ummnsp7/Dayandeerkh.jpg?rlkey=o0afk3zh61vbczco7d8i757xe&raw=1,다얀 디르키 동굴,ダヤン ディルキ洞窟,达延迪尔克希洞,Пещера Даян Дирхи
354,1,Байгалийн үзэсгэлэнт газар,Доод цагаан нуур,Dood Tsagaan Nuur,Хөвсгөл,Khuvsgul,Цагааннуур,Tsagaannuur,51.35143,99.384,Дархадын хотгорын хойд хэсэгт байх  Доод цагаан нуурын баруун эрэг дээр Цагааннуур сумын төв оршино. ,"The center of Tsagaannuur soum is located on the west bank of Dood Tsagaan Lake, in the northern part of the Darkhad Depression.",https://www.dropbox.com/scl/fi/awupytrkwediu9exb69nq/Doodtsagaanlake.jpg?rlkey=3yobx4paqny3xq8u2u8agpp0d&raw=1,두드 차강 누르,ドゥード・ツァガーン・ヌール,杜德查干努尔,Дуд Цагаан Нуур
355,1,Байгалийн үзэсгэлэнт газар,Зүүн нуур,Zuun Lake,Хөвсгөл,Khuvsgul,Шинэ-Идэр,Shine-Ider,49.0634,99.47813,Шинэ-Идэр сумын төвөөс хойд зүгт 14  км зайтай оршино.,It is located 14 km north of the center of Shine-Ider soum.,,준 호수,瑞雲湖,祖恩湖,Озеро Зуун
356,1,Байгалийн үзэсгэлэнт газар,Идэр гол,Ider Lake,Хөвсгөл,Khuvsgul,Жаргалант,Jargalant,48.62738,99.10043,"Жаргалант хойд талаар 1.5 км ийн зайтай урсан гарах Идэрийн гол нь  Завхан аймгийн Идэр, Тэлмэн, Тосонцэнгэл, Их уул сум, Хөвсгөл аймгийн Жаргалант, Галт, Төмөрбулаг, Рашаант сум, Архангай аймгийн Цэцэрлэг сум гэх мэт арваад сумын нутгаар дайран урсаж Хөвсгөл аймгийн Төмөрбулаг, Тосонцэнгэл, Рашаант сумдын зааг Олон голын бэлчир хэмээх газар Дэлгэр мөрөнтэй нийлж Сэлэнгэ мөрнийг үүсгэдэг.","The Ider River, which flows 1.5 km north of Jargalant, flows through the territories of ten soums, including Ider, Telmen, Tosontsengel, and Ikh Uul sums of Zavkhan aimag, Jargalant, Galt, Tumurbulag, and Rashaant sums of Khuvsgul aimag, and Tsetserleg soum of Arkhangai aimag. It meets the Delger River at the Olon Gol delta, on the border of Tumurbulag, Tosontsengel, and Rashaant sums of Khuvsgul aimag, to form the Selenge River.",https://www.dropbox.com/scl/fi/lrh14znj5xvk4ut5ed0h2/.jpg?rlkey=vcsaakdbunfzzx2nqu2mv024d&raw=1,아이더 호수,アイダー湖,伊德尔湖,Озеро Идер
357,1,Байгалийн үзэсгэлэнт газар,Модон хүй,Modon Khui ,Хөвсгөл,Khuvsgul,Хөвсгөл нуур,Khuvsgul Lake,50.9774,100.50621,"Тэнгэр баганадсан модоор бүрхэгдсэн арлын урт нь 4 км, өргөн нь 3 км юм. Энэ аралд хандгай, гөрөөс, чандага зэрэг төрөл бүрийн ан амьтад байдаг, олон зүйлийн ургамал жимс ургадаг ажээ.","The island, covered in towering trees, is 4 km long and 3 km wide. It is home to a variety of wildlife, including elk, deer, and otters, and many types of plants and fruits grow on the island.",https://www.dropbox.com/scl/fi/3a7zm51y1qyvdlq92pymx/.jpg?rlkey=ch2w218vy1vufjujzsvnz32co&raw=1,모돈 쿠이,モドン・ホイ,莫东奎,Модон Хуй
358,1,Байгалийн үзэсгэлэнт газар,Өрхөт нуур,Urkhut Lake,Хөвсгөл,Khuvsgul,Арбулаг,Arbulag,49.90329,99.39359,Арбулаг сумын төвөөс баруун зүгт 3.5 км зайтай оршино.,It is located 3.5 km west of the center of Arbulag soum.,,우르쿠트 호수,ウルクット湖,乌尔胡特湖,озеро Урхут
359,2,Байгалийн үзэсгэлэнт газар,Тарган нуур,Targan Lake,Хөвсгөл,Khuvsgul,Рэнчинлхүмбэ,Renchinlkhumbe,51.46534,99.4866,"Цагааннуур сумын төвөөс зүүн хойд зүгт 18 км зайтай,  Далайн түвшнээс дээш 1538 метр өндөрт оршино. ","It is located 17 km northeast of the center of Tsagaannuur soum, at an altitude of 1,538 meters above sea level.",https://www.dropbox.com/scl/fi/pw74sutp9moiih8y8rwez/.jpg?rlkey=fivnxyeuten9vmbkdgz02lv0b&raw=1,타르간 호수,ターガン湖,塔甘湖,Тарганское озеро
360,2,Түүхийн дурсгалт газар,Уушгийн өврийн буган хөшөө,Uushgiin Uvur Deer Stone,Хөвсгөл,Khuvsgul,Бүрэнтогтох,Burentogtokh,49.65565,99.92866,Аймгийн төв Мөрөн хотоос 18 км зайтай орших Уушиг уулын өвөрт булш хиргисүүр хөшөө чулуу маш олонтой бөгөөд нэгэн дор 14 буган хөшөө буй.,"Located 18 km from the provincial capital, Muron, on the slopes of Uushig Mountain, there are many tombstones and stone statues, including 14 deer statues.",https://www.dropbox.com/scl/fi/blk8pncw1tn69ed4m1y5w/.jpeg?rlkey=8ihz8rss8yzzlborc0f4kz1uw&raw=1,우쉬긴 우부르 사슴 돌,ウシュギイン・ウブル鹿の石,乌什金·乌武尔·鹿石,Олений камень Уушгийн Увур
361,1,Байгалийн үзэсгэлэнт газар,Хөвсгөл нуур,Khubsugul Lake,Хөвсгөл,Khuvsgul,Ханх,Khankh,50.99178,100.42641,"Хөвсгөл нуур нь Монгол улсын хойд хэсэгт Хөвсгөл аймагт далайн түвшнээс 1645 метр өндөрт оршдог цэнгэг устай нуур. Энэ нуур нь Монголын хамгийн их эзлэхүүнтэй, хамгийн гүн нуур юм. Хөвсгөл нуурын хамгийн гүн хэсэгтээ 262.4 метр, урт нь 136 км, хамгийн өргөн хэсэг нь 36,5 км ажээ.","Khuvsgul Lake is a freshwater lake located in Khuvsgul Province in northern Mongolia at an altitude of 1,645 meters above sea level. It is the largest and deepest lake in Mongolia. Khuvsgul Lake is 262.4 meters deep at its deepest point, 136 km long, and 36.5 km wide at its widest point.",https://www.dropbox.com/scl/fi/10ui5z3hr7ozvny1w9x7o/.jpg?rlkey=6u3m4sso6jbuy5hktksxzfgus&raw=1,쿳수굴 호수,フブスグル湖,库苏古尔湖,Озеро Хубсугул
362,1,Байгалийн үзэсгэлэнт газар,Хурцын агуй,Khurts Cave,Хөвсгөл,Khuvsgul,Алаг-Эрдэнэ,Alag-Erdene,50.15557,99.81779,Алаг-Эрдэнэ сумын төвөөс баруун хойд зүгт 20 км зайтай оршино.,It is located 20 km northwest of the center of Alag-Erdene soum.,,쿠르트 동굴,クルツ洞窟,库尔特洞穴,Пещера Хурц
363,1,Байгалийн үзэсгэлэнт газар,Хүслийн хад,Khusliin Rock,Хөвсгөл,Khuvsgul,Алаг-Эрдэнэ,Alag-Erdene,50.545673,100.211352,Хатгал тосгоноос хойд зүгт 14 км зайтай оршино.,It is located 14 km north of Khatgal village.,https://www.dropbox.com/scl/fi/u2qkksvthjdk1qgqk5s2d/.jpg?rlkey=snow2yztdwd8asf7cbouswwmh&raw=1,쿠슬리인 록,フスリーン ロック,胡斯林岩,Хуслин Рок
364,1,Байгалийн үзэсгэлэнт газар,Эрхэл нуур,Erkhel Lake,Хөвсгөл,Khuvsgul,Алаг-Эрдэнэ,Alag-Erdene,49.94265,99.91613,Алаг-Эрдэнэ сумын төвөөс баруун өмнө зүгт 23 км зайтай оршино.,It is located 23 km southwest of the center of Alag-Erdene soum.,,에르켈 호수,エルケル湖,埃尔克湖,Озеро Эрхель
365,1,Байгалийн үзэсгэлэнт газар,Сангийн далай нуур,Sangiin Dalai Lake,Хөвсгөл,Khuvsgul,Бүрэнтогтох,Burentogtokh,49.24725,99.04066,"Бүрэнтогтох, цагаан-Уул, Шинэ-Идэр сумдын хилийн заагт Далайн түвшнээс дээр 1891 метр өндөрт оршино.","It is located at an altitude of 1891 meters above sea level on the border of Burentogtoh, Tsagaan-Uul, and Shine-Ider soums.",https://www.dropbox.com/scl/fi/td36gfyx4slhnpdps7qdd/..JPG?rlkey=xgin0p69fivvgtu6nec0sqk8i&raw=1,상긴 호수,サンギン湖,桑金湖,Озеро Сангийн Далай
366,2,Байгалийн үзэсгэлэнт газар,Гандан нуур,Gandan Lake,Хөвсгөл,Khuvsgul,Цагаан-Уул,Tsagaan-Uul,48.20942,98.75568,Далайн түвшнээс дээш 1874 метр өндөрт орших нуур.,The lake is located at an altitude of 1874 meters above sea level.,https://www.dropbox.com/scl/fi/u98gwva7c6axr2970180q/.jpg?rlkey=f478vlc5gkuy90qyo5s6fk1zi&raw=1,간단 호수,ガンダン湖,甘丹湖,Озеро Гандан
367,3,Байгалийн үзэсгэлэнт газар,Тунамал нуур,Tunamal Lake,Хөвсгөл,Khuvsgul,Цагаан-Уул,Tsagaan-Uul,49.41267,98.523,Далайн түвшнээс дээш 1988 метр өндөрт орших нуур.,The lake is located at an altitude of 1988 meters above sea level.,https://www.dropbox.com/scl/fi/7xo6meix9eefde7c6h4jo/.jpg?rlkey=gfcx3zn037p204s196uxre07p&raw=1,特纳马尔湖,トゥナマル湖,特纳马尔湖,Озеро Тунамал
368,1,Байгалийн үзэсгэлэнт газар,Бошлой хад,Boshloi Rock,Хөвсгөл,Khuvsgul,Баянзүрх,Bayanzurkh,50.14724,98.88119,Баянзүрх сумын төвөөс баруун өмнө зүгт 8 км зайтай оршино.,It is located 8 km southwest of the center of Bayanzurkh soum.,https://www.dropbox.com/scl/fi/cyc9ik8xzouhxkccrbkrp/.jpg?rlkey=6bottol3ttjsw90u4b6phvzz9&raw=1,보슐로이 록,ボシュロイロック,博什洛伊岩,Бошлой Скала
369,1,Байгалийн үзэсгэлэнт газар,Уширын хүрхрээ,Ushir Waterfall,Хөвсгөл,Khuvsgul,Баянзүрх,Bayanzurkh,50.16787,98.96062,Баянзүрх сумын төвөөс баруун өмнө зүгт 1.5 км зайтай оршино.,It is located 1.5 km southwest of the center of Bayanzurkh soum.,https://www.dropbox.com/scl/fi/wd3ybrovwto1zswd9lul0/.jpg?rlkey=3rottjo7p2ck7cvbnsxidue5m&raw=1,우시르 폭포,ウシル滝,乌希尔瀑布,Водопад Уширин
370,1,Байгалийн үзэсгэлэнт газар,Шигтгээ хад,Shigtgee Rock,Хөвсгөл,Khuvsgul,Улаан-Уул,Ulaan-Uul,50.7812,99.52451,Улаан-Уул сумын төвөөс зүүн хойд зүгт 35 км зайтай оршино.,It is located 35 km northeast of the center of Ulaan-Uul soum.,https://www.dropbox.com/scl/fi/2pzea9llfclpypw43tqnf/.jpg?rlkey=a6mzk6fs8qlj4bjwz0w9st6ih&raw=1,시그트기 록,シグトギーロック,希格特吉岩,Шигтги Скала
371,1,Байгалийн үзэсгэлэнт газар,Ар босготын хавцал,Canyon Ar Bosgot,Хөвсгөл,Khuvsgul,Улаан-Уул,Ulaan-Uul,50.79262,99.51672,Улаан-Уул сумын төвөөс зүүн хойд зүгт 33.5 км зайтай оршино.,It is located 33.5 km northeast of the center of Ulaan-Uul soum.,,캐니언 아르 보스곳,キャニオン・アル・ボスゴット,峡谷阿博斯戈特,Каньон Ар Босгот
372,1,Байгалийн үзэсгэлэнт газар,Улаан тайга байгалийн цогцолбор газар,Ulaantaiga Bio Reserve,Хөвсгөл,Khuvsgul,Баянзүрх,Bayanzurkh,50.33779,98.36527,Уулын тайгын бүслүүр тархсан өндөр уулс юм. ,The mountain taiga belt is spread over high mountains.,https://www.dropbox.com/scl/fi/4pjpejbry4de88atgvo65/.jpg?rlkey=8qwwl5m74oq761r1s2rzw4w8k&raw=1,레드 타이가 국립공원,レッドタイガ国立公園,红泰加国家公园,Национальный парк Красная тайга
373,1,Байгалийн үзэсгэлэнт газар,Хорьдол Сарьдаг дархан цаазат газар,Khoridol Saridag Strictly Protected Area,Хөвсгөл,Khuvsgul,Рэнчинлхүмбэ,Renchinlkhumbe,50.69031,99.72207,Ян сарьдаг бүхий өвөрмөц тогтоцтой өндөр уулын бүслүүрийг төлөөлсөн уулс юм,The mountains represent a high mountain belt with a unique formation of Yang Saridag.,https://www.dropbox.com/scl/fi/3tf4mnbx4ftbvxkcjypkh/2.jpg?rlkey=c37f45w0aq412hn51fi6ya8cx&raw=1,호돌 사리다그 야생동물 보호구역,ホードル サリダグ野生生物保護区,霍多尔萨里达格野生动物保护区,Заповедник Хордол Саридаг
374,2,Түүхийн дурсгалт газар,Алунгоо эхийн хөшөө,Statue of Mother Alungoo,Хөвсгөл,Khuvsgul,Чандмань-Өндөр,Chandmani-Undur,50.4165,100.976,Чандмань-Өндөр сумын төвөөс зүүн өмнө зүгт 12 км зайтай оршино.,It is located 12 km southeast of the center of Chandmani-Undur soum.,https://www.dropbox.com/scl/fi/ery3m8nvd471m2tecoz0o/.jpg?rlkey=juq022sfpf229ytt8k8t66wia&raw=1,알룽구 어머니 동상,マザー・アルングーの像,阿隆古母亲雕像,Статуя Матери Алунгу
375,2,Түүхийн дурсгалт газар,Удган мод,Shaman tree,Хөвсгөл,Khuvsgul,Цагаан-Үүр,Tsagaan-Uur,50.5391,101.46266,Цагаан-Үүр сумын төвөөс баруун зүгт 3.5 км зайтай оршино.,It is located 12 km west of the center of Tsagaan-Uur soum.,https://www.dropbox.com/scl/fi/o2n1dtj6q0our2nyp6037/.jpg?rlkey=b3q6uaxdd50qtra8pk8u0d9ai&raw=1,샤먼 트리,シャーマンツリー,萨满树,Дерево шамана
376,3,Байгалийн үзэсгэлэнт газар,Их уул,Ikh Uul Mountain,Хөвсгөл,Khuvsgul,Их уул,Ikh-Uul,49.44844,101.64292,"Байгалийн өвөрмөц тогтоц, түүхэн ач холбогдол бүхий уул юм.",It is a mountain with a unique natural formation and historical significance.,https://www.dropbox.com/scl/fi/v6ax9olh4f4ntnaeafnp5/.jpg?rlkey=g1ncpxlltuersnuu63qriquvv&raw=1,이크 울 산,イク・ウル山,伊赫乌拉山,Гора Их Уул
377,1,Байгалийн үзэсгэлэнт газар,Дэлгэрхаан уул,Delgerkhaan Mountain,Хөвсгөл ,Khuvsgul,Улаан-Уул,Ulaan-Uul,50.76202306,99.5829,Улаан-Уул сумын төвөөс зүүн хойд зүгт 38  км зайтай оршино.,It is located 38 km northeast of the center of Ulaan-Uul soum.,https://www.dropbox.com/scl/fi/6mlc0awbp41ktbx25yglh/.jpg?rlkey=9mndsrpd6x2x7ng1gemzpah15&raw=1,델게르칸 산,デルガーカーン山,德尔格汗山,Гора Дельгерхаан
378,1,Байгалийн үзэсгэлэнт газар,Аварга тосон нуур,Avarga Toson Lake,Хэнтий ,Khentii,Дэлгэрхаан,Delgerkhaan,47.189,109.153,"Нуурын баруун хойд захад дээрээ цайвар саарал, доороо хар хөх бараан өнгөтэй маш нарийн тос шиг найнги шавар байх бөгөөд нуурын урд захад нарийн хар бэх мэт тас хар тослог шавар 50 сантиметр гүнээс гарч байдаг ажээ. Тосон нуурын баруун хойд өнцөгт байдаг хонхороос энэ нуурын ус ундрах бөгөөд тэрхүү хонхор нь цайвар өнгөтэй нарийн шавартай. Хонхор нь 15 метр урт, 7 метр өргөн, хөл алдаж шигдэхээр гүн ажээ.","On the northwest edge of the lake, there is a very fine oily mud that is light gray on top and dark blue underneath, and on the south edge of the lake, a very fine black oily mud that is as dark as ink emerges from a depth of 50 centimeters. The water of this lake flows from a depression in the northwest corner of Toson Lake, and that depression is made of light-colored fine mud. The depression is 15 meters long, 7 meters wide, and is deep enough to sink into.",https://www.dropbox.com/scl/fi/qhkqef574uwtbex492wko/.jpg?rlkey=0gb61h2b38n6ynynuwquwckj6&raw=1,아바르가 토손 호수,アヴァルガ トソン レイク,阿瓦尔加托森湖,Озеро Аварга Тосон
379,2,Түүхийн дурсгалт газар,Андлалын хөшөө,Andlalyn Statue,Хэнтий ,Khentii,Батноров,Batnorov,48.03371,111.39026,Батноров сумын төвөөс баруун хойш 15 км зайтай Дэлгэрхаан уулын өмнө аманд байна. ,"It is located at the foot of Delgerkhaan Mountain, 15 km northwest of the center of Batnorov soum.",https://www.dropbox.com/scl/fi/53qr5cqf38bg2yjqwec6s/.jpg?rlkey=h65cn9caq184n4fohun92cbop&raw=1,안들라린 동상,アンドラリン像,安德拉林雕像,Статуя Андлалина
380,2,Түүхийн дурсгалт газар,Анчин баавайн гэр музей,Hunter Baavai'S Home Museum,Хэнтий ,Khentii,Дадал,Dadal,49.03279,111.55265,60 гаруй амьтны чихмэл байдаг,There are over 60 stuffed animals,https://www.dropbox.com/scl/fi/is9nj3lgq0h4xrpwdqh3i/.jpg?rlkey=hxqp2fd30rtr7scs53dg75ab4&raw=1,헌터 바바이의 집 박물관,ハンター バーバイの家博物館,亨特巴瓦伊故居博物馆,Дом-музей Хантера Баавая
381,2,Түүхийн дурсгалт газар,Ауруг ордын туурь,Aurug Ord Ruin,Хэнтий ,Khentii,Дэлгэрхаан,Delgerkhaan,47.09639,109.16112,"Дэлгэрхаан сумын нутагт Аварга тосонгийн рашаан сувиллаас урагш, Аураг рашааны хойхон талд Рашаан дэрсний ухаа хэмээх газрын хөрсөн доор эртний нэгэн хотын үлдэгдэл бий.","In the territory of Delgerkhaan soum, south of the Avarga Tosongi Spa and north of the Aurag Spa, there are remains of an ancient city under the soil of a place called the Rasahan Dersin Ukhaa.",https://www.dropbox.com/scl/fi/i23wg8b9j9sezre2e43zw/.jpg?rlkey=hxgw639noic1csr6o1ktir2gz&raw=1,아우루그 오르드 폐허,アウラグオルド遺跡,奥鲁格奥德废墟,Руины Ауруг Орда
382,3,Шашны дурсгалт газар,Балдан бэрээвэн хийд,Baldan Bereeven Monastery,Хэнтий ,Khentii,Өмнөдэлгэр,Umnudelger,48.20078,109.42906,Өмнөдэлгэр сумын Баянзүрх багийн нутагт Мөнх-Өлзийт уулын өвөрт 1777 онд Цэвээндорж гэдэг монгол лам анх жижиг сүм бариулж Манзушир бурханы чулуун дүрийг бүтээлгэснээр суурь нь тавигджээ. Улмаар 5000-6000 ламтай Монгол дахь хамгийн том хийдүүдийн нэг болтлоо өсөж Монголын зүүн нутгийн ард түмний шашин соёлын төв болтлоо хөгжсөн байна.,"The foundation was laid in 1777 when a Mongolian monk named Tsevendorj first built a small temple in the foothills of Mt. Munkh-Ulziit in the Bayanzurkh Bag area of ​​Yumnadelger soum and carved a stone statue of Manjushri. It has since grown to become one of the largest monasteries in Mongolia, with 5,000-6,000 monks, and has become the religious and cultural center of the people of eastern Mongolia.",https://www.dropbox.com/scl/fi/pbjjs628jml252byf1aj7/.jpg?rlkey=lgnc8d9j6ffy7kf9wy7h1dt8h&raw=1,발단 베레벤 수도원,バルダン ベレーベン修道院,巴尔丹贝里文修道院,Балдан Беревенский монастырь
383,1,Байгалийн үзэсгэлэнт газар,Биндэр нуур,Binder Lake,Хэнтий ,Khentii,Батширээт,Batshireet,48.37154,110.29271,Батширээт сумын төвөөс өмнө зүгт 40 км зайтай оршино.,It is located 40 km south of the center of Batsireet soum.,https://www.dropbox.com/scl/fi/xa65up4fcjhaq7jti9da5/Bindelake.jpg?rlkey=28m3hc7m6e6lwvq746dac2gkj&raw=0,바인더 호수,バインダー湖,宾德湖,Биндер-Лейк
384,2,Түүхийн дурсгалт газар,Боданчирын өвсөн эмбүүл ,Bodanchir Uvsun Embuul,Хэнтий ,Khentii,Дадал,Dadal,49.05947,111.5181,Дадал сумын төвөөс баруун хойд зүгт 10 км зайтай оршино.,It is located 10 km southwest of the center of Dadal soum.,https://www.dropbox.com/scl/fi/6lniu97oaj0zpew2hb2jk/.jpg?rlkey=pg7u8u78bcnh63c3vosylfr51&raw=1,보다치르 우브순 엠불,ボダンチル・ウヴスン・エンブール,博丹奇尔·乌孙·埃布乌尔,Боданчир Увсун Эмбуул
385,1,Байгалийн үзэсгэлэнт газар,Босгон нуур,Bosgon Lake,Хэнтий ,Khentii,Дархан,Darkhan,46.75771,109.53998,Дархан сумын төвөөс зүүнхойд зүгт 18 км зайтай оршино,It is located 18 km northeast of the center of Darkhan soum.,,보스곤 호수,ボスゴン湖,博斯贡湖,Озеро Босгон
386,1,Байгалийн үзэсгэлэнт газар,Бурхан халдун уул,Burkhan Khaldun Mountain,Хэнтий ,Khentii,Өмнөдэлгэр,Umnudelger,48.76202,109.01025,"Бурхан халдун уул нь ар өврөөрөө битүү модоор хучигдсан, зөвхөн орой хавьдаа сийрэг модтой, тайгын тачир ургамалтай уул юм. Бурхан халдун ууланд дээд, дунд, доод хэмээх гурван овоо байдаг. ","Burkhan Khaldun Mountain is a mountain covered with dense trees on its back, with only sparse trees near the top, and with taiga vegetation. Burkhan Khaldun Mountain has three peaks: upper, middle, and lower.",https://www.dropbox.com/scl/fi/wp2by0zpsuizz3wj1952d/burhan-halduun.jpg?rlkey=yv29wsozgcbft32pn8qyqhehu&raw=1,부르칸 칼둔 산,ブルカン・ハルドゥン山,不儿罕合勒敦山,Гора Бурхан Халдун
387,2,Түүхийн дурсгалт газар,Бэрхийн уурхайн музей,Berkh Mining Museum,Хэнтий ,Khentii,Батноров,Batnorov,47.77544,111.17105,"""Монголын далд уурхайн музей, сургалт судалгаа, аялал жуулчлалын төв”","""Mongolian Underground Mining Museum, Training, Research and Tourism Center""",https://www.dropbox.com/scl/fi/dl455ho81vjemy1zb6tq2/.jpg?rlkey=ievzb2azfnbqd77ptk4rdw3ja&raw=1,버크 광산 박물관,ベルク鉱山博物館,伯克矿业博物馆,Берхский горный музей
388,1,Байгалийн үзэсгэлэнт газар,Гүрэмийн нуур,Gurem Lake,Хэнтий ,Khentii,Баян-Овоо,Bayan-Ovoo,47.82799,112.15672,Баян-Овоо сумын төвөөс зүүн хойд зүгт 4.5 км зайтай оршино.,It is located 4.5 km northeast of the center of Bayan-Ovoo soum.,https://www.dropbox.com/scl/fi/fu0be3isn24fxhedft01k/.jpg?rlkey=7xshwqsob1oh5a4n4f08ptf2k&raw=1,구렘 호수,グレム湖,古雷姆湖,Озеро Гюрем
389,2,Түүхийн дурсгалт газар,Гэлэн хөшөө,Gelen Statue,Хэнтий ,Khentii,Мөрөн,Murun,47.27881,110.60156,Чингис хотоос өмнө зүгт 4.5 км зайтай оршино.,It is located 4.5 km south of Chinggis City.,https://www.dropbox.com/scl/fi/vbvw2lryoqqgrmt19jgh6/.jpg?rlkey=3720z1cy5qn998quh0uyx8847&raw=1,겔렌 동상,ゲーレン像,盖伦雕像,Статуя Гелена
390,2,Түүхийн дурсгалт газар,Гэнэнпил хатны дурсгал,Genenpil Queen Memorial,Хэнтий ,Khentii,Дадал,Dadal,49.03998,111.55421,"Богд хааны бага хатан, Дадал сумын төвөөс баруун зүгт 8 км зайтай оршино.",The younger sister of Bogd Khan is located 8 km west of the center of Dadal soum.,https://www.dropbox.com/scl/fi/l1nsxskm0ait384ns2ppj/.jpg?rlkey=hdv6jjn9nu7u2uzh0ybugmjq7&raw=1,제넨필 여왕 기념관,ゲネンピル女王記念碑,格南皮尔女王纪念馆,Мемориал королевы Гененпил
391,2,Түүхийн дурсгалт газар,Дөрвөлжин булш,Durvuljin Bulsh,Хэнтий ,Khentii,Дадал,Dadal,49.0551,111.55441,Дадал сумын төвөөс баруун хойд зүгт 7.5 км зайтай оршино.,It is located 7.5 km southwest of the center of Dadal soum.,https://www.dropbox.com/scl/fi/v7g45vfv78w1osh20n5uw/.jpg?rlkey=a9ovgmzkfpx9kwgcl2l4495mc&raw=1,두르불진 불쉬,ダーヴルジン・ブルシュ,杜尔武金·布尔什,Дурвулджин Булш
392,2,Түүхийн дурсгалт газар,Дуурлиг нарсны хүннүгийн булш,Duurlig Nars Khunnu Tomb,Хэнтий ,Khentii,Баян-Адрага,Bayan-Adraga,48.53803,111.07772, Баян-Адрага сумын төвийн өмнөх нарсан ойд тархсан Хүннүгийн язгууртны булшнууд юм. Энд нийт 299 булш тоолж бүртгэснээс дийлэнх нь үүдэвч бүхий язгууртны булшнууд ажээ. Дуурлиг нарсны булшнуудыг Хүннү гүрний зүүн жигүүрийн ихэс язгууртны оршуулга хэмээн таамагладаг.,"The tombs of the Huns are scattered in the pine forest in front of the center of Bayan-Adraga soum. A total of 299 tombs have been recorded here, most of which are tombs of nobles with a yudevch. The Duurlig pine tombs are believed to be the burial grounds of the high nobility of the left wing of the Huns.",https://www.dropbox.com/scl/fi/aiwpsl5liu2ge72bcaqok/.jpg?rlkey=98bc72ysvwfd5qa1jowvqclhi&draw=1,두를리그 나르스 쿤누 무덤,ドゥルリグ ナルス クンヌの墓,杜里格·纳尔斯·昆努墓,Гробница Дуурлиг Нарс Хунну
393,2,Түүхийн дурсгалт газар,Дэлүүн болдог уул,Deluun Boldog  ,Хэнтий ,Khentii,Дадал,Dadal,49.05265,111.64317,Дадал сумын төвөөс хойд зүгт 3.5 км зайтай оршино.,It is located 2 km north of the center of Dadal soum.,https://www.dropbox.com/scl/fi/6ah4of9yao3nusblumw1h/Deluunboldog.jpg?rlkey=5fjx4p80gw9qsvs0rpeqijwzz&raw=1,델룬 볼독,デルウン・ボルドッグ,德伦·博尔多格,Делуун Болдог
394,2,Түүхийн дурсгалт газар,Зүүн Жаргалантын буган хөшөө ,Zuun Jargalant Deer Stone,Хэнтий ,Khentii,Өмнөдэлгэр,Umnudelger,48.25006,109.65006,Өмнөдөлгөр сумын төвөөс баруун хойд зүгт 51 км зайтай оршино.,It is located 51 km northwest of the center of Yundumulgar soum.,https://www.dropbox.com/scl/fi/0b2uncnki8z5xenxv5nou/.jpg?rlkey=32qafpgrn98s0pckyrb4j11q2&raw=1,주운 자르갈란트 디어 록,ズーン・ジャルガラントの鹿の石,祖恩·贾加兰特·鹿岩,Зуун Джаргалант Олений камень
395,2,Түүхийн дурсгалт газар,Монгол хатдын өргөө,Mongol Queens Palace,Хэнтий ,Khentii,Баян-Адрага,Bayan-Adraga,48.55357,111.06941, Баян-Адарга сумаас  баруун зүгт 1 км орчим зайтай газар оршино. ,It is located about 1 km west of Bayan-Adarga soum.,https://www.dropbox.com/scl/fi/rnveht896gchetstr7lcz/.jpg?rlkey=0o53kqoaym0eamnnwcu822ehz&raw=1,몽골 여왕의 궁전,モンゴル王妃の宮殿,蒙古王后宫殿,Дворец монгольских королев
396,2,Түүхийн дурсгалт газар,Монголын нууц товчооны гэрэлт хөшөө ,Statue Of Mongolian Secret History,Хэнтий ,Khentii,Дэлгэрхаан,Delgerkhaan,47.10257,109.15586,Дэлгэрхаан сумын төвөөс өмнө зүгт 9.9 км зайтай оршино.,It is located 9.9 km south of the center of Delgerhaan soum.,https://www.dropbox.com/scl/fi/la859v42lbvs9v4sn3we4/.jpg?rlkey=shx67hcklgg9k1f2dfu2n7i2m&raw=1,몽골비사의 동상,モンゴル秘史の像,蒙古秘史雕像,Статуя тайной истории Монголии
397,2,Түүхийн дурсгалт газар,Өглөгчийн хэрэм,Uglugchiin Kherem,Хэнтий ,Khentii,Батширээт,Batshireet,48.40668,110.19725,Батширээт сумын төвөөс өмнө зүгт 45 км зайтай оршино.,It is located 45 km south of the center of Batshireet soum.,https://www.dropbox.com/scl/fi/pgki81iwltadu69kdjh1x/.jpg?rlkey=rgwqo5xe28g5iur0n9yqcswfv&raw=1,우글루친 케렘,ウグルクチン・ケレム,乌格鲁钦凯雷姆,Углугчиин Херем
398,1,Байгалийн үзэсгэлэнт газар,Өндөрхаан уул,Undurkhaan Uul,Хэнтий ,Khentii,Мөрөн,Murun,47.5019,110.44073,"Өндөрхаан уулыг эртнээс нааш тайж тахиж ирсэн түүхтэй. Өндөрхаан хотоос хойш 28 километрт, далайн төвшнөөс дээш 2664 метр өндөрт оршдог. Өндөрхаан уулыг Бурхан Халдун уулын дүү уул хэмээн домоглох нь бий.","Undurkhaan Mountain has a long history of being worshipped. It is located 28 kilometers north of Undurkhaan City and 2,664 meters above sea level. There is a legend that Undurkhaan Mountain is the younger mountain of Burkhan Khaldun Mountain.",https://www.dropbox.com/scl/fi/ibhb63y0ojnjzr2p4o0rk/.JPG?rlkey=k4p4rgg91pn26yzii5lbcbpti&raw=1,운두르칸 울,ウンドゥルハーン・ウル,温都尔汗乌尔,Ундурхан Уул
399,2,Түүхийн дурсгалт газар,Рашаан хад,Rashaan Khad,Хэнтий ,Khentii,Батширээт,Batshireet,48.37952,110.29882, Биндэр уулын зүүн урд хормойн цохио бүхий үзүүрт оршдог. Рашаан хад нь чулуун зэвсгийн үеэс эхлээд 16-р зууны үе хүртэлх он цаг үед хамаарах Монголын дорнод хэсгийн түүх соёлын баялаг дурсгалтай цогцолбор хэмээн археологичид онцолдог. ,"Located on the southeastern tip of Binder Mountain, Rashaan Khad is considered by archaeologists to be a rich historical and cultural complex of eastern Mongolia, dating from the Stone Age to the 16th century.",https://www.dropbox.com/scl/fi/cebm49mi2i4eafdqol713/.jpg?rlkey=34c2yo355p71d4n4fiq2gtjss&raw=1,라샨 카드,ラシャーン・カド,拉沙安·卡德,Рашаан Хад
400,1,Байгалийн үзэсгэлэнт газар,Хажуу булаг рашаан,Khajuu Bulag Mineral Water,Хэнтий ,Khentii,Дадал,Dadal,49.04612,111.61442,"Дадал сумын төвийн зүүн хойно, Дэлүүн болдог толгойн баруун урд Баян-Овоо уулын зүүн суганаас урсах онцгой цэнгэг, карбонат натри, магнийн найрлагатай, рашаан төст булаг. Энэхүү Хажуу булгийн усаар Тэмүжинг мэндлээд гурав хоносны дараа биеийг нь угаасан, ундаалж өссөн хэмээх домогтой. Өнөө цагт ялангуяа ходоодны хүчил багатай хүмүүс энэ булгийн усыг ууж, хоол цайндаа хэрэглэхэд нэн тохиромжтой ажээ","A spring with exceptionally fresh, carbonated sodium and magnesium, flowing from the left flank of Bayan-Ovoo Mountain, northeast of the center of Dadal soum and southwest of Deluun Kuldag Tolgoi. Legend has it that Temujin washed his body with the water of this spring three days after his birth and grew up drinking it. Nowadays, people with low stomach acid, especially those who have low stomach acid, drink this spring water and use it in their meals.",https://www.dropbox.com/scl/fi/mf4cpkz6pwlb8iy3nevww/.jpg?rlkey=xfsbdl1mrx9jrndzjibziif0h&raw=1,카주 불락 미네랄 워터,カジュウ ブラグ ミネラルウォーター,卡朱布拉格水疗中心,Минеральная вода Хаджуу Булаг
401,1,Байгалийн үзэсгэлэнт газар,Хангал нуур,Khangal Lake,Хэнтий ,Khentii,Өмнөдэлгэр,Umnudelger,48.13237,109.38842,Өмнөдөлгөр сумын төвөөс баруун хойд зүгт 57 км зайтай оршино.,It is located 57 km northwest of the center of Yundumulgar soum.,https://www.dropbox.com/scl/fi/mnbqmvck8hyxkn8sfbngg/.jpg?rlkey=y9mqnbv6s17uy5vpci8zgsbpl&raw=1,칸갈 호수,カンガル湖,坎加尔湖,Озеро Хангал
402,1,Байгалийн үзэсгэлэнт газар,Хар зүрхний хөх нуур,Khar Zurkhnii Khukh Lake,Хэнтий ,Khentii,Цэнхэрмандал,Tsenkhermandal,48.02074,108.94816,Цэнхэрмандал  сумын төвөөс баруун хойд зүгт 42 км зайтай оршино.,It is located 42 km northwest of the center of Tsenkhermandal soum.,https://www.dropbox.com/scl/fi/01l7qozzboy79sggp7vhl/.jpg?rlkey=ktbb2lv04apdgalu4r02j26cl&raw=1,카르 주르크니 쿠크 호수,カール・ズルクニ・クク湖,哈尔祖尔赫尼库赫湖,Озеро Хар Зурхный Хух
403,2,Түүхийн дурсгалт газар,Хөхүүрийн тал,Khukhuuriin Tal,Хэнтий ,Khentii,Батноров,Batnorov,47.85707,111.53235,Батноров сумын төвөөс зүүн өмнө зүгт 10 км зайтай оршино.,It is located 10 km southeast of the center of Batnorov soum.,https://www.dropbox.com/scl/fi/xb1q2gd5ukg1d5q87c941/.jpg?rlkey=48i2lgzyn4hufh09gev8ub6hu&raw=1,쿠후린 탈,クフリン・タル,库胡里林塔尔,Хухуурин Тал
404,2,Түүхийн дурсгалт газар,Хүслийн мод,Khusliin Mod,Хэнтий ,Khentii,Баян-Адрага,Bayan-Adraga,48.54228,111.05383,Баян-Адарга сумын төвөөс баруун өмнө зүгт 2.5 км зайтай оршино.,It is located 2.5 km southwest of the center of Bayan-Adarga soum.,https://www.dropbox.com/scl/fi/gsfkvjjw1mz1uku7ed61s/.jpg?rlkey=lekkyk94dm7i2owzz2fdqs61z&raw=1,쿠슬린 모드,フスリーン・モッド,库斯林莫德,Хуслин Мод
405,1,Байгалийн үзэсгэлэнт газар,Хэрлэн бургас,Kherlen Burgas,Хэнтий ,Khentii,Цэнхэрмандал,Tsenkhermandal,48.02502,108.53733,Төв аймгийн Мөнгөнморьт  сумын төвөөс өмнө зүгт 21 км зайтай оршино,"It is located 21 km south of the center of Mungunmort soum, Tuv aimag.",,케를렌 부르가스,ヘルレン・ブルガス,克鲁伦·布尔加斯,Херлен Бургас
406,1,Байгалийн үзэсгэлэнт газар,Хэрлэнгийн хөдөө арал,Kherlengiin Khuduu Aral,Хэнтий ,Khentii,Дэлгэрхаан,Delgerkhaan,47.10401,109.15782,"Хэрлэнбаян улаан уулнаас урагш Хэрлэн тооно уулаас баруун тийш Хэрлэнгийн тохойд далайн төвшнөөс дээш 1300 метр өндөрт орших 30 гаруй километр урт, 20 гаруй километр өргөн тал байдгийг Хөдөө арал гэж нэрлэдэг. Хөдөө арал бол Их хуралдай хуралдаж Өгөөдэй, Мөнх, Есөнтөмөр хааныг хаан ширээнд өргөмжилж байсан түүхт газар юм. ","Khudeu Aral is a plain more than 30 kilometers long and more than 20 kilometers wide, located at an altitude of 1,300 meters above sea level, south of Kherlenbayan Ulaan Mountain and west of Kherlen Toon Mountain. Khudeu Aral is the historical site where the Great Khuraldai convened and crowned Ögedei, Mönghe, and Yesentumur Khans.",https://www.dropbox.com/scl/fi/gkj0pwil19gbajdtsku0e/.jpg?rlkey=hurcz4pjvqf478x26ns6enqcy&raw=1,케를렌긴 쿠두 아랄,ヘルレンギン・クドゥ・アラル,凯尔伦吉因库杜阿拉尔,Херленгиин Худуу Арал
407,1,Байгалийн үзэсгэлэнт газар,Цагаан нуур,Tsagaan Lake,Хэнтий ,Khentii,Биндэр,Binder,48.59309,110.6158,Биндэр сумын төвөөс өмнө зүгт 2.2 км зайтай оршино.,It is located 2.2 km south of the center of Binder soum.,,차가안 호수,ツァガーン湖,查干湖,Озеро Цагаан
408,1,Байгалийн үзэсгэлэнт газар,Цайдам нуур ,Tsaidam Lake,Хэнтий ,Khentii,Дархан,Darkhan,46.75251,109.38214,Дархан сумын төвөөс хойд зүгт 13 км зайтай оршино,It is located 13 km north of the center of Darkhan soum.,,차이담 호수,ツァイダム湖,柴达木湖,Озеро Цайдам
409,1,Байгалийн үзэсгэлэнт газар,Цэгээн нуур,Tsegeen Lake,Хэнтий ,Khentii,Батширээт,Batshireet,48.21028,110.38539,Батширээт сумын төвөөс зүүн өмнө зүгт 66 км зайтай оршино.,It is located 66 km southeast of the center of Batshireet soum.,,체긴 호수,ツェギーン湖,策根湖,Озеро Цеген
410,2,Түүхийн дурсгалт газар,Чингисийн гэрэлт хөшөө,Chinggis Khaan Statue,Хэнтий ,Khentii,Дадал,Dadal,49.03346,111.6547,"Хэнтий аймгийн Дадал сумын Ононы Дэлүүн болдогийн орчим Гурван нуурын амралтын төвд 1962 оны тавдугаар сард босгосон энэ хөшөө хоёр метр гүн суурьтай, 12 метр өндөр ажээ. Цавчим хад мэт хананд Чингис хааныхаа дүрийг зурж “Алтан бие минь алжааваас алжаатугай, аху төр минь бүү алжаатугай” хэмээх алдарт гэрээсийг нь монгол бичгээр бичжээ. Мөн түүний мандуулсан төрийн их цагаан тугийг дүрсэлсэн байна. ","This statue, erected in May 1962 at the Gurvan Nuur Recreation Center near Onon Deluun Kuldzhiyin, Dadal soum, Khentii aimag, has a two-meter-deep base and is 12 meters high. On the rock-like wall of the Tsavchim, the image of Genghis Khan is depicted, with his famous words “May my golden body not fade, may my great state not fade” written in Mongolian script. It also depicts the great white flag of the state that he raised.",https://www.dropbox.com/scl/fi/zujrjvr4hx3c49mdi28gk/.JPG?rlkey=02zx19odgyzb91fnwrh5w63ys&raw=1,칭기스칸 동상,チンギス・ハーン像,成吉思汗雕像,Статуя Чингисхана
411,2,Түүхийн дурсгалт газар,Их хуралдай гэр хөшөө,Yurt Statue Ikh Khuraldai,Хэнтий ,Khentii,Биндэр,Binder,48.60066,110.61103,Биндэр сумын төвөөс өмнө зүгт 1.8 км зайтай оршино.,It is located 1.8 km south of the center of Binder soum.,https://www.dropbox.com/scl/fi/rk6evki4eemr23fb4fk53/.jpg?rlkey=kvt0iomjhpd6vsk1u3f2d51x2&raw=1,유르트 조각상 이크 쿠랄다이,ユルト像イフ・クラルダイ,伊赫·库拉尔代的蒙古包雕像,Статуя юрты Их Хуралдай
412,2,Түүхийн дурсгалт газар,Дэлүүн болдог Биндэр ,Delun boldog Binder,Хэнтий ,Khentii,Биндэр,Binder,48.58727,110.63824,Биндэр сумын төвөөс зүүн өмнө зүгт 4 км зайтай оршино.,It is located 4 km southeast of the center of Binder soum.,https://www.dropbox.com/scl/fi/3we83dhjytx23eokjelqa/.jpg?rlkey=k485wich9nu6yy8ux9x8t3clz&raw=1,델룬 볼도그 바인더,デルン・ボルドッグ・バインダー,德伦·博尔多格·宾德,Дэлун болдог Биндэр
413,1,Байгалийн үзэсгэлэнт газар,Яргуйн хавцал,Yarguyin Canyon,Хэнтий ,Khentii,Биндэр,Binder,48.66589,110.53233,Биндэр сумын төвөөс баруун хойд зүгт 8 км зайтай оршино.,It is located 8 km northwest of the center of Binder soum.,https://www.dropbox.com/scl/fi/945j6cy5gksfefgow88lg/.jpg?rlkey=quxys5c47pt7shpgibhbl0aq7&raw=1,야르구인 협곡,ヤルグイン渓谷,亚尔古因峡谷,Каньон Яргуин
